{"type":"FeatureCollection","features":[{"type":"Feature","id":"dali","properties":{"id":"dali"},"geometry":{"type":"Polygon","coordinates":[[[104.58104757100006,24.817365169000027],[104.55498020100003,24.655111662000024],[104.69637307600004,24.46220887900006],[104.77464413100006,24.54951118100007],[104.96148471300006,24.515056990000062],[105.07257911400006,24.558697367000036],[105.21144711500006,24.43692585100007],[105.24679533300008,24.22757213400007],[105.46393438800004,24.15387118700005],[105.62047649800007,24.22066448000004],[105.85781453600003,24.11239570500004],[106.07561611900007,24.147652566000033],[106.20385541500008,23.971060829000066],[106.13973576700005,23.601042091000068],[105.87601785900006,23.588721625000062],[105.53706587800008,23.28252977300008],[105.30198747200006,23.34158830900003],[104.90920209500007,23.111150450000025],[104.90476384200008,22.89462729400003],[104.36995437100006,22.72893749800005],[104.25012154500007,22.849645071000054],[104.10809745300008,22.745310885000038],[103.99492200500003,22.50975544100004],[103.67536779800008,22.78828168900003],[103.58216448800005,22.579439926000077],[103.40463437300008,22.79237344300003],[103.02960200600006,22.462596005000023],[102.61462536300007,22.769867287000068],[102.49479253600003,22.733031028000028],[102.44819088100007,22.616317457000036],[102.20630610000006,22.427728711000043],[101.71227307800007,22.45657176800006],[101.59438198600009,22.193558515000063],[101.79549031800008,21.86248954900003],[101.78156530100006,21.171143518000065],[101.30294411100004,21.20822159100004],[101.10340026300008,21.71000334400003],[100.83266683800008,21.604817292000064],[100.62850720700004,21.435534302000065],[100.39549893100008,21.49129559200003],[100.24016008000007,21.39628209600005],[100.14695677000009,21.641950535000035],[99.99161792000007,21.763598057000024],[99.99383704700006,22.037441846000036],[99.21936192100009,22.152586602000042],[99.28371658900005,22.409266009000078],[99.42033156000008,22.555874113000073],[99.40299463300005,22.783038954000062],[99.54169003600003,22.965137568000046],[99.50354880000003,23.121482770000057],[99.13947337000008,23.102348216000053],[98.95223457800006,23.233046572000035],[98.88288687700003,23.61484155000005],[98.74765886000006,23.935326662000023],[98.86208256500004,24.15065221100008],[98.56042006600006,24.131667434000065],[98.33157265300008,24.18545031000008],[98.04377969300003,24.11267983700003],[97.76638889000009,23.88460944700006],[97.64503041300009,23.88460944700006],[97.77332366100006,24.239210525000033],[97.64503041300009,24.42561373600006],[97.58261748200005,24.662169773000073],[97.63116087300006,24.822772410000027],[97.81839966700005,24.87311474300003],[97.75945412000004,25.002023333000068],[97.89121475200005,25.30019388100004],[98.14780124500004,25.366006737000077],[98.21435878500006,25.57660872500003],[98.40059528700004,25.584244253000065],[98.56990119800008,25.805462229000057],[98.65455415300005,25.790219023000077],[98.75613770000007,25.91972372500004],[98.61222767600003,26.06429608700006],[98.78153358500003,26.269434296000043],[98.82589173500008,26.961469432000058],[98.76087826500009,27.56826390200007],[98.56042006600006,27.67387137700007],[98.43581091700008,27.539444197000023],[98.17575703800009,27.961372657000027],[98.15436570600008,28.213301262000073],[98.36904198600007,28.37661694600007],[98.50639506300007,28.306928135000078],[98.67445059300007,28.38372547800003],[98.67445059300007,28.970651495000027],[98.82957877500007,29.015880494000044],[98.93622939900007,29.13168940500003],[98.93138164400006,29.272743395000077],[98.98147511800005,29.31783964600004],[99.12145406400003,29.340099191000036],[99.21487435500006,28.535023912000042],[99.39161544700005,28.246268822000047],[99.50523472000003,28.35964340000004],[99.65925195700004,28.375195183000073],[99.93698795800003,28.637010039000074],[100.14150265000006,28.61706401600003],[100.20462447000006,28.557203221000066],[100.12382854100008,28.38630220300007],[100.18190061400009,28.086005269000054],[100.50966065600005,27.961608308000052],[100.63195918000008,27.975545684000053],[100.97912918200007,27.672002477000035],[101.05014122800009,27.455167921000054],[101.24345179800008,27.308037135000063],[101.27264563800009,27.04973731700005],[101.53018265900005,26.797602874000063],[101.52260803900003,26.63747653300004],[101.65137654900008,26.531353700000068],[101.68167502200004,26.32333983700005],[101.86346585900009,26.20107028500007],[102.05535618900007,26.17161581000005],[102.55780586400004,26.44548043700007],[102.77242004800007,26.332391717000064],[103.06025554000007,26.51779902900006],[103.06974906100004,26.83158377600006],[102.95017108700006,26.982886593000046],[103.02238244900008,27.489610241000037],[103.19912354100006,27.56573712100004],[103.57280470600006,27.907653710000034],[103.55528840000005,28.236537438000028],[103.61841022000004,28.32339335100005],[103.91034863100003,28.378943931000038],[103.93796442500008,28.465683483000078],[103.86695237900005,28.638949034000063],[103.91823885700006,28.70125475900005],[104.30091488200009,28.749689138000065],[104.39954272400007,28.704715101000033],[104.35614647300008,28.420587786000056],[104.49028033800005,28.316447485000026],[104.45871942800005,28.114820309000038],[104.50606079300007,28.031277174000024],[104.82166988500006,27.975545684000053],[105.02681579500006,28.052169047000064],[105.05443159100008,28.17047961000003],[105.20829102300007,28.194821456000057],[105.34242488800004,28.076537770000073],[105.37404891900007,27.84926878500005],[105.21730481900005,27.501525337000032],[104.91674396900004,27.425533315000052],[104.35602022900008,27.510124906000044],[104.23644225600003,27.39827814100005],[103.99405447300006,27.487191231000054],[103.69187770500008,27.198680866000075],[103.83731037300004,27.05486419700003],[103.79691241100005,26.905099041000028],[103.85054070700005,26.669068563000053],[104.06263001700006,26.63747653300004],[104.20654776500004,26.768300819000046],[104.49185838300008,26.802110210000023],[104.70899744000008,26.53587156900005],[104.58709658200007,26.372121090000064],[104.56447372300005,26.14895345700006],[104.35602022900008,25.798853447000056],[104.49660514500005,25.519192820000058],[104.65173332600006,25.478354285000023],[104.75999986900007,25.330928674000063],[104.70829047500007,25.057498339000063],[104.62820151200003,24.998839485000076],[104.58104757100006,24.817365169000027]]]}},{"type":"Feature","id":"xihu","properties":{"id":"xihu"},"geometry":{"type":"Polygon","coordinates":[[[120.54140008200011,27.28741374300006],[120.41178698500005,27.39397407900003],[120.2388836990001,27.43700716400008],[119.89792488400008,27.356665184000065],[119.694319145,27.68626773300008],[119.61079635600004,27.69994989500003],[119.50727657400012,27.559022164000055],[119.2977121350001,27.491850020000072],[119.04774973400004,27.55230679700003],[118.93918020800004,27.96119015800008],[118.84575991500003,28.101596975000064],[118.89625737000006,28.252941258000078],[118.82051118900006,28.35519961400007],[118.59094838800002,28.390088225000056],[118.56299389500009,28.733690978000027],[118.16848252900002,29.186738011000045],[118.16848252900002,29.288937358000055],[118.29055000100004,29.512701785000047],[118.55066541400004,29.573479148000047],[118.8403846980001,29.793048076000048],[118.84654893800007,29.94806280100005],[118.96366950000004,29.99078306100006],[119.0068191800001,30.427603469000076],[119.30270270400001,30.374436614000047],[119.46297294700003,30.49667707800006],[119.37050934600006,30.67179752100003],[119.6355716710001,30.862476574000027],[119.73999731800006,31.22506099000003],[120.03008303500008,31.219927537000046],[120.30624099200008,30.969937291000065],[120.55478315200003,31.003758177000066],[120.60212451600012,30.87856105000003],[121.0018690170001,31.09295347400007],[121.11167362900005,31.021493710000072],[121.15821208300008,30.88313502300008],[121.33919496100009,30.820985921000045],[121.41811606100009,30.710089537000044],[121.02214042500009,30.52455830100007],[120.98053180400007,30.399029882000036],[120.59565206500008,30.419962515000066],[120.38760896000008,30.39005738000003],[120.359869881,30.327226798000027],[120.86957548200007,30.171472831000074],[121.23087700600001,30.317409616000077],[121.41950275200008,30.309746741000026],[121.77456298200002,29.970066029000066],[121.89661493400001,29.993132142000036],[122.1207467050001,30.16595701500006],[122.41145226800006,29.97391075300004],[122.38482274900002,29.898911807000047],[121.98316086600005,29.76415668100003],[121.74571433800008,29.561683853000034],[121.88108105100002,29.540448852000054],[122.00341039400007,29.657547677000025],[121.97567131400001,29.26507756600006],[121.89245407200008,29.210616068000036],[121.88551930300002,29.065243920000057],[121.69828050900003,28.937874866000072],[121.67747619900001,28.755647285000066],[121.53184602700003,28.655286235000062],[121.61506326900007,28.30784592200007],[121.2475204540001,28.069467058000043],[121.29606384400006,28.33531693300006],[121.10535766600003,28.301740288000076],[121.02560781000011,28.048048120000033],[120.87304286800008,27.95007867000004],[120.6892714600001,27.655637365000075],[120.64419545400006,27.369639119000055],[120.54140008200011,27.28741374300006]]]}},{"type":"Feature","id":"xuanwu","properties":{"id":"xuanwu"},"geometry":{"type":"Polygon","coordinates":[[[121.0018690170001,31.09295347400007],[120.60212451600012,30.87856105000003],[120.55478315200003,31.003758177000066],[120.30624099200008,30.969937291000065],[120.03008303500008,31.219927537000046],[119.79337621500008,31.21317969900008],[119.32390769100004,31.358151976000045],[119.12665200900005,31.300863999000057],[118.94123166500003,31.341306191000058],[118.901780529,31.432237567000072],[118.96095723300004,31.496173501000044],[118.98857303000011,31.68436194800006],[118.61378723200005,31.898968169000057],[118.49148871000011,32.11641668800007],[118.71241507400009,32.26665535500007],[118.83076848300004,32.423306172000025],[118.74397598400003,32.58633381400006],[118.75975643700008,32.66275497500004],[118.98462791700001,32.66275497500004],[119.14637757700007,32.58965783100007],[119.2292249620001,32.66275497500004],[119.15821291600002,32.94130310300005],[119.02013393900006,33.03726560400003],[118.9057256420001,33.027343287000065],[118.834713598,32.82866258700005],[118.55066541400004,32.82534746300007],[118.41653154900007,32.911500431000036],[118.29423302700002,33.248675228000025],[118.11275779900006,33.304745223000054],[118.09697734300005,33.37725290800006],[118.21138563900001,33.61741350300008],[118.23191285400003,33.83001185300003],[117.88449036500003,33.81255975400006],[117.74067361300001,34.06325823700007],[117.22034784000004,34.128827122000075],[117.06360374000008,34.30654350300006],[117.05869134700004,34.477970371000026],[116.70086234300004,34.571695559000034],[116.45645125200008,34.73220183800004],[116.51800724400005,34.759342262000075],[116.58042017500009,34.99828124700008],[117.02077807600006,35.052230577000046],[117.28429934100006,34.60822617700006],[117.48540767400004,34.65957954800007],[117.6587769250001,34.57397294000003],[117.89109172300005,34.63390683700004],[117.97084158000007,34.75079588800003],[118.08526528700008,34.767887752000036],[118.27250408000009,34.67098709000004],[118.2933083910001,34.513995805000036],[118.4978841090001,34.545417789000055],[118.60537304500008,34.728001232000054],[118.82381830200006,34.80775500500005],[119.06306787100004,35.17419488200005],[119.44213042800004,35.186350823000055],[119.25030666300006,35.08061065700008],[119.23643712500007,34.83337377500004],[119.47568669200007,34.770736052000075],[119.59011039900008,34.60822617700006],[120.33213080000007,34.26505923600007],[120.96666226500008,32.87840046500003],[120.8938471780001,32.66557020100004],[121.42088970600003,32.40833244600003],[121.46596571200007,32.18558075200008],[121.73295436,32.08575166400004],[121.97567131400001,31.770872127000075],[121.98260608400005,31.63222028100006],[121.34807462000003,31.85042938500004],[121.01520565500005,31.82391791300006],[120.92505364300007,31.941688338000063],[120.60605421900004,32.100439262000066],[120.2974569490001,32.00639784400005],[120.3564024960001,31.929918074000057],[120.50896743700002,32.00345749200005],[120.79676039700007,31.92403237600007],[120.86957548200007,31.806239368000035],[121.37472026300009,31.550450451000074],[121.30054218900011,31.508298902000035],[121.20197115600001,31.273801175000074],[121.0018690170001,31.09295347400007]]]}},{"type":"Feature","id":"kunshan","properties":{"id":"kunshan"},"geometry":{"type":"Polygon","coordinates":[[[121.0018690170001,31.09295347400007],[120.60212451600012,30.87856105000003],[120.55478315200003,31.003758177000066],[120.30624099200008,30.969937291000065],[120.03008303500008,31.219927537000046],[119.79337621500008,31.21317969900008],[119.32390769100004,31.358151976000045],[119.12665200900005,31.300863999000057],[118.94123166500003,31.341306191000058],[118.901780529,31.432237567000072],[118.96095723300004,31.496173501000044],[118.98857303000011,31.68436194800006],[118.61378723200005,31.898968169000057],[118.49148871000011,32.11641668800007],[118.71241507400009,32.26665535500007],[118.83076848300004,32.423306172000025],[118.74397598400003,32.58633381400006],[118.75975643700008,32.66275497500004],[118.98462791700001,32.66275497500004],[119.14637757700007,32.58965783100007],[119.2292249620001,32.66275497500004],[119.15821291600002,32.94130310300005],[119.02013393900006,33.03726560400003],[118.9057256420001,33.027343287000065],[118.834713598,32.82866258700005],[118.55066541400004,32.82534746300007],[118.41653154900007,32.911500431000036],[118.29423302700002,33.248675228000025],[118.11275779900006,33.304745223000054],[118.09697734300005,33.37725290800006],[118.21138563900001,33.61741350300008],[118.23191285400003,33.83001185300003],[117.88449036500003,33.81255975400006],[117.74067361300001,34.06325823700007],[117.22034784000004,34.128827122000075],[117.06360374000008,34.30654350300006],[117.05869134700004,34.477970371000026],[116.70086234300004,34.571695559000034],[116.45645125200008,34.73220183800004],[116.51800724400005,34.759342262000075],[116.58042017500009,34.99828124700008],[117.02077807600006,35.052230577000046],[117.28429934100006,34.60822617700006],[117.48540767400004,34.65957954800007],[117.6587769250001,34.57397294000003],[117.89109172300005,34.63390683700004],[117.97084158000007,34.75079588800003],[118.08526528700008,34.767887752000036],[118.27250408000009,34.67098709000004],[118.2933083910001,34.513995805000036],[118.4978841090001,34.545417789000055],[118.60537304500008,34.728001232000054],[118.82381830200006,34.80775500500005],[119.06306787100004,35.17419488200005],[119.44213042800004,35.186350823000055],[119.25030666300006,35.08061065700008],[119.23643712500007,34.83337377500004],[119.47568669200007,34.770736052000075],[119.59011039900008,34.60822617700006],[120.33213080000007,34.26505923600007],[120.96666226500008,32.87840046500003],[120.8938471780001,32.66557020100004],[121.42088970600003,32.40833244600003],[121.46596571200007,32.18558075200008],[121.73295436,32.08575166400004],[121.97567131400001,31.770872127000075],[121.98260608400005,31.63222028100006],[121.34807462000003,31.85042938500004],[121.01520565500005,31.82391791300006],[120.92505364300007,31.941688338000063],[120.60605421900004,32.100439262000066],[120.2974569490001,32.00639784400005],[120.3564024960001,31.929918074000057],[120.50896743700002,32.00345749200005],[120.79676039700007,31.92403237600007],[120.86957548200007,31.806239368000035],[121.37472026300009,31.550450451000074],[121.30054218900011,31.508298902000035],[121.20197115600001,31.273801175000074],[121.0018690170001,31.09295347400007]]]}},{"type":"Feature","id":"yangshuo","properties":{"id":"yangshuo"},"geometry":{"type":"Polygon","coordinates":[[[112.00096129100007,24.85742471100008],[112.076879082,24.46027835500007],[111.93952600500006,24.29248575300005],[111.91043947000009,24.01824262200006],[111.67936311700004,23.910449108000023],[111.66643576900009,23.76204918700006],[111.55816922600008,23.70642947300007],[111.42404798600006,23.373104589000036],[111.45798227500006,23.136211966000076],[111.41000969300006,22.964288484000065],[111.01107979900007,22.70133480900006],[110.79141587200007,22.62910846500006],[110.72829405400006,22.503204202000063],[110.76616714500005,22.344494965000024],[110.53640372600006,22.24637823100005],[110.37733674300006,22.248715143000027],[110.37531684500004,21.973065785000074],[110.06667640100005,21.961076975000026],[109.98426455500004,21.910113253000077],[109.92124373100006,21.73309787900007],[109.79197024500007,21.67904966900005],[109.74212505200006,21.546600053000077],[109.56714847700005,21.734741850000034],[109.49835555700008,21.72031157200007],[109.54939546500009,21.53877910700004],[109.15661008600006,21.437599915000078],[109.12554231500008,21.633699528000022],[108.85258976400007,21.753292934000058],[108.79471494700005,21.695982969000056],[108.65411109700005,21.955714466000074],[108.52486917200008,21.946493519000057],[108.49078339100004,21.743481770000074],[108.38142484100007,21.715776043000062],[108.31893424000003,21.606220277000034],[108.17975063000006,21.641868028000033],[108.04340750200004,21.581129555000075],[107.84031305200006,21.688064979000046],[107.53354101200006,21.623385106000057],[107.21398680700008,21.784370934000037],[107.06093123000005,21.96321794100004],[106.74669946000006,22.013454937000063],[106.73586388200005,22.29946490800006],[106.65459704400007,22.424723881000034],[106.64917925400005,22.569882809000035],[106.81973125800005,22.709491556000046],[106.83013341300006,22.83098330300004],[106.56314476400007,22.936401400000022],[106.37937335600009,22.882105331000048],[106.16092809700007,23.022591583000064],[105.97022191900004,22.945980801000076],[105.58534218000005,23.16930721400007],[105.53706587800008,23.28252977300008],[105.87601785900006,23.588721625000062],[106.13973576700005,23.601042091000068],[106.20385541500008,23.971060829000066],[106.12112038500004,24.107067435000033],[106.03321441600008,24.171242650000067],[105.85781453600003,24.11239570500004],[105.62047649800007,24.22066448000004],[105.46393438800004,24.15387118700005],[105.24679533300008,24.22757213400007],[105.21144711500006,24.43692585100007],[105.12307656900003,24.524245699000062],[104.77464413100006,24.54951118100007],[104.69637307600004,24.46220887900006],[104.54235583900004,24.710172148000026],[104.58104757100006,24.817365169000027],[104.85857090000007,24.79812660500005],[105.22053665600004,25.044323130000066],[105.48069954400006,25.000395542000035],[105.57765465600005,24.88904205500006],[106.03495960800007,24.780522356000063],[106.23048575200005,24.881712642000025],[106.25634044800006,25.05603449700004],[106.74111601500005,25.268108706000078],[106.99707751500006,25.318016716000045],[107.16047919800008,25.56549857400006],[107.30836806600007,25.62146147800007],[107.39420565900008,25.607473207000055],[107.42523129500006,25.49924201300007],[107.54209452400005,25.40399255400007],[107.68642837000004,25.40539382600008],[107.88841818900005,25.25495622300008],[108.13888556500007,25.329468114000065],[108.32310028000006,25.62122835200006],[108.64305215500008,25.507526084000062],[108.80141217300007,25.663474723000036],[109.06803873400008,25.702794099000073],[109.05995914100004,25.88756640500003],[109.12782771900004,25.92099827000004],[109.31436531900005,25.881206011000074],[109.53818465300009,26.125609403000055],[109.85563491300007,26.042523264000067],[110.03316502700005,26.336351689000026],[110.15940866300008,26.32928021200007],[110.20675002800004,26.12401978500003],[110.38033503000008,26.113393022000025],[110.71961480300007,26.438839537000035],[110.93265094100008,26.407042699000044],[111.12995080900004,26.469079374000046],[111.31739736200007,26.37501654600004],[111.32321719200007,26.060244725000075],[111.51258264900008,26.00352662100005],[111.37844878500005,25.545239502000072],[111.06660680200008,25.240399147000062],[111.05212817100005,25.145881961000043],[111.10487175400004,25.055039074000035],[111.31688026800003,25.226366580000047],[111.45442725500004,25.212332395000033],[111.51751271500007,25.103746743000045],[111.52371784200005,24.76520462800005],[111.69849559200009,24.886286247000044],[112.00096129100007,24.85742471100008]]]}},{"type":"Feature","id":"kamakura","properties":{"id":"kamakura"},"geometry":{"type":"MultiPolygon","coordinates":[[[[139.582614,33.888849],[139.618525,33.892425],[139.624655,33.856103],[139.578767,33.860291],[139.582614,33.888849]]],[[[139.510784,34.120492],[139.565869,34.10226],[139.531887,34.04656],[139.47842,34.057641],[139.510784,34.120492]]],[[[139.123,34.188248],[139.11945,34.191033],[139.121868,34.199326],[139.132506,34.20194],[139.137562,34.242395],[139.17069,34.23127],[139.123,34.188248]]],[[[139.2115382,34.3183314],[139.1940732,34.320036],[139.2271992,34.3302124],[139.2230232,34.3211484],[139.2115382,34.3183314]]],[[[139.246271,34.370146],[139.255168,34.401086],[139.287633,34.428065],[139.272397,34.329944],[139.246271,34.370146]]],[[[139.2806654,34.5346584],[139.293111,34.524618],[139.2774,34.511024],[139.267683,34.524289],[139.2806654,34.5346584]]],[[[139.375286,34.696235],[139.352485,34.718785],[139.3605045,34.7990851],[139.4490489,34.7414685],[139.4425721,34.6811809],[139.375286,34.696235]]],[[[139.086493,35.1098629],[139.140762,34.890882],[138.998696,34.74395],[138.986876,34.657417],[138.843433,34.600842],[138.739074,34.690174],[138.762228,34.972385],[138.7874161,35.0303181],[138.8913686,35.0170166],[138.9073054,35.0484867],[138.694796,35.144724],[138.5567507,35.1016287],[138.49109,35.029798],[138.519179,34.986927],[138.3554043,34.9134839],[138.197245,34.669113],[138.226739,34.594657],[137.97295,34.665332],[137.48498063231418,34.67385471222454],[137.487014,34.811749],[137.641252,34.893083],[137.838115,35.212467],[137.578737,35.198428],[137.546005,35.251681],[137.603914,35.333234],[137.575227,35.400009],[137.634917,35.401163],[137.593011,35.44703],[137.631587,35.509914],[137.513808,35.608023],[137.545447,35.651082],[137.464751,35.756372],[137.324992,35.816671],[137.594774,36.012916],[137.613948,36.076388],[137.554719,36.1402],[137.653054,36.304675],[137.587343,36.389801],[137.751031,36.5885],[137.751767,36.751109],[137.876452,36.866208],[137.863612,36.913134],[138.013732,36.904022],[138.003456,36.826415],[138.054146,36.800078],[138.213782,36.871151],[138.287607,36.845707],[138.394675,36.997177],[138.523934,37.030423],[138.693197,36.854817],[138.695926,36.738513],[138.789414,36.744874],[138.821738,36.817627],[138.929061,36.832644],[138.966547,36.979076],[139.047381,36.987294],[139.097008,37.0586272],[139.240839,36.929322],[139.393281,36.910796],[139.953874,37.155063],[140.137368,37.106436],[140.249449,37.025564],[140.240578,36.946175],[140.464178,36.791405],[140.591968,36.873023],[140.586096,36.945287],[140.798339,36.857793],[140.558897,36.26243],[140.7006551,35.9626036],[140.652346,35.926606],[140.690984,35.88279],[140.712616,35.954657],[140.8818889,35.7309252],[140.6431812,35.682911],[140.475898,35.554981],[140.3929486,35.4003493],[140.384318,35.18714],[140.1205516,35.1154345],[139.9281843,34.9092414],[139.758446,34.958824],[139.8582134,34.9991955],[139.810367,35.037531],[139.8152005,35.1706744],[139.8695109,35.2402409],[139.7837615,35.3128172],[140.1268264,35.5675927],[140.1177023,35.596561],[140.083973,35.596723],[139.9873372,35.6544577],[140.0019041,35.6656498],[139.9858471,35.6638438],[139.991522,35.6749343],[139.967652,35.68371],[139.9598611,35.6793278],[139.9531529,35.6717431],[139.9467454,35.6809811],[139.9366544,35.673303],[139.9290872,35.678754],[139.9223074,35.6736314],[139.8975772,35.6166486],[139.8412735,35.6467565],[139.798839,35.62177],[139.7610024,35.6518712],[139.7688302,35.5822371],[139.7874224,35.5794608],[139.7675192,35.5814628],[139.7420278,35.5702685],[139.8262697,35.541583],[139.6344855,35.4730372],[139.6317997,35.4530732],[139.6645494,35.4327641],[139.6906435,35.4392712],[139.6293858,35.4132026],[139.631087,35.2999534],[139.7470271,35.2534841],[139.6565871,35.1850866],[139.677757,35.138819],[139.6661153,35.1465732],[139.6296,35.136066],[139.6235316,35.1430903],[139.6194216,35.1387001],[139.6091147,35.1398418],[139.6048701,35.14457],[139.6274331,35.2157182],[139.571345,35.292924],[139.371809,35.316405],[139.1477565,35.2408986],[139.1609,35.140991],[139.086493,35.1098629]]],[[[139.6703783,35.451315],[139.6661143,35.4351707],[139.655968,35.4424504],[139.6641215,35.4428018],[139.6703783,35.451315]]],[[[139.764382,32.445617],[139.754619,32.451334],[139.758164,32.473434],[139.781211,32.45732],[139.764382,32.445617]]],[[[139.80996,33.057985],[139.753686,33.105068],[139.746799,33.156362],[139.846576,33.117032],[139.80996,33.057985]]],[[[139.675068,33.130814],[139.687338,33.136032],[139.700739,33.117445],[139.684213,33.118114],[139.675068,33.130814]]],[[[139.6891479,35.3987786],[139.684442,35.3949682],[139.6711781,35.4029118],[139.6888892,35.4127898],[139.6891479,35.3987786]]],[[[139.6705798,35.4644938],[139.678176,35.467491],[139.692424,35.472025],[139.7071963,35.4566516],[139.6705798,35.4644938]]],[[[139.7713959,35.5750796],[139.7656125,35.5648861],[139.758465,35.568435],[139.75766,35.574448],[139.7713959,35.5750796]]],[[[140.1094945,35.5766264],[140.0861217,35.5694568],[140.081603,35.588302],[140.1029658,35.5873872],[140.1094945,35.5766264]]],[[[139.805544,35.5854555],[139.820337,35.607352],[139.832152,35.588921],[139.817344,35.580847],[139.805544,35.5854555]]],[[[139.79053282155,35.595803125],[139.810581,35.613158],[139.8190281,35.6088347],[139.7915629,35.5939129],[139.79053282155,35.595803125]]],[[[139.7734532,35.6202615],[139.776535,35.6363081],[139.7867391,35.6018351],[139.7730612,35.6153267],[139.7734532,35.6202615]]],[[[139.8401121,35.6320678],[139.838602,35.6141579],[139.8355254,35.6124868],[139.8258515,35.6307042],[139.8401121,35.6320678]]],[[[139.960387,35.6786547],[139.9776432,35.6795004],[139.9794425,35.669825],[139.95802,35.6699764],[139.960387,35.6786547]]],[[[141.468806,24.227161],[141.455011,24.225426],[141.458992,24.244918],[141.472237,24.241893],[141.468806,24.227161]]],[[[153.9865637,24.2834421],[153.9856069,24.2812617],[153.971087,24.2847613],[153.9839843,24.2975015],[153.9865637,24.2834421]]],[[[141.34305,24.774792],[141.323075,24.770438],[141.284774,24.745725],[141.322053,24.812342],[141.34305,24.774792]]],[[[141.271816,25.430909],[141.278702,25.447203],[141.288181,25.447073],[141.291071,25.423701],[141.271816,25.430909]]],[[[142.151327,26.546586],[142.151559,26.562255],[142.15568,26.564652],[142.160914,26.548099],[142.151327,26.546586]]],[[[142.212505,26.564478],[142.215288,26.556814],[142.201565,26.553498],[142.203182,26.562102],[142.212505,26.564478]]],[[[142.127158,26.59595],[142.123412,26.607134],[142.132754,26.610106],[142.135941,26.60135],[142.127158,26.59595]]],[[[142.128059,26.696786],[142.164977,26.702392],[142.146624,26.685137],[142.189055,26.659371],[142.178485,26.607489],[142.128059,26.696786]]],[[[142.193794,27.075774],[142.21872,27.101131],[142.229743,27.036151],[142.186196,27.039744],[142.193794,27.075774]]],[[[142.197573,27.123455],[142.191183,27.144181],[142.235567,27.109593],[142.20077,27.109798],[142.197573,27.123455]]],[[[142.185584,27.150366],[142.180968,27.157616],[142.18912,27.190121],[142.202074,27.166424],[142.185584,27.150366]]],[[[140.8786382,27.2381831],[140.8728474,27.2400392],[140.8735319,27.2543905],[140.8864318,27.2519602],[140.8786382,27.2381831]]],[[[142.185492,27.619474],[142.175002,27.622049],[142.169782,27.634213],[142.183093,27.630383],[142.185492,27.619474]]],[[[142.138719,27.685634],[142.148246,27.683367],[142.145616,27.670576],[142.123938,27.683487],[142.138719,27.685634]]],[[[140.293734,30.493668],[140.312958,30.489391],[140.3089,30.474628],[140.290357,30.478833],[140.293734,30.493668]]]]}},{"type":"Feature","id":"kyoto","properties":{"id":"kyoto"},"geometry":{"type":"MultiPolygon","coordinates":[[[[133.674514,33.903186],[133.685098,34.00709],[133.665203,34.027239],[133.63946,34.025932],[133.626878,34.037767],[133.61331,34.032321],[133.598556,34.043468],[133.649042,34.193284],[133.557109,34.262063],[133.674139,34.221924],[133.89351,34.382396],[134.0883054,34.3406061],[134.136622,34.400316],[134.1645079,34.3266897],[134.210941,34.369373],[134.257796,34.285407],[134.436467,34.207274],[134.590342,34.23768],[134.586199,34.232348],[134.590511,34.224378],[134.58135,34.201756],[134.624437,34.180676],[134.64181,34.180274],[134.569596,34.041151],[134.706439,33.9258008],[134.6273671,33.8569919],[134.750263,33.833813],[134.397151,33.657047],[134.320025,33.539559],[134.19317,33.561627],[134.174654,33.684285],[134.058057,33.691033],[134.032828,33.8284],[133.91339,33.791181],[133.677293,33.858579],[133.674514,33.903186]]],[[[133.526051,34.136164],[133.54092,34.132901],[133.541626,34.128233],[133.531709,34.124053],[133.526051,34.136164]]],[[[133.644474,34.278098],[133.655011,34.270497],[133.617299,34.259089],[133.623752,34.286645],[133.644474,34.278098]]],[[[133.682226,34.308782],[133.673325,34.306301],[133.661702,34.324381],[133.680126,34.317111],[133.682226,34.308782]]],[[[133.622595,34.330917],[133.617394,34.350658],[133.619768,34.354848],[133.632019,34.338828],[133.622595,34.330917]]],[[[133.579085,34.355206],[133.581618,34.361845],[133.591089,34.361728],[133.573617,34.347725],[133.566587,34.353252],[133.579085,34.355206]]],[[[133.730569,34.370525],[133.709055,34.353331],[133.684445,34.361713],[133.709064,34.400629],[133.730569,34.370525]]],[[[133.5275029,34.3880675],[133.557726,34.396133],[133.558867,34.367135],[133.516892,34.382473],[133.5275029,34.3880675]]],[[[133.79018,34.391561],[133.795372,34.388374],[133.755221,34.370012],[133.752708,34.398608],[133.79018,34.391561]]],[[[133.8234039,34.3853995],[133.815588,34.383976],[133.812627,34.391928],[133.821268,34.395108],[133.8234039,34.3853995]]],[[[134.0566601,34.4073613],[134.0546532,34.3896956],[134.0379907,34.3793668],[134.050908,34.4082938],[134.0566601,34.4073613]]],[[[133.656134,34.404243],[133.675876,34.409821],[133.677956,34.394747],[133.665571,34.382845],[133.656134,34.404243]]],[[[133.51222,34.406622],[133.52162,34.415802],[133.52679,34.416084],[133.511906,34.390002],[133.51222,34.406622]]],[[[134.0608193,34.4337944],[134.0649645,34.4221214],[134.0551353,34.4162767],[134.052982,34.4228352],[134.0608193,34.4337944]]],[[[133.761815,34.421704],[133.762706,34.431557],[133.776957,34.42178],[133.769806,34.418548],[133.761815,34.421704]]],[[[133.515016,34.430755],[133.516134,34.428829],[133.499939,34.423807],[133.506715,34.433355],[133.515016,34.430755]]],[[[133.967674,34.468824],[133.982694,34.476752],[134.012639,34.453017],[133.9911599,34.4422891],[133.967674,34.468824]]],[[[134.1891467,34.4778384],[134.151449,34.459756],[134.140914,34.46956],[134.157168,34.492995],[134.1891467,34.4778384]]],[[[134.114715,34.478883],[134.115751,34.480399],[134.128144,34.481511],[134.108366,34.474453],[134.114715,34.478883]]],[[[134.103946,34.49185],[134.081319,34.459166],[134.036024,34.48115],[134.069147,34.498048],[134.103946,34.49185]]],[[[133.717063,34.487765],[133.73007,34.483759],[133.73282,34.474653],[133.704019,34.477888],[133.717063,34.487765]]],[[[134.02388216212532,34.50683860899181],[134.020193,34.488909],[134.020702,34.478391],[134.00755729092506,34.498035818303855],[134.02388216212532,34.50683860899181]]],[[[133.684552,34.504266],[133.683672,34.49048],[133.668839,34.490634],[133.66902,34.501843],[133.684552,34.504266]]],[[[134.201864,34.615859],[134.191018,34.605518],[134.164251,34.604018],[134.17398,34.612472],[134.201864,34.615859]]],[[[134.224956,34.667813],[134.220154,34.676617],[134.244268,34.678876],[134.244419,34.672389],[134.224956,34.667813]]],[[[134.252391,34.681841],[134.25591,34.687972],[134.273619,34.681649],[134.242643,34.680444],[134.252391,34.681841]]],[[[134.319499,34.728364],[134.18586,34.74296],[134.244938,34.698128],[134.170558,34.65286],[134.119968,34.588632],[134.041609,34.61241],[133.9460229,34.5991396],[134.047031,34.576498],[133.934918,34.450913],[133.830214,34.475865],[133.787047,34.435505],[133.739726,34.524949],[133.740194,34.469852],[133.705488,34.526744],[133.670193,34.5073],[133.669342,34.54091],[133.576223,34.465575],[133.486781,34.514169],[133.527468,34.453862],[133.473653,34.441395],[133.384686,34.616835],[133.378086,34.80836],[133.295191,34.895726],[133.321757,35.006145],[133.249577,35.079036],[133.136283,35.069572],[133.1949,35.169832],[133.152649,35.219072],[133.310551,35.267918],[133.320572,35.410277],[133.201021,35.535242],[133.2718842,35.5523333],[133.2674061,35.4962237],[133.4019664,35.4526895],[133.563907,35.530659],[134.196416,35.532704],[134.539763,35.670424],[134.879475,35.660869],[134.888571,35.612409],[134.910018,35.605851],[134.900924,35.648561],[135.223903,35.7793],[135.30338,35.662933],[135.154328,35.555247],[135.2020103,35.537486],[135.254494,35.599627],[135.241416,35.538576],[135.331871,35.515845],[135.313377,35.4524],[135.398221,35.478883],[135.343582,35.504044],[135.342353,35.551817],[135.462474,35.60379],[135.51451,35.495723],[135.66093,35.547663],[135.581249,35.489641],[135.715666,35.483499],[135.764964,35.533886],[135.717941,35.519726],[135.714644,35.569866],[135.833709,35.535834],[135.814667,35.642214],[135.978222,35.627607],[135.954224,35.721954],[136.017453,35.764068],[136.025542,35.680329],[136.086063,35.684231],[136.100253,35.778268],[135.957702,35.982529],[136.129871,36.1924],[136.123298,36.250095],[136.2440524088097,36.29527537129256],[136.358042,36.165101],[136.559794,36.153158],[136.674236,36.067229],[136.754282,36.086291],[136.851821,36.247103],[136.792284,36.299212],[136.837149,36.347216],[136.946995,36.345667],[136.975303,36.274365],[137.160705,36.456635],[137.389932,36.459923],[137.645419,36.341716],[137.550198,36.112894],[137.613948,36.076388],[137.594774,36.012916],[137.324551,35.812021],[137.459695,35.761354],[137.545447,35.651082],[137.513808,35.608023],[137.631587,35.509914],[137.593011,35.44703],[137.634917,35.401163],[137.575227,35.400009],[137.603914,35.333234],[137.546005,35.251681],[137.578737,35.198428],[137.838115,35.212467],[137.801179,35.105955],[137.633554,34.885455],[137.499992,34.831336],[137.48498063231418,34.67385471222454],[137.036764,34.577839],[137.070743,34.661603],[137.119245,34.634064],[137.28489,34.730902],[137.285477,34.678147],[137.312585,34.681535],[137.311602,34.696225],[137.321283,34.694339],[137.336996,34.705966],[137.344833,34.723804],[137.353153,34.726503],[137.3367552,34.7803359],[137.3011703,34.8102492],[137.21639,34.823011],[137.177623,34.765583],[137.02637,34.777594],[136.948837,34.826509],[136.983844,34.893259],[136.981009,34.956862],[136.914486,34.771739],[136.9778466,34.7017449],[136.9298213,34.7030817],[136.840141,34.763881],[136.8665673,34.8392584],[136.821961,34.883677],[136.890242,35.087967],[136.7783564,35.0378118],[136.7975463,35.0119683],[136.739887,35.032573],[136.656971,34.999669],[136.66677,34.936924],[136.5308,34.744705],[136.527141,34.610523],[136.923039,34.445765],[136.912565,34.375838],[136.812462,34.367561],[136.909203,34.365186],[136.901802,34.278271],[136.868588,34.262044],[136.854789,34.281345],[136.832918,34.270281],[136.866522,34.288627],[136.8110557,34.3280115],[136.687109,34.284083],[136.726603,34.3432991],[136.661942,34.345685],[136.605233,34.258432],[136.505697,34.279009],[136.507988,34.229161],[136.466064,34.25717],[136.322153,34.196075],[136.27778,34.160764],[136.297776,34.086619],[136.249986,34.093752],[136.268443,34.129028],[136.200865,34.076021],[136.281129,34.022579],[136.242057,34.014488],[136.272165,33.972494],[136.213858,34.001],[136.231506,33.946095],[136.098137,33.88259],[135.9370538,33.6427104],[135.959795,33.582117],[135.798811,33.499349],[135.787586,33.437962],[135.759696,33.484324],[135.446483,33.549257],[135.329573,33.670478],[135.377825,33.682793],[135.3996339,33.7224084],[135.234751,33.781565],[135.141147,33.885255],[135.057665,33.879834],[135.1181098,33.9602038],[135.067684,33.977028],[135.1715306,34.0277646],[135.07845,34.074122],[135.211513,34.148892],[135.067995,34.291702],[135.35366,34.450991],[135.402192,34.600059],[135.453017,34.56546],[135.4526681,34.6349418],[135.40729279054722,34.6970930632779],[135.3762122,34.6766612],[135.4011954,34.6991662],[135.3713149,34.6807792],[135.34861,34.7221674],[135.322315,34.7257584],[135.306279,34.7144504],[135.30564,34.7186874],[135.292072,34.72064],[135.0455937,34.6247668],[134.744975,34.769098],[134.474256,34.755223],[134.480096,34.7864],[134.465758,34.8090325],[134.4107383,34.7270258],[134.319499,34.728364]]],[[[134.502152,33.634545],[134.496447,33.630011],[134.481052,33.636378],[134.485299,33.645339],[134.502152,33.634545]]],[[[134.80925,33.840068],[134.807048,33.851345],[134.82147,33.856185],[134.819048,33.843467],[134.80925,33.840068]]],[[[134.66499,33.861151],[134.654658,33.853679],[134.645777,33.858695],[134.6531012,33.8676477],[134.66499,33.861151]]],[[[134.823528,34.157455],[134.81093,34.157702],[134.821207,34.179709],[134.830736,34.17218],[134.823528,34.157455]]],[[[134.61527,34.214223],[134.60416,34.208236],[134.621408,34.210416],[134.616755,34.232002],[134.643812,34.239446],[134.623929,34.185676],[134.587774,34.209039],[134.61527,34.214223]]],[[[134.6088,34.233525],[134.599511,34.219928],[134.591042,34.213965],[134.605937,34.252034],[134.6088,34.233525]]],[[[135.02057,34.291003],[135.010997,34.275869],[134.998895,34.279724],[135.019903,34.292977],[135.027507,34.293441],[135.02057,34.291003]]],[[[135.047207,34.297481],[135.060319,34.297569],[135.032495,34.295243],[135.037027,34.298466],[135.047207,34.297481]]],[[[134.6564217,34.2916434],[134.654315,34.293506],[134.687317,34.331108],[134.730134,34.32996],[134.876311,34.522368],[135.024212,34.589005],[134.894953,34.416724],[134.952506,34.267273],[134.731355,34.188768],[134.6564217,34.2916434]]],[[[135.2537905,34.4477628],[135.227501,34.413312],[135.200351,34.42802],[135.2416294,34.4554036],[135.2537905,34.4477628]]],[[[135.328714,34.447401],[135.32714,34.448373],[135.340558,34.466488],[135.345953,34.45448],[135.328714,34.447401]]],[[[134.284256,34.445763],[134.317718,34.471019],[134.267794,34.468129],[134.23154,34.414871],[134.16715,34.524827],[134.366555,34.561461],[134.338283,34.433475],[134.284256,34.445763]]],[[[135.2403593,34.6348811],[135.2286747,34.6305799],[135.2087877,34.6338005],[135.2360218,34.6417532],[135.2403593,34.6348811]]],[[[134.507671,34.639228],[134.501202,34.6464],[134.515357,34.659585],[134.518763,34.6409],[134.507671,34.639228]]],[[[135.3969083,34.6460358],[135.378966,34.643114],[135.372863,34.65201],[135.39962,34.656885],[135.3969083,34.6460358]]],[[[134.4611025,34.6586315],[134.4930121,34.6698146],[134.500056,34.644037],[134.467124,34.640325],[134.4611025,34.6586315]]],[[[134.569139,34.67566],[134.589768,34.668955],[134.591185,34.662046],[134.572036,34.651719],[134.569139,34.67566]]],[[[135.2279902,34.6758488],[135.2451884,34.6507529],[135.2042661,34.6562116],[135.2019977,34.6762634],[135.2279902,34.6758488]]],[[[134.530324,34.679729],[134.545908,34.679826],[134.541897,34.658195],[134.508095,34.677262],[134.530324,34.679729]]],[[[135.2905188,34.6816417],[135.2544681,34.6777543],[135.2522026,34.6933148],[135.2881567,34.6966671],[135.2905188,34.6816417]]],[[[134.870363,34.6984974],[134.8649181,34.7028239],[134.886213,34.6894862],[134.85716,34.692],[134.870363,34.6984974]]],[[[134.257724,34.689962],[134.250302,34.705686],[134.263631,34.706445],[134.271586,34.69607],[134.257724,34.689962]]],[[[134.858221,34.710496],[134.85352,34.69399],[134.836485,34.6972962],[134.848106,34.712161],[134.858221,34.710496]]],[[[135.288015,34.703976],[135.271656,34.702447],[135.271366,34.706353],[135.286757,34.711913],[135.288015,34.703976]]],[[[135.3113899,34.7056698],[135.306162,34.713206],[135.322083,34.716377],[135.320939,34.704839],[135.3113899,34.7056698]]],[[[135.29222,34.71025],[135.29457,34.718555],[135.3033029,34.7168595],[135.304029,34.705726],[135.29222,34.71025]]],[[[135.325991,34.710311],[135.330224,34.7216944],[135.34071,34.7180124],[135.338734,34.710914],[135.325991,34.710311]]],[[[134.287063,34.713187],[134.296974,34.730343],[134.347161,34.709221],[134.316389,34.702891],[134.287063,34.713187]]],[[[135.831382,33.448927],[135.800113,33.461491],[135.800334,33.474219],[135.862961,33.472597],[135.831382,33.448927]]],[[[136.7798097,34.2766429],[136.830457,34.258372],[136.851102,34.273668],[136.861357,34.262235],[136.847497,34.24672],[136.749805,34.269934],[136.7798097,34.2766429]]],[[[136.907019,34.489183],[136.885798,34.476318],[136.871996,34.486556],[136.90348,34.503193],[136.907019,34.489183]]],[[[136.901482,34.532178],[136.904025,34.519472],[136.845974,34.507772],[136.867943,34.52879],[136.901482,34.532178]]],[[[135.419126,34.610847],[135.402625,34.612071],[135.3896946,34.628305],[135.418399,34.619615],[135.419126,34.610847]]],[[[135.407375,34.629451],[135.416222,34.644746],[135.441846,34.628324],[135.4221,34.621868],[135.407375,34.629451]]],[[[135.386753,34.66265],[135.402582,34.673248],[135.410892,34.665576],[135.409713,34.659026],[135.386753,34.66265]]],[[[137.33295,34.721086],[137.341909,34.7204053],[137.332212,34.703841],[137.308617,34.702021],[137.33295,34.721086]]],[[[137.045334,34.722394],[137.037629,34.720102],[137.030565,34.72779],[137.056459,34.722133],[137.045334,34.722394]]],[[[137.3141615,34.744645],[137.3191709,34.7484964],[137.318671,34.732938],[137.307936,34.734786],[137.3141615,34.744645]]],[[[137.3266815,34.7864496],[137.308671,34.778831],[137.3033426,34.7929413],[137.3131102,34.7957537],[137.3266815,34.7864496]]],[[[136.824148,34.852667],[136.806763,34.840754],[136.799606,34.87698],[136.81379,34.873212],[136.824148,34.852667]]],[[[136.824403,34.959668],[136.820262,34.949726],[136.810948,34.954834],[136.818709,34.964471],[136.824403,34.959668]]],[[[136.808954,35.012709],[136.821675,35.017635],[136.811991,34.996028],[136.800225,35.003611],[136.808954,35.012709]]],[[[136.810838,35.026719],[136.8100152,35.049298],[136.830904,35.049392],[136.838965,35.030158],[136.810838,35.026719]]],[[[136.848719,35.053951],[136.85496,35.055256],[136.845787,35.033829],[136.838028,35.051751],[136.848719,35.053951]]],[[[136.8675628,35.0633024],[136.8736833,35.0718401],[136.882309,35.070535],[136.873155,35.049652],[136.8675628,35.0633024]]]]}},{"type":"Feature","id":"shibuya","properties":{"id":"shibuya"},"geometry":{"type":"MultiPolygon","coordinates":[[[[139.675068,33.130814],[139.687338,33.136032],[139.700739,33.117445],[139.684213,33.118114],[139.675068,33.130814]]],[[[139.591401,33.898161],[139.625334,33.883732],[139.619757,33.85168],[139.578767,33.860291],[139.591401,33.898161]]],[[[139.510784,34.120492],[139.565869,34.10226],[139.531887,34.04656],[139.47842,34.057641],[139.510784,34.120492]]],[[[139.123,34.188248],[139.11945,34.191033],[139.121868,34.199326],[139.132506,34.20194],[139.137562,34.242395],[139.17069,34.23127],[139.123,34.188248]]],[[[139.2067132,34.3216154],[139.2092109,34.3367028],[139.2271992,34.3302124],[139.2176202,34.3171214],[139.2067132,34.3216154]]],[[[139.246271,34.370146],[139.255168,34.401086],[139.287633,34.428065],[139.272397,34.329944],[139.246271,34.370146]]],[[[139.2806654,34.5346584],[139.293111,34.524618],[139.2774,34.511024],[139.267683,34.524289],[139.2806654,34.5346584]]],[[[139.368036,34.699301],[139.3485862,34.751771],[139.3605045,34.7990851],[139.4490489,34.7414685],[139.4425721,34.6811809],[139.368036,34.699301]]],[[[139.0882556,35.1130138],[139.140762,34.890882],[138.998696,34.74395],[138.986876,34.657417],[138.843433,34.600842],[138.739074,34.690174],[138.762228,34.972385],[138.7874161,35.0303181],[138.8913686,35.0170166],[138.9073054,35.0484867],[138.694796,35.144724],[138.5567507,35.1016287],[138.49109,35.029798],[138.519179,34.986927],[138.3554043,34.9134839],[138.197245,34.669113],[138.226739,34.594657],[137.97295,34.665332],[137.48498063231418,34.67385471222454],[137.487014,34.811749],[137.641252,34.893083],[137.838115,35.212467],[137.578737,35.198428],[137.546005,35.251681],[137.603914,35.333234],[137.575227,35.400009],[137.634917,35.401163],[137.593011,35.44703],[137.631587,35.509914],[137.513808,35.608023],[137.545447,35.651082],[137.464751,35.756372],[137.324992,35.816671],[137.594774,36.012916],[137.613948,36.076388],[137.554719,36.1402],[137.653054,36.304675],[137.587343,36.389801],[137.751031,36.5885],[137.751767,36.751109],[137.876452,36.866208],[137.867657,36.915747],[138.013732,36.904022],[138.003456,36.826415],[138.054146,36.800078],[138.213782,36.871151],[138.287607,36.845707],[138.394675,36.997177],[138.51408,37.029687],[138.693197,36.854817],[138.704969,36.736554],[138.929061,36.832644],[138.966547,36.979076],[139.047381,36.987294],[139.097008,37.0586272],[139.241612,36.94155],[139.253837,37.164973],[139.164748,37.237427],[139.233617,37.343603],[139.197391,37.411096],[139.397501,37.459841],[139.429201,37.514663],[139.585093,37.512899],[139.54928,37.64904],[139.741491,37.817715],[139.680815,37.846953],[139.937015,37.828298],[139.986482,37.760411],[140.127602,37.733946],[140.29878,37.807811],[140.27998,37.976647],[140.662574,37.900225],[140.694344,37.803269],[140.792056,37.773277],[140.775023,37.806362],[140.857878,37.802859],[140.856218,37.890906],[140.930989,37.896172],[141.0410426,37.6650138],[140.982992,36.995522],[140.79233,36.881522],[140.558555,36.283603],[140.7006551,35.9626036],[140.652346,35.926606],[140.690984,35.88279],[140.712616,35.954657],[140.8654632,35.6925538],[140.6927315,35.7006865],[140.526304,35.60311],[140.40576,35.447307],[140.384318,35.18714],[140.1205516,35.1154345],[139.9281843,34.9092414],[139.836873,34.902978],[139.75235,34.974284],[139.8582134,34.9991955],[139.810367,35.037531],[139.8152005,35.1706744],[139.8695109,35.2402409],[139.7837615,35.3128172],[140.1268264,35.5675927],[140.1177023,35.596561],[139.9873372,35.6544577],[139.985618,35.68103],[139.967652,35.68371],[139.9598611,35.6793278],[139.9531529,35.6717431],[139.9290872,35.678754],[139.8975772,35.6166486],[139.8412735,35.6467565],[139.798839,35.62177],[139.7610024,35.6518712],[139.7688302,35.5822371],[139.7874224,35.5794608],[139.7675192,35.5814628],[139.7420278,35.5702685],[139.8262697,35.541583],[139.6344855,35.4730372],[139.6317997,35.4530732],[139.6645494,35.4327641],[139.6906435,35.4392712],[139.6293858,35.4132026],[139.631087,35.2999534],[139.7470271,35.2534841],[139.6565871,35.1850866],[139.677757,35.138819],[139.6661153,35.1465732],[139.6296,35.136066],[139.6235316,35.1430903],[139.6194216,35.1387001],[139.6091147,35.1398418],[139.6048701,35.14457],[139.6274331,35.2157182],[139.571345,35.292924],[139.401415,35.317718],[139.1477565,35.2408986],[139.1609,35.140991],[139.0882556,35.1130138]]],[[[139.6891479,35.3987786],[139.684442,35.3949682],[139.6711781,35.4029118],[139.6888892,35.4127898],[139.6891479,35.3987786]]],[[[139.6743261,35.4497087],[139.6661143,35.4351707],[139.655968,35.4424504],[139.6703783,35.451315],[139.6743261,35.4497087]]],[[[140.8786382,27.2381831],[140.8728474,27.2400392],[140.8735319,27.2543905],[140.8864318,27.2519602],[140.8786382,27.2381831]]],[[[140.303687,30.496006],[140.313817,30.481764],[140.298211,30.472899],[140.28626,30.484702],[140.303687,30.496006]]],[[[139.764382,32.445617],[139.754619,32.451334],[139.758164,32.473434],[139.781211,32.45732],[139.764382,32.445617]]],[[[139.79634,33.062376],[139.744291,33.121407],[139.746799,33.156362],[139.857396,33.09911],[139.79634,33.062376]]],[[[139.6705798,35.4644938],[139.678176,35.467491],[139.692424,35.472025],[139.7071963,35.4566516],[139.6705798,35.4644938]]],[[[139.7656125,35.5648861],[139.75766,35.574448],[139.7738394,35.5745564],[139.7656125,35.5648861]]],[[[140.1094945,35.5766264],[140.0861217,35.5694568],[140.081603,35.588302],[140.1029658,35.5873872],[140.1094945,35.5766264]]],[[[139.805544,35.5854555],[139.820337,35.607352],[139.832152,35.588921],[139.817344,35.580847],[139.805544,35.5854555]]],[[[139.798499,35.60678],[139.810581,35.613158],[139.8190281,35.6088347],[139.7915629,35.5939129],[139.798499,35.60678]]],[[[139.7734532,35.6202615],[139.776535,35.6363081],[139.7867391,35.6018351],[139.7730612,35.6153267],[139.7734532,35.6202615]]],[[[139.838602,35.6141579],[139.8274155,35.6197958],[139.8258515,35.6307042],[139.8401121,35.6320678],[139.838602,35.6141579]]],[[[139.9626358,35.6806618],[139.9776432,35.6795004],[139.9794425,35.669825],[139.95802,35.6699764],[139.9626358,35.6806618]]],[[[141.455011,24.225426],[141.455205,24.242101],[141.472237,24.241893],[141.468806,24.227161],[141.455011,24.225426]]],[[[153.9865637,24.2834421],[153.9856069,24.2812617],[153.971087,24.2847613],[153.9839843,24.2975015],[153.9865637,24.2834421]]],[[[141.336198,24.7707],[141.323075,24.770438],[141.284774,24.745725],[141.322053,24.812342],[141.336198,24.7707]]],[[[141.272821,25.440628],[141.288181,25.447073],[141.291071,25.423701],[141.275445,25.41977],[141.272821,25.440628]]],[[[142.151327,26.546586],[142.151559,26.562255],[142.15568,26.564652],[142.160914,26.548099],[142.151327,26.546586]]],[[[142.218334,26.563189],[142.215288,26.556814],[142.201565,26.553498],[142.203182,26.562102],[142.218334,26.563189]]],[[[142.125259,26.595595],[142.123412,26.607134],[142.132754,26.610106],[142.135941,26.60135],[142.125259,26.595595]]],[[[142.128433,26.700733],[142.189055,26.659371],[142.178485,26.607489],[142.15397,26.635822],[142.128433,26.700733]]],[[[142.193794,27.075774],[142.21872,27.101131],[142.229743,27.036151],[142.186196,27.039744],[142.193794,27.075774]]],[[[142.193141,27.12325],[142.191183,27.144181],[142.235567,27.109593],[142.20077,27.109798],[142.193141,27.12325]]],[[[142.184693,27.152582],[142.184205,27.187291],[142.18912,27.190121],[142.202074,27.166424],[142.184693,27.152582]]],[[[142.185492,27.619474],[142.175002,27.622049],[142.169782,27.634213],[142.183093,27.630383],[142.185492,27.619474]]],[[[142.140345,27.686676],[142.148246,27.683367],[142.145616,27.670576],[142.123938,27.683487],[142.140345,27.686676]]]]}},{"type":"Feature","id":"paris","properties":{"id":"paris"},"geometry":{"type":"MultiPolygon","coordinates":[[[[-1.829068648449641,48.87518570930809],[-1.821514779934232,48.86862414717136],[-1.832408528783965,48.86907085914728],[-1.83919820886275,48.87709260326519],[-1.829068648449641,48.87518570930809]]],[[[-1.766657854598708,48.875046735808866],[-1.765804304062662,48.87225989475712],[-1.767526054446306,48.87326788402145],[-1.766657854598708,48.875046735808866]]],[[[-1.841941225829348,48.8790015864714],[-1.841643399011568,48.87624217993297],[-1.842837219012653,48.87751829798977],[-1.841941225829348,48.8790015864714]]],[[[-1.795361711176935,48.878603770249185],[-1.796498289047336,48.87734548316594],[-1.798221834183604,48.87800881566803],[-1.795361711176935,48.878603770249185]]],[[[-1.553187930679846,48.931974065667895],[-1.553414726878932,48.93063051781423],[-1.554540824095939,48.931234423254615],[-1.553187930679846,48.931974065667895]]],[[[-1.580439611307005,49.66866827632285],[-1.584827215829419,49.67005906903893],[-1.58290894742556,49.67010262055006],[-1.580439611307005,49.66866827632285]]],[[[-1.678244560862407,49.669758988310946],[-1.663309139947492,49.67169674122167],[-1.686714612450265,49.67362192106037],[-1.678244560862407,49.669758988310946]]],[[[-1.647997138291802,49.67426359956801],[-1.619051079319467,49.6742114164534],[-1.598139650990232,49.671448999833814],[-1.619891692525829,49.673859028884344],[-1.647997138291802,49.67426359956801]]],[[[2.981776008243758,48.1496366976397],[3.124227598285273,48.031113443210884],[3.126982440882186,47.96806986347469],[3.009298308408866,47.90554142137829],[3.024956285781587,47.787275358397146],[2.851854734631339,47.757785640835706],[2.976537935335726,47.5696034221805],[2.844894817772869,47.5448884535946],[2.931506434088698,47.43990444239355],[2.876571632540047,47.321873165608935],[2.983081112868537,47.26080292757283],[3.019340996690526,47.06816805775795],[3.075160728955185,47.02931781342221],[3.032062944145858,46.79490938920292],[2.913346030081347,46.791032922081065],[2.845401834027578,46.72667467343688],[2.715125147576918,46.74517735760754],[2.566782646680803,46.653561606294545],[2.614892752109683,46.553287932802135],[2.359856746689653,46.51587188884877],[2.281089687075233,46.42047317551321],[1.784910614451584,46.455365921225706],[1.727162074602929,46.389220966202494],[1.522727097132595,46.4267330718129],[1.416897776628147,46.34705217789836],[1.344690314546163,46.401581448378856],[1.182241550450744,46.375888415024505],[1.213221993294786,46.433128824351115],[1.146327474948626,46.50580387037553],[0.910669735785497,46.60166928615331],[0.913152358029961,46.72567557322771],[0.704922405264183,46.902765723885544],[0.692886031271278,46.974131452142586],[0.567584957560815,47.00650837237335],[0.59942867438297,46.95616421804269],[0.324970654517775,46.9305488483786],[0.305344161154632,47.05270029560193],[0.176072032524947,47.06057188274292],[0.182368073114625,47.115113939413625],[0.054155061502645,47.161029366108856],[0.078585859154188,47.28389148864069],[0.182957460233303,47.38041951334211],[0.230671335407337,47.61081715581131],[0.3783856506719,47.56840755002103],[0.382633515816267,47.643421783633315],[0.450077092467337,47.61937885556612],[0.61480971981711,47.682924786951475],[0.581237632059369,47.71357836149454],[0.703796296240262,47.76775832800783],[0.774741145260288,47.839738995107055],[0.759649576607739,47.89959554593452],[0.848883626651522,47.94143364484183],[0.793934654185494,48.069693704916645],[0.910837501308268,48.14953342352684],[0.395714884501374,48.3203290780619],[0.382622831240135,48.425134678735056],[0.300584521697601,48.4805804141662],[-0.050272026361553,48.37521922907362],[-0.051014577766933,48.452970042780805],[-0.147486220491763,48.456946764584906],[-0.144374727896225,48.52772706156173],[-0.208232074560769,48.564226078767646],[-0.353156452843776,48.48371937526646],[-0.509893349794883,48.50907071869014],[-0.759078714178424,48.436155850444784],[-0.846571526920322,48.49964636970723],[-1.206845564935868,48.54231819579473],[-1.380366825084816,48.455833005237665],[-1.489922091533116,48.48931633691018],[-1.570855605611889,48.6262383951587],[-1.392164470560006,48.644781479349014],[-1.363736516712377,48.63443646682062],[-1.351379970674705,48.631476424203555],[-1.345269195114333,48.632895143285054],[-1.399694431724372,48.6555364792427],[-1.399235582757073,48.66323427637479],[-1.387452176126847,48.6723758164152],[-1.374749047181971,48.687752921160154],[-1.376823410005797,48.69075038500799],[-1.372930560626724,48.69289497302948],[-1.446590850700751,48.65415006637374],[-1.570399306272387,48.743665090562864],[-1.614412505791162,48.83406339624919],[-1.582434433257063,48.85298231128067],[-1.564994002959236,48.92175831615595],[-1.552861411920812,48.936689320435946],[-1.56268762840142,48.91390503626274],[-1.555251106995806,48.893654142341596],[-1.548461386286635,48.89337203541298],[-1.557173834079486,49.0263141388837],[-1.504857458574161,49.02031430551723],[-1.560100062468203,49.0383179099532],[-1.57815545646335,48.998835314715365],[-1.609790458236617,49.07204108868436],[-1.61377547117537,49.218316712006086],[-1.566713254521333,49.22105995822894],[-1.616423543328924,49.24013700656116],[-1.62842182659302,49.211559641683145],[-1.686978879965048,49.33051044800305],[-1.809181384110917,49.37252913074914],[-1.889192680081809,49.53410950463183],[-1.847288338910838,49.624531223185194],[-1.948506009032808,49.71626284066006],[-1.620100268182781,49.63922881770024],[-1.26534573180432,49.696971161924715],[-1.228931974513625,49.605803923022314],[-1.29632225860044,49.583273346236815],[-1.307274082507274,49.54105853969364],[-1.162199214024765,49.39138367903443],[-1.245459372555157,49.32578630103815],[-1.234378802451206,49.302400902541095],[-0.989452272793277,49.39765706587455],[-0.396216917839533,49.333250731171],[-0.24929436612993,49.260034639573014],[-0.111269571904703,49.28577312641069],[0.130603114632654,49.403428429183634],[0.337211457322016,49.43395774548259],[0.338786072491064,49.45009809353852],[0.272128134199857,49.44247387254581],[0.268431972516587,49.4536977967102],[0.152501822901793,49.45167244758589],[0.114355368925128,49.457637829235416],[0.178482701856171,49.45586827390209],[0.066316899726837,49.51017445209119],[0.153389232141735,49.64503136901884],[0.117722508822451,49.66389013343006],[0.205820800313173,49.71466103886874],[0.580580746904495,49.85186676341297],[1.193198378878463,49.967369883595204],[1.443103066508408,50.1000542229653],[1.51885086256502,50.205782214936896],[1.683793928232033,50.18302609834176],[1.538720114033048,50.27621001464317],[1.555649817797041,50.363328551745916],[1.646470306506007,50.348365125969295],[1.555715721495791,50.399506685148474],[1.586175442483637,50.539409696539636],[1.598487106093948,50.527114645296464],[1.644424758333676,50.50920221898628],[1.576430261390331,50.57237562999527],[1.58202234042543,50.87118909905301],[1.854189307785789,50.981365713087825],[2.545506839235904,51.088989440783664],[2.632925929000945,50.94618440509663],[2.5990432350118,50.8489356715351],[2.724109711000569,50.8105829004301],[2.790119429515627,50.72575731765032],[2.906094187985402,50.69248876160947],[2.951262988242902,50.75194880298097],[3.150372217074036,50.79010176231088],[3.261111484371572,50.7013392362535],[3.288508143805904,50.52581825760952],[3.607555320861727,50.497212529971016],[3.709624177947304,50.30331893803139],[3.747150704852574,50.350988142201615],[4.024197591000225,50.359180601119135],[4.135513476994221,50.25740532143856],[4.221275641301904,50.25862950023594],[4.127048505123502,50.135579172500925],[4.199472270427598,50.13416853750894],[4.231265637213395,50.07138249931946],[4.135355304925615,50.01512681560322],[4.233158566360097,49.957750980032415],[4.205920739567765,49.77818675979733],[4.249600765372731,49.75710750642266],[4.115745174150733,49.632920815796595],[4.025217550677357,49.62257696775054],[4.076793991507818,49.57069501744205],[4.03580166061249,49.35989165547036],[3.822582312015746,49.40254126958897],[3.852841317423809,49.34496921801195],[3.643940319862819,49.3127136717361],[3.654867481913577,49.21257651224067],[3.748767845640252,49.15708513325138],[3.621482053108474,49.15044051234977],[3.638946371158137,49.077498672385815],[3.585134239661751,49.038987610553185],[3.677784314257078,49.01391691338531],[3.395984541538108,48.75858342947777],[3.469715471844077,48.737883109992744],[3.450864182979124,48.6346751404452],[3.559027106557363,48.61771854226982],[3.405371096209291,48.52785216572778],[3.414735503528071,48.390187765330374],[3.04613384739667,48.35796786674478],[3.047353992990203,48.24969534825208],[2.934036521893513,48.17588886325749],[2.981776008243758,48.1496366976397]]],[[[-1.154736808881721,49.49426957244628],[-1.150532581698658,49.49375943103293],[-1.15637765729818,49.492810182663824],[-1.154736808881721,49.49426957244628]]],[[[-1.146109140633977,49.49888785649021],[-1.144357179155987,49.49808473119133],[-1.147459308340047,49.49781115169009],[-1.146109140633977,49.49888785649021]]],[[[-1.241083521532428,49.586238211154466],[-1.24909551718499,49.58827619027502],[-1.242819465552724,49.591409832235406],[-1.241083521532428,49.586238211154466]]]]}},{"type":"Feature","id":"san-francisco","properties":{"id":"san-francisco"},"geometry":{"type":"MultiPolygon","coordinates":[[[[-120.23368750799995,34.00866373800005],[-120.04327147999999,34.03581075200003],[-119.96864846099999,33.942882747000056],[-120.12182948099996,33.89571673300003],[-120.23368750799995,34.00866373800005]]],[[[-119.92334946399995,34.069365762000075],[-119.63775441299998,34.01318277300004],[-119.52065239599995,34.03426678200003],[-119.81826143799998,33.95986275700005],[-119.92334946399995,34.069365762000075]]],[[[-120.41529954099997,34.05496473300008],[-120.36829053499997,34.07646973800007],[-120.30723152099995,34.02237973600006],[-120.45414654499996,34.028085728000065],[-120.41529954099997,34.05496473300008]]],[[[-123.00352029299995,37.70440089600004],[-123.00280729199994,37.69274089500004],[-123.01279029399996,37.69650289500004],[-123.01392929499997,37.70035989500008],[-123.00352029299995,37.70440089600004]]],[[[-122.36430221199998,37.818874952000044],[-122.36230720999998,37.80702095100003],[-122.37769221499997,37.83046495200006],[-122.36876521399995,37.831290953000064],[-122.36430221199998,37.818874952000044]]],[[[-122.43438822799999,37.86734195100007],[-122.424664227,37.87074095200006],[-122.41848322399994,37.852725951000025],[-122.44128422799997,37.85514694900007],[-122.43438822799999,37.86734195100007]]],[[[-124.215015054,41.949739101000034],[-124.217509055,41.95081510000006],[-124.21619505499996,41.95221710100003],[-124.21303505399999,41.95102810100008],[-124.215015054,41.949739101000034]]],[[[-118.57989216399994,33.034463724000034],[-118.49951514299994,32.93365871700007],[-118.35419711099996,32.820923712000024],[-118.43182112199997,32.80146670600004],[-118.50621813899994,32.85298970800005],[-118.61027416799999,33.015807721000044],[-118.57989216399994,33.034463724000034]]],[[[-119.54661334099995,33.279395700000066],[-119.46544132599996,33.25925470200008],[-119.434414318,33.22702570000007],[-119.54622433699996,33.23256569500006],[-119.54661334099995,33.279395700000066]]],[[[-118.53863619099997,33.47701977600008],[-118.37033515699994,33.40928977800007],[-118.30509613899994,33.31032777000007],[-118.46538016699998,33.326060763000044],[-118.48876217799994,33.41983077200007],[-118.60725520199998,33.47845377200008],[-118.53863619099997,33.47701977600008]]],[[[-119.03855627399997,33.48334974900007],[-119.03234627199998,33.46883874800005],[-119.05075527399998,33.46324674700003],[-119.04969627599996,33.48390574900003],[-119.03855627399997,33.48334974900007]]],[[[-119.41132937599997,34.00800978500007],[-119.38999537299998,34.00610378600004],[-119.37341837099996,34.01544578800008],[-119.35747436799994,34.015923789000055],[-119.39156337299994,34.002509786000076],[-119.44269138199996,34.013138784000034],[-119.41132937599997,34.00800978500007]]],[[[-123.65722598099995,41.99509915400006],[-119.99924741099994,41.99494948000006],[-120.00102698599994,38.99957923000005],[-117.50012935899997,37.22038524200008],[-114.63349863099995,35.00186217500004],[-114.63439361999997,34.87289515900005],[-114.47048857599998,34.71137314900005],[-114.38671053899998,34.457916123000075],[-114.17692049099998,34.34931112100003],[-114.13122247499996,34.262735113000076],[-114.43419251699999,34.087384074000056],[-114.53548952399996,33.93465604900007],[-114.52461049199997,33.55223600100004],[-114.643313504,33.41674997800004],[-114.72529351799994,33.40505297200008],[-114.73123451099997,33.30243895900003],[-114.67209949699998,33.25850395600003],[-114.70649949099999,33.08816493300003],[-114.46905043899994,32.97229993000008],[-114.52686743399994,32.75709889900003],[-117.12487388199997,32.53416074100005],[-117.168877899,32.67195675500005],[-117.24608091199997,32.669356751000066],[-117.32837095899998,33.12184680000007],[-117.46980599699998,33.29642181300005],[-118.13271014399999,33.75322182900004],[-118.26965716399997,33.704034816000046],[-118.41122318999999,33.74198981200004],[-118.39111519499994,33.83877582400004],[-118.51952623099999,34.02751383800006],[-118.80637927699996,34.00020281800005],[-119.12926433799998,34.10084481100006],[-119.27865637599996,34.26690682000003],[-119.56399843499997,34.415324819000034],[-119.87821148499995,34.40691780000003],[-120.14117753199997,34.47340979100005],[-120.45282357899998,34.44244677000006],[-120.51143359499997,34.522957774000076],[-120.63954261899994,34.563538771000026],[-120.60046262499998,34.70464478700006],[-120.61027864,34.85818480200004],[-120.67228165399996,34.90254480200008],[-120.644323671,35.139620827000044],[-120.85605970999995,35.20649182000005],[-120.89961272099998,35.25534182200005],[-120.88476973499996,35.430200840000055],[-121.28654281999997,35.66552883700007],[-121.50312488599997,36.00030385400004],[-121.902741978,36.306383855000036],[-121.93252100799998,36.559939875000055],[-121.97872701799997,36.58149287400005],[-121.93644301699999,36.63675088200006],[-121.86061700299996,36.611140885000054],[-121.81447500299998,36.68286289400004],[-121.78829101199995,36.80399890600006],[-121.86227903699995,36.931556912000076],[-121.93008205199999,36.978154912000036],[-122.135174082,36.96777889700007],[-122.40508614799995,37.19579589700004],[-122.40086316499998,37.35922991100006],[-122.51954620299995,37.53730691700008],[-122.47809622799997,37.81083294300004],[-122.38533621199997,37.79072894800004],[-122.37855818999998,37.60559693300007],[-122.03861212099997,37.45462694500003],[-122.10943313699994,37.50025894400005],[-122.170661167,37.678507954000054],[-122.33228320299997,37.78152195100006],[-122.31141221299998,37.89579896200007],[-122.43010023899996,37.96311995900004],[-122.28349122399999,38.022678975000076],[-122.28283723099997,38.08289398000005],[-122.39360125499996,38.143453976000046],[-122.48998726499997,38.11201896700004],[-122.49784125599996,38.01940695800005],[-122.44731724399998,37.98439195900005],[-122.50507324699998,37.936418951000064],[-122.43828122999997,37.88097895200008],[-122.50103224099996,37.89366694800003],[-122.47274922999998,37.831931945000065],[-122.52741223599998,37.81495194000007],[-122.85658630799998,38.01672193200005],[-123.02407932999995,37.99488291700004],[-122.94908733799997,38.154064936000054],[-122.97709535599995,38.26790694300007],[-123.06368437299994,38.30218293900003],[-123.12883840099994,38.45042294500007],[-123.72798954599995,38.91943393500003],[-123.69125355799997,39.05079994700003],[-123.82772961699999,39.348437958000034],[-123.76648863499997,39.55280797800003],[-123.84961868399995,39.827675990000046],[-124.11056276,40.10376998800007],[-124.363427818,40.260978978000026],[-124.40861485099998,40.443205986000066],[-124.13707988299996,40.92573704100005],[-124.11176989499995,41.026888050000025],[-124.16542791799998,41.12982705200005],[-124.063089951,41.43958408100008],[-124.14742600699998,41.717960092000055],[-124.25496803199997,41.77817508600003],[-124.21161906199995,41.99846510400005],[-123.65722598099995,41.99509915400006]]]]}}]}