{"type":"FeatureCollection","features":[{"type":"Feature","id":"wide-0-0","properties":{"id":"wide-0-0","group":"wide-0","placeIds":["dali"],"alpha":0.62},"geometry":{"type":"Polygon","coordinates":[[[97.65016,24.83398],[97.89669,25.29373],[98.55828,25.79028],[98.78826,26.3744],[98.79396,27.25951],[98.73169,27.4187],[98.4161,27.57143],[98.15784,28.1724],[98.62009,28.51847],[98.68852,28.9601],[99.07805,29.3332],[99.26853,28.49258],[99.58917,28.37565],[99.93942,28.62988],[100.17218,28.58369],[100.21792,28.11632],[100.65749,27.95322],[100.94615,27.70083],[101.70746,26.33957],[101.93526,26.19005],[102.55788,26.43539],[102.90479,26.43548],[103.02043,26.5501],[103.01649,27.44826],[103.45949,27.80397],[103.58649,28.2761],[103.88858,28.65868],[104.35127,28.72673],[104.38988,28.47331],[104.65797,28.06251],[105.2352,28.17109],[105.36772,27.89477],[105.21191,27.50796],[104.00297,27.38043],[103.82608,27.08314],[103.97532,26.80982],[104.48791,26.79235],[104.70028,26.53568],[104.407,25.8177],[104.75322,25.32939],[104.644,24.71646],[104.74682,24.59217],[105.10621,24.52921],[105.37728,24.22871],[106.07075,24.13585],[106.19829,23.93894],[106.13369,23.60789],[105.78962,23.51068],[105.53464,23.29225],[105.1873,23.2743],[104.85586,22.87948],[104.13265,22.68675],[103.99269,22.52062],[103.29184,22.6505],[103.02921,22.47181],[102.63131,22.6751],[101.87204,22.40029],[101.69868,22.11214],[101.79456,21.8162],[101.77224,21.18143],[101.3484,21.2047],[101.01137,21.57902],[100.24553,21.41199],[99.88993,21.99525],[99.23159,22.16075],[99.40949,22.69793],[99.32457,23.02199],[99.00499,23.19622],[98.74766,23.93533],[98.51973,24.14123],[98.11432,24.13052],[97.65514,23.89171],[97.7332,24.23405],[97.59412,24.61857],[97.65016,24.83398]]]}},{"type":"Feature","id":"wide-0-1","properties":{"id":"wide-0-1","group":"wide-0","placeIds":["dali"],"alpha":0.43},"geometry":{"type":"Polygon","coordinates":[[[97.79915,25.4237],[98.42394,25.89263],[98.62596,26.40574],[98.63126,27.22936],[98.60356,27.30018],[98.34531,27.42516],[98.2668,27.50727],[98.00854,28.10824],[98.01396,28.24794],[98.46965,28.60884],[98.57611,29.07746],[98.96565,29.45055],[99.12484,29.48882],[99.23653,29.36911],[99.40743,28.61489],[99.56365,28.55792],[99.9046,28.7886],[100.29259,28.69281],[100.36975,28.23331],[100.76446,28.07555],[101.05312,27.82317],[101.82987,26.4536],[101.95403,26.37211],[102.4983,26.58658],[102.85763,26.61753],[102.86981,27.5182],[103.31636,27.89744],[103.45895,28.3768],[103.76105,28.75939],[103.86494,28.81946],[104.41092,28.87788],[104.47833,28.82803],[104.54522,28.53261],[104.73468,28.24229],[105.20516,28.33079],[105.33827,28.29672],[105.53013,27.89999],[105.3098,27.37825],[104.10098,27.22737],[104.01311,27.07968],[104.07351,26.96906],[104.55959,26.93819],[104.86092,26.56024],[104.59118,25.83888],[104.91179,25.36488],[104.81718,24.76205],[105.22687,24.63805],[105.45798,24.38185],[106.1577,24.27313],[106.33468,24.02729],[106.35778,23.90782],[106.25325,23.49783],[105.8682,23.36402],[105.54303,23.12997],[105.2663,23.11567],[104.89771,22.72246],[104.22395,22.54291],[104.04745,22.36763],[103.32797,22.47853],[103.03937,22.30963],[102.62024,22.49828],[101.98156,22.26711],[101.87609,22.0918],[101.95696,21.81049],[101.90946,21.09438],[101.76333,21.01917],[101.33949,21.04244],[101.22764,21.09597],[100.95377,21.40014],[100.18162,21.26259],[99.7858,21.85387],[99.11566,22.04689],[99.07733,22.21184],[99.24009,22.70332],[99.18517,22.91291],[98.9272,23.05355],[98.85152,23.14279],[98.60787,23.84262],[98.45904,23.97707],[98.15606,23.96906],[97.64069,23.72985],[97.50219,23.83683],[97.56416,24.22365],[97.44131,24.5633],[97.4929,24.87489],[97.79915,25.4237]],[[97.59412,24.61857],[97.7332,24.23405],[97.65514,23.89171],[98.11432,24.13052],[98.51973,24.14123],[98.74766,23.93533],[99.00499,23.19622],[99.32457,23.02199],[99.40949,22.69793],[99.23159,22.16075],[99.88993,21.99525],[100.24553,21.41199],[101.01137,21.57902],[101.3484,21.2047],[101.77224,21.18143],[101.79456,21.8162],[101.69868,22.11214],[101.87204,22.40029],[102.63131,22.6751],[103.02921,22.47181],[103.29184,22.6505],[103.99269,22.52062],[104.13265,22.68675],[104.85586,22.87948],[105.1873,23.2743],[105.53464,23.29225],[105.78962,23.51068],[106.13369,23.60789],[106.19829,23.93894],[106.07075,24.13585],[105.37728,24.22871],[105.10621,24.52921],[104.74682,24.59217],[104.644,24.71646],[104.75322,25.32939],[104.407,25.8177],[104.70028,26.53568],[104.48791,26.79235],[103.97532,26.80982],[103.82608,27.08314],[104.00297,27.38043],[105.21191,27.50796],[105.36772,27.89477],[105.2352,28.17109],[104.65797,28.06251],[104.38988,28.47331],[104.35127,28.72673],[103.88858,28.65868],[103.58649,28.2761],[103.45949,27.80397],[103.01649,27.44826],[103.02043,26.5501],[102.90479,26.43548],[102.55788,26.43539],[101.93526,26.19005],[101.70746,26.33957],[100.94615,27.70083],[100.65749,27.95322],[100.21792,28.11632],[100.17218,28.58369],[99.93942,28.62988],[99.58917,28.37565],[99.26853,28.49258],[99.07805,29.3332],[98.68852,28.9601],[98.62009,28.51847],[98.15784,28.1724],[98.4161,27.57143],[98.73169,27.4187],[98.79396,27.25951],[98.78826,26.3744],[98.55828,25.79028],[97.89669,25.29373],[97.65016,24.83398],[97.59412,24.61857]]]}},{"type":"Feature","id":"wide-0-2","properties":{"id":"wide-0-2","group":"wide-0","placeIds":["dali"],"alpha":0.25},"geometry":{"type":"Polygon","coordinates":[[[97.7016,25.55366],[98.28959,25.99497],[98.46366,26.43708],[98.46847,27.18503],[98.27452,27.27889],[98.1175,27.44312],[97.85924,28.04408],[97.83308,28.185],[97.87009,28.32348],[98.31921,28.69921],[98.36735,29.00987],[98.46371,29.19481],[98.85325,29.56791],[99.00209,29.6492],[99.17162,29.64443],[99.31567,29.55492],[99.39501,29.40502],[99.5446,28.74489],[99.86977,28.94733],[100.23544,28.90248],[100.41301,28.80193],[100.49564,28.61535],[100.52158,28.3503],[100.87142,28.19789],[101.22981,27.85947],[101.9728,26.55416],[102.43873,26.73776],[102.6945,26.76043],[102.72313,27.58814],[103.17322,27.99091],[103.33142,28.47751],[103.63352,28.86009],[103.8413,28.98023],[104.30398,29.04827],[104.47057,29.02904],[104.60539,28.92933],[104.70056,28.59192],[104.8114,28.42207],[105.17512,28.49049],[105.31579,28.48594],[105.44135,28.42234],[105.52824,28.31163],[105.69255,27.90521],[105.51337,27.38653],[105.40769,27.24855],[105.24601,27.18476],[104.53047,27.10928],[104.73831,26.99953],[104.95068,26.74286],[105.02155,26.5848],[105.00115,26.41278],[104.77537,25.86006],[105.07037,25.40038],[105.00277,24.87728],[105.1623,24.84933],[105.34754,24.74689],[105.53868,24.535],[106.24464,24.41042],[106.47107,24.11563],[106.51727,23.8767],[106.45268,23.54565],[106.3728,23.38777],[106.22206,23.29514],[105.94677,23.21736],[105.74608,23.04543],[105.55141,22.96769],[105.3453,22.95704],[105.10479,22.67052],[104.93955,22.56544],[104.31525,22.39907],[104.10221,22.21463],[103.93347,22.20106],[103.3641,22.30657],[103.04953,22.14745],[102.88135,22.1824],[102.60917,22.32146],[102.09108,22.13394],[102.05349,22.07146],[102.11936,21.80478],[102.09704,21.17001],[102.04667,21.00733],[101.92096,20.89245],[101.75442,20.85692],[101.33058,20.88019],[101.10688,20.98724],[100.89617,21.22126],[100.31479,21.09446],[100.1177,21.11319],[99.96804,21.24281],[99.68168,21.71249],[99.15236,21.84556],[98.99973,21.93302],[98.91503,22.0872],[98.92307,22.26293],[99.0707,22.7087],[99.04576,22.80383],[98.84942,22.91088],[98.69806,23.08936],[98.46808,23.74992],[98.39835,23.81291],[98.1978,23.80761],[97.8051,23.60337],[97.62624,23.56799],[97.45648,23.6345],[97.34924,23.78195],[97.33828,23.96395],[97.39512,24.21325],[97.2885,24.50802],[97.27959,24.7004],[97.33563,24.91581],[97.7016,25.55366]],[[97.44131,24.5633],[97.56416,24.22365],[97.50219,23.83683],[97.64069,23.72985],[98.15606,23.96906],[98.45904,23.97707],[98.60787,23.84262],[98.85152,23.14279],[98.9272,23.05355],[99.18517,22.91291],[99.24009,22.70332],[99.07733,22.21184],[99.11566,22.04689],[99.7858,21.85387],[100.18162,21.26259],[100.95377,21.40014],[101.22764,21.09597],[101.33949,21.04244],[101.76333,21.01917],[101.90946,21.09438],[101.95696,21.81049],[101.87609,22.0918],[101.98156,22.26711],[102.62024,22.49828],[103.03937,22.30963],[103.32797,22.47853],[104.04745,22.36763],[104.22395,22.54291],[104.89771,22.72246],[105.2663,23.11567],[105.54303,23.12997],[105.8682,23.36402],[106.25325,23.49783],[106.35778,23.90782],[106.33468,24.02729],[106.1577,24.27313],[105.45798,24.38185],[105.22687,24.63805],[104.81718,24.76205],[104.91179,25.36488],[104.59118,25.83888],[104.86092,26.56024],[104.55959,26.93819],[104.07351,26.96906],[104.01311,27.07968],[104.10098,27.22737],[105.3098,27.37825],[105.53013,27.89999],[105.33827,28.29672],[105.20516,28.33079],[104.73468,28.24229],[104.54522,28.53261],[104.47833,28.82803],[104.41092,28.87788],[103.86494,28.81946],[103.76105,28.75939],[103.45895,28.3768],[103.31636,27.89744],[102.86981,27.5182],[102.85763,26.61753],[102.4983,26.58658],[101.95403,26.37211],[101.82987,26.4536],[101.05312,27.82317],[100.76446,28.07555],[100.36975,28.23331],[100.29259,28.69281],[99.9046,28.7886],[99.56365,28.55792],[99.40743,28.61489],[99.23653,29.36911],[99.12484,29.48882],[98.96565,29.45055],[98.57611,29.07746],[98.46965,28.60884],[98.01396,28.24794],[98.00854,28.10824],[98.2668,27.50727],[98.34531,27.42516],[98.60356,27.30018],[98.63126,27.22936],[98.62596,26.40574],[98.42394,25.89263],[97.79915,25.4237],[97.4929,24.87489],[97.44131,24.5633]]]}},{"type":"Feature","id":"wide-0-3","properties":{"id":"wide-0-3","group":"wide-0","placeIds":["dali"],"alpha":0.11},"geometry":{"type":"Polygon","coordinates":[[[97.46706,25.52411],[97.60406,25.68363],[98.15525,26.09732],[98.30136,26.46842],[98.30532,27.08346],[98.20373,27.13262],[97.9682,27.37896],[97.70994,27.97992],[97.67071,28.19131],[97.72621,28.39901],[97.86567,28.56265],[98.16878,28.78957],[98.20677,29.03475],[98.35131,29.31216],[98.74084,29.68526],[98.96411,29.8072],[99.21841,29.80005],[99.43449,29.66578],[99.5535,29.44093],[99.64861,29.02118],[99.83495,29.10605],[100.03431,29.10806],[100.26707,29.06187],[100.53342,28.91105],[100.65736,28.63118],[100.6734,28.46729],[100.97838,28.32022],[101.37164,27.93879],[102.03468,26.75321],[102.53131,26.91787],[102.52899,27.44612],[102.57645,27.65808],[102.71127,27.82838],[103.03009,28.08439],[103.20388,28.57821],[103.50598,28.9608],[103.81766,29.141],[104.28034,29.20904],[104.53022,29.1802],[104.73246,29.03062],[104.88812,28.60185],[105.35609,28.64337],[105.54442,28.54797],[105.67477,28.3819],[105.85497,27.91044],[105.81991,27.71263],[105.66411,27.32582],[105.50558,27.11884],[105.26305,27.02315],[104.95644,26.99081],[105.07588,26.84645],[105.18218,26.60935],[105.15158,26.35133],[104.95955,25.88123],[105.22894,25.43587],[105.19128,25.00887],[105.4682,24.85574],[105.61938,24.68814],[106.13545,24.61904],[106.33159,24.5477],[106.60746,24.20397],[106.67677,23.84558],[106.61217,23.51453],[106.49235,23.27771],[106.26624,23.13876],[106.02535,23.0707],[105.85179,22.92202],[105.5598,22.8054],[105.4243,22.7984],[105.22925,22.56604],[104.9814,22.40842],[104.40654,22.25523],[104.15697,22.06164],[103.90386,22.04128],[103.40023,22.13461],[103.05969,21.98527],[102.80742,22.03769],[102.5981,22.14463],[102.24232,22.01586],[102.28176,21.79907],[102.25944,21.1643],[102.18389,20.92028],[101.99533,20.74797],[101.74551,20.69466],[101.32167,20.71793],[100.98611,20.8785],[100.83857,21.04237],[100.34942,20.93569],[100.05378,20.96379],[99.8293,21.15822],[99.57756,21.57111],[99.11274,21.68797],[98.88379,21.81915],[98.75674,22.05042],[98.76881,22.31401],[98.89665,22.70004],[98.77163,22.7682],[98.5446,23.03593],[98.33129,23.64858],[98.23954,23.64615],[97.88008,23.4592],[97.61179,23.40614],[97.35714,23.50589],[97.19628,23.72708],[97.17984,24.00007],[97.22608,24.20285],[97.13569,24.45275],[97.12233,24.74131],[97.17837,24.95672],[97.46706,25.52411]],[[97.27959,24.7004],[97.2885,24.50802],[97.39512,24.21325],[97.33828,23.96395],[97.34924,23.78195],[97.45648,23.6345],[97.62624,23.56799],[97.8051,23.60337],[98.1978,23.80761],[98.39835,23.81291],[98.46808,23.74992],[98.69806,23.08936],[98.84942,22.91088],[99.04576,22.80383],[99.0707,22.7087],[98.92307,22.26293],[98.91503,22.0872],[98.99973,21.93302],[99.15236,21.84556],[99.68168,21.71249],[99.96804,21.24281],[100.1177,21.11319],[100.31479,21.09446],[100.89617,21.22126],[101.10688,20.98724],[101.33058,20.88019],[101.75442,20.85692],[101.92096,20.89245],[102.04667,21.00733],[102.09704,21.17001],[102.11936,21.80478],[102.05349,22.07146],[102.09108,22.13394],[102.60917,22.32146],[102.88135,22.1824],[103.04953,22.14745],[103.3641,22.30657],[103.93347,22.20106],[104.10221,22.21463],[104.31525,22.39907],[104.93955,22.56544],[105.10479,22.67052],[105.3453,22.95704],[105.55141,22.96769],[105.74608,23.04543],[105.94677,23.21736],[106.22206,23.29514],[106.3728,23.38777],[106.45268,23.54565],[106.51727,23.8767],[106.47107,24.11563],[106.24464,24.41042],[105.53868,24.535],[105.34754,24.74689],[105.1623,24.84933],[105.00277,24.87728],[105.07037,25.40038],[104.77537,25.86006],[105.00115,26.41278],[105.02155,26.5848],[104.95068,26.74286],[104.73831,26.99953],[104.53047,27.10928],[105.24601,27.18476],[105.40769,27.24855],[105.51337,27.38653],[105.69255,27.90521],[105.52824,28.31163],[105.44135,28.42234],[105.31579,28.48594],[105.17512,28.49049],[104.8114,28.42207],[104.70056,28.59192],[104.60539,28.92933],[104.47057,29.02904],[104.30398,29.04827],[103.8413,28.98023],[103.63352,28.86009],[103.33142,28.47751],[103.17322,27.99091],[102.72313,27.58814],[102.6945,26.76043],[102.43873,26.73776],[101.9728,26.55416],[101.22981,27.85947],[100.87142,28.19789],[100.52158,28.3503],[100.49564,28.61535],[100.41301,28.80193],[100.23544,28.90248],[99.86977,28.94733],[99.5446,28.74489],[99.39501,29.40502],[99.31567,29.55492],[99.17162,29.64443],[99.00209,29.6492],[98.85325,29.56791],[98.46371,29.19481],[98.36735,29.00987],[98.31921,28.69921],[97.87009,28.32348],[97.83308,28.185],[97.85924,28.04408],[98.1175,27.44312],[98.27452,27.27889],[98.46847,27.18503],[98.46366,26.43708],[98.28959,25.99497],[97.7016,25.55366],[97.33563,24.91581],[97.27959,24.7004]]]}},{"type":"Feature","id":"wide-0-4","properties":{"id":"wide-0-4","group":"wide-0","placeIds":["dali"],"alpha":0.035},"geometry":{"type":"Polygon","coordinates":[[[97.32385,25.6009],[97.50651,25.81359],[98.0209,26.19966],[98.13906,26.49976],[98.14216,26.98189],[97.8189,27.3148],[97.56065,27.91576],[97.50833,28.19761],[97.58234,28.47455],[97.76828,28.69273],[98.01834,28.87994],[98.04618,29.05963],[98.23891,29.42952],[98.62844,29.80261],[98.92614,29.9652],[99.2652,29.95567],[99.5533,29.77664],[99.71198,29.47684],[99.76373,29.24844],[100.06594,29.26745],[100.29869,29.22126],[100.65383,29.02017],[100.82523,28.58428],[101.08534,28.44256],[101.51346,28.01811],[102.10721,26.95645],[102.36823,27.04938],[102.3665,27.44541],[102.42977,27.72802],[102.60952,27.95509],[102.88696,28.17786],[103.07635,28.67891],[103.37845,29.0615],[103.79401,29.30177],[104.2567,29.36981],[104.58987,29.33135],[104.85952,29.13192],[104.99941,28.78814],[105.39638,28.80079],[105.6475,28.6736],[105.82129,28.45217],[105.9538,28.17585],[106.01738,27.91566],[105.97064,27.65192],[105.81484,27.26511],[105.60346,26.98913],[105.24254,26.85759],[105.34282,26.63391],[105.30202,26.28988],[105.14374,25.90241],[105.38752,25.47136],[105.37001,25.0856],[105.58886,24.96458],[105.70008,24.84129],[106.15702,24.7801],[106.41853,24.68498],[106.74385,24.29231],[106.83626,23.81446],[106.77166,23.48341],[106.61191,23.16766],[106.31043,22.98238],[106.10393,22.92404],[105.95751,22.79861],[105.5033,22.63977],[105.35371,22.46156],[105.02324,22.2514],[104.49784,22.11138],[104.21173,21.90864],[103.87425,21.8815],[103.43636,21.96265],[103.06985,21.82309],[102.73349,21.89298],[102.58703,21.96781],[102.4278,21.91018],[102.42184,21.15859],[102.32111,20.83323],[102.06969,20.60348],[101.7366,20.53241],[101.31276,20.55568],[100.86535,20.76977],[100.78097,20.86349],[100.38404,20.77692],[99.98986,20.81439],[99.69055,21.07363],[99.47344,21.42973],[99.07312,21.53037],[98.76786,21.70529],[98.59846,22.01364],[98.61455,22.3651],[98.69973,22.62232],[98.39113,22.9825],[98.22625,23.45608],[97.95506,23.31504],[97.59734,23.24428],[97.25781,23.37729],[97.04333,23.6722],[97.02141,24.0362],[97.05703,24.19245],[96.98288,24.39748],[96.96506,24.78223],[97.02111,24.99764],[97.32385,25.6009]],[[97.12233,24.74131],[97.13569,24.45275],[97.22608,24.20285],[97.17984,24.00007],[97.19628,23.72708],[97.35714,23.50589],[97.61179,23.40614],[97.88008,23.4592],[98.23954,23.64615],[98.33129,23.64858],[98.5446,23.03593],[98.77163,22.7682],[98.89665,22.70004],[98.76881,22.31401],[98.75674,22.05042],[98.88379,21.81915],[99.11274,21.68797],[99.57756,21.57111],[99.8293,21.15822],[100.05378,20.96379],[100.34942,20.93569],[100.83857,21.04237],[100.98611,20.8785],[101.32167,20.71793],[101.74551,20.69466],[101.99533,20.74797],[102.18389,20.92028],[102.25944,21.1643],[102.28176,21.79907],[102.24232,22.01586],[102.5981,22.14463],[102.80742,22.03769],[103.05969,21.98527],[103.40023,22.13461],[103.90386,22.04128],[104.15697,22.06164],[104.40654,22.25523],[104.9814,22.40842],[105.22925,22.56604],[105.4243,22.7984],[105.5598,22.8054],[105.85179,22.92202],[106.02535,23.0707],[106.26624,23.13876],[106.49235,23.27771],[106.61217,23.51453],[106.67677,23.84558],[106.60746,24.20397],[106.33159,24.5477],[106.13545,24.61904],[105.61938,24.68814],[105.4682,24.85574],[105.19128,25.00887],[105.22894,25.43587],[104.95955,25.88123],[105.15158,26.35133],[105.18218,26.60935],[105.07588,26.84645],[104.95644,26.99081],[105.26305,27.02315],[105.50558,27.11884],[105.66411,27.32582],[105.81991,27.71263],[105.85497,27.91044],[105.67477,28.3819],[105.54442,28.54797],[105.35609,28.64337],[104.88812,28.60185],[104.73246,29.03062],[104.53022,29.1802],[104.28034,29.20904],[103.81766,29.141],[103.50598,28.9608],[103.20388,28.57821],[103.03009,28.08439],[102.71127,27.82838],[102.57645,27.65808],[102.52899,27.44612],[102.53131,26.91787],[102.03468,26.75321],[101.37164,27.93879],[100.97838,28.32022],[100.6734,28.46729],[100.65736,28.63118],[100.53342,28.91105],[100.26707,29.06187],[100.03431,29.10806],[99.83495,29.10605],[99.64861,29.02118],[99.5535,29.44093],[99.43449,29.66578],[99.21841,29.80005],[98.96411,29.8072],[98.74084,29.68526],[98.35131,29.31216],[98.20677,29.03475],[98.16878,28.78957],[97.86567,28.56265],[97.72621,28.39901],[97.67071,28.19131],[97.70994,27.97992],[97.9682,27.37896],[98.20373,27.13262],[98.30532,27.08346],[98.30136,26.46842],[98.15525,26.09732],[97.60406,25.68363],[97.46706,25.52411],[97.17837,24.95672],[97.12233,24.74131]]]}},{"type":"Feature","id":"wide-1-0","properties":{"id":"wide-1-0","group":"wide-1","placeIds":["xihu"],"alpha":0.62},"geometry":{"type":"Polygon","coordinates":[[[118.59748,28.39618],[118.49283,28.81427],[118.20712,29.14236],[118.18802,29.32474],[118.29499,29.50687],[118.71804,29.70033],[118.94054,30.03548],[119.01546,30.41617],[119.27788,30.50282],[119.75081,31.21043],[119.97112,31.22097],[120.31613,31.0019],[121.03849,31.06912],[121.39042,30.74901],[121.35688,30.43586],[121.61381,30.12386],[121.89777,30.03915],[122.12134,30.14968],[122.40313,29.97113],[122.06355,29.7335],[121.96478,29.25888],[121.58299,28.60892],[121.6002,28.31379],[120.93448,27.98953],[120.54146,27.2967],[120.31528,27.41799],[119.90425,27.37192],[119.62902,27.56517],[119.05619,27.56094],[118.8021,28.24558],[118.59748,28.39618]]]}},{"type":"Feature","id":"wide-1-1","properties":{"id":"wide-1-1","group":"wide-1","placeIds":["xihu"],"alpha":0.43},"geometry":{"type":"Polygon","coordinates":[[[118.43984,28.35672],[118.34466,28.73697],[118.04551,29.12543],[118.0479,29.40705],[118.22741,29.65465],[118.6083,29.82883],[118.78733,30.0985],[118.89362,30.5237],[119.17384,30.6396],[119.67081,31.35188],[120.05823,31.35815],[120.35637,31.16884],[121.09002,31.22323],[121.54233,30.80671],[121.52573,30.48644],[121.70774,30.26541],[121.88301,30.21313],[122.12992,30.31196],[122.5446,30.05108],[122.54811,29.89772],[122.20951,29.63731],[122.10489,29.17658],[121.74809,28.56914],[121.74043,28.23169],[121.05095,27.86551],[120.62489,27.15725],[120.46467,27.15349],[120.28309,27.25087],[119.92235,27.21043],[119.81087,27.23892],[119.5782,27.40229],[118.9639,27.42719],[118.66665,28.1435],[118.50115,28.26531],[118.43984,28.35672]],[[118.8021,28.24558],[119.05619,27.56094],[119.62902,27.56517],[119.90425,27.37192],[120.31528,27.41799],[120.54146,27.2967],[120.93448,27.98953],[121.6002,28.31379],[121.58299,28.60892],[121.96478,29.25888],[122.06355,29.7335],[122.40313,29.97113],[122.12134,30.14968],[121.89777,30.03915],[121.61381,30.12386],[121.35688,30.43586],[121.39042,30.74901],[121.03849,31.06912],[120.31613,31.0019],[119.97112,31.22097],[119.75081,31.21043],[119.27788,30.50282],[119.01546,30.41617],[118.94054,30.03548],[118.71804,29.70033],[118.29499,29.50687],[118.18802,29.32474],[118.20712,29.14236],[118.49283,28.81427],[118.59748,28.39618],[118.8021,28.24558]]]}},{"type":"Feature","id":"wide-1-2","properties":{"id":"wide-1-2","group":"wide-1","placeIds":["xihu"],"alpha":0.25},"geometry":{"type":"Polygon","coordinates":[[[118.28221,28.31726],[118.1965,28.65967],[117.96203,28.92893],[117.88389,29.1085],[117.86478,29.29088],[117.90778,29.48935],[118.01476,29.67147],[118.15983,29.80243],[118.49856,29.95733],[118.63411,30.16151],[118.69657,30.47893],[118.77179,30.63123],[119.06981,30.77638],[119.4806,31.39102],[119.59081,31.49332],[119.95559,31.5456],[120.14533,31.49533],[120.3966,31.33579],[121.14154,31.37735],[121.60911,30.98943],[121.69424,30.86441],[121.69458,30.53703],[121.80168,30.40697],[121.86826,30.38711],[122.1385,30.47423],[122.2953,30.42421],[122.68606,30.13104],[122.72804,29.97856],[122.69308,29.82432],[122.35547,29.54111],[122.24501,29.09428],[121.91318,28.52936],[121.92465,28.3327],[121.88067,28.14959],[121.74251,28.0216],[121.16743,27.74149],[120.82415,27.13635],[120.70831,27.0178],[120.54908,26.97179],[120.2509,27.08374],[119.94045,27.04894],[119.71749,27.10593],[119.52739,27.23941],[119.05859,27.23595],[118.87161,27.29345],[118.7515,27.44786],[118.53121,28.04142],[118.40483,28.13444],[118.28221,28.31726]],[[118.66665,28.1435],[118.9639,27.42719],[119.5782,27.40229],[119.81087,27.23892],[119.92235,27.21043],[120.28309,27.25087],[120.46467,27.15349],[120.62489,27.15725],[121.05095,27.86551],[121.74043,28.23169],[121.74809,28.56914],[122.10489,29.17658],[122.20951,29.63731],[122.54811,29.89772],[122.5446,30.05108],[122.12992,30.31196],[121.88301,30.21313],[121.70774,30.26541],[121.52573,30.48644],[121.54233,30.80671],[121.09002,31.22323],[120.35637,31.16884],[120.05823,31.35815],[119.67081,31.35188],[119.17384,30.6396],[118.89362,30.5237],[118.78733,30.0985],[118.6083,29.82883],[118.22741,29.65465],[118.0479,29.40705],[118.04551,29.12543],[118.34466,28.73697],[118.43984,28.35672],[118.50115,28.26531],[118.66665,28.1435]]]}},{"type":"Feature","id":"wide-1-3","properties":{"id":"wide-1-3","group":"wide-1","placeIds":["xihu"],"alpha":0.11},"geometry":{"type":"Polygon","coordinates":[[[118.12457,28.2778],[118.04833,28.58238],[117.83948,28.82222],[117.72228,29.09156],[117.70317,29.27395],[117.76767,29.57165],[117.87464,29.75377],[118.09225,29.95021],[118.38882,30.08583],[118.4809,30.22452],[118.53713,30.5103],[118.64995,30.73876],[118.96577,30.91315],[119.34549,31.48132],[119.51081,31.63477],[119.94783,31.70791],[120.23244,31.63252],[120.43683,31.50273],[120.99332,31.55452],[121.19307,31.53146],[121.36652,31.42975],[121.71845,31.10964],[121.84615,30.92211],[121.87608,30.57225],[122.14708,30.6365],[122.38227,30.56147],[122.66406,30.38291],[122.82753,30.211],[122.8905,29.98228],[122.83806,29.75092],[122.68263,29.5717],[122.50143,29.44491],[122.38512,29.01198],[122.07828,28.48959],[122.08687,28.34216],[122.0209,28.06749],[121.81367,27.87551],[121.2839,27.61747],[120.96549,27.05617],[120.79174,26.87835],[120.55289,26.80934],[120.2187,26.91661],[119.95855,26.88745],[119.62411,26.97294],[119.47658,27.07653],[119.05979,27.07345],[118.77932,27.1597],[118.59916,27.39131],[118.39576,27.93934],[118.3085,28.00356],[118.12457,28.2778]],[[118.53121,28.04142],[118.7515,27.44786],[118.87161,27.29345],[119.05859,27.23595],[119.52739,27.23941],[119.71749,27.10593],[119.94045,27.04894],[120.2509,27.08374],[120.54908,26.97179],[120.70831,27.0178],[120.82415,27.13635],[121.16743,27.74149],[121.74251,28.0216],[121.88067,28.14959],[121.92465,28.3327],[121.91318,28.52936],[122.24501,29.09428],[122.35547,29.54111],[122.69308,29.82432],[122.72804,29.97856],[122.68606,30.13104],[122.2953,30.42421],[122.1385,30.47423],[121.86826,30.38711],[121.80168,30.40697],[121.69458,30.53703],[121.69424,30.86441],[121.60911,30.98943],[121.14154,31.37735],[120.3966,31.33579],[120.14533,31.49533],[119.95559,31.5456],[119.59081,31.49332],[119.4806,31.39102],[119.06981,30.77638],[118.77179,30.63123],[118.69657,30.47893],[118.63411,30.16151],[118.49856,29.95733],[118.15983,29.80243],[118.01476,29.67147],[117.90778,29.48935],[117.86478,29.29088],[117.88389,29.1085],[117.96203,28.92893],[118.1965,28.65967],[118.28221,28.31726],[118.40483,28.13444],[118.53121,28.04142]]]}},{"type":"Feature","id":"wide-1-4","properties":{"id":"wide-1-4","group":"wide-1","placeIds":["xihu"],"alpha":0.035},"geometry":{"type":"Polygon","coordinates":[[[117.96693,28.23834],[117.90017,28.50508],[117.71693,28.7155],[117.56066,29.07463],[117.54155,29.25701],[117.62755,29.65395],[117.73452,29.83607],[118.02467,30.09799],[118.27908,30.21433],[118.37769,30.54168],[118.52811,30.84629],[118.86173,31.04993],[119.21039,31.57161],[119.43082,31.77621],[119.71975,31.85969],[119.94006,31.87023],[120.31954,31.7697],[120.47706,31.66968],[120.97826,31.71632],[121.2446,31.68558],[121.47586,31.54996],[121.82779,31.22985],[121.99806,30.97981],[122.02486,30.77183],[122.15566,30.79878],[122.46925,30.69873],[122.75104,30.52018],[122.969,30.29096],[123.05296,29.986],[122.98304,29.67752],[122.6474,29.34872],[122.52524,28.92967],[122.24337,28.44981],[122.16114,27.98539],[121.88483,27.72942],[121.40037,27.49345],[121.10683,26.97599],[120.87516,26.7389],[120.5567,26.64688],[120.18651,26.74949],[119.97666,26.72596],[119.53074,26.83995],[119.42577,26.91365],[119.06099,26.91096],[118.68702,27.02595],[118.44681,27.33477],[118.26032,27.83726],[118.21218,27.87269],[117.96693,28.23834]],[[118.39576,27.93934],[118.59916,27.39131],[118.77932,27.1597],[119.05979,27.07345],[119.47658,27.07653],[119.62411,26.97294],[119.95855,26.88745],[120.2187,26.91661],[120.55289,26.80934],[120.79174,26.87835],[120.96549,27.05617],[121.2839,27.61747],[121.81367,27.87551],[122.0209,28.06749],[122.08687,28.34216],[122.07828,28.48959],[122.38512,29.01198],[122.50143,29.44491],[122.68263,29.5717],[122.83806,29.75092],[122.8905,29.98228],[122.82753,30.211],[122.66406,30.38291],[122.38227,30.56147],[122.14708,30.6365],[121.87608,30.57225],[121.84615,30.92211],[121.71845,31.10964],[121.36652,31.42975],[121.19307,31.53146],[120.99332,31.55452],[120.43683,31.50273],[120.23244,31.63252],[119.94783,31.70791],[119.51081,31.63477],[119.34549,31.48132],[118.96577,30.91315],[118.64995,30.73876],[118.53713,30.5103],[118.4809,30.22452],[118.38882,30.08583],[118.09225,29.95021],[117.87464,29.75377],[117.76767,29.57165],[117.70317,29.27395],[117.72228,29.09156],[117.83948,28.82222],[118.04833,28.58238],[118.12457,28.2778],[118.3085,28.00356],[118.39576,27.93934]]]}},{"type":"Feature","id":"wide-2-0","properties":{"id":"wide-2-0","group":"wide-2","placeIds":["kunshan","xuanwu"],"alpha":0.62},"geometry":{"type":"Polygon","coordinates":[[[116.4839,34.77336],[116.59031,34.98697],[116.97379,35.04647],[117.41365,34.64679],[117.69858,34.59476],[118.03456,34.76031],[118.44691,34.64178],[118.88293,34.89829],[119.06777,35.16583],[119.4279,35.17792],[119.38978,34.87273],[119.66924,34.57163],[120.35634,34.21216],[120.9994,32.66431],[121.76073,32.04972],[121.97483,31.64256],[121.58863,31.71663],[121.43289,31.63214],[121.01651,31.10619],[120.60314,30.89205],[119.89953,31.21621],[118.94715,31.34851],[118.88041,31.69994],[118.50246,32.11384],[118.74759,32.35023],[118.76459,32.57866],[118.12136,33.31265],[118.01511,33.75645],[117.71954,34.03154],[117.18108,34.17335],[116.98583,34.46071],[116.4839,34.77336]]]}},{"type":"Feature","id":"wide-2-1","properties":{"id":"wide-2-1","group":"wide-2","placeIds":["kunshan","xuanwu"],"alpha":0.43},"geometry":{"type":"Polygon","coordinates":[[[116.34302,34.69237],[116.33844,34.84582],[116.44486,35.05943],[116.56539,35.14755],[117.02054,35.2021],[117.48855,34.7983],[117.67493,34.76427],[117.96273,34.90608],[118.07945,34.91649],[118.4247,34.81724],[118.76962,35.02016],[118.98988,35.30845],[119.51181,35.31707],[119.58915,35.15778],[119.56042,34.92776],[119.76933,34.70266],[120.43167,34.35615],[120.5064,34.27451],[121.13362,32.7648],[121.90455,32.12535],[122.11866,31.71819],[122.10535,31.54577],[121.94422,31.48297],[121.61506,31.5461],[121.53963,31.50518],[121.14392,31.00532],[120.60689,30.72959],[119.85337,31.05856],[118.83513,31.23078],[118.72936,31.62438],[118.34407,32.07751],[118.38966,32.23081],[118.59014,32.42414],[118.59748,32.52279],[117.99915,33.20555],[117.8685,33.67091],[117.6387,33.88478],[117.13969,34.01621],[117.04667,34.08202],[116.87074,34.34095],[116.39798,34.63543],[116.34302,34.69237]],[[116.98583,34.46071],[117.18108,34.17335],[117.71954,34.03154],[118.01511,33.75645],[118.12136,33.31265],[118.76459,32.57866],[118.74759,32.35023],[118.50246,32.11384],[118.88041,31.69994],[118.94715,31.34851],[119.89953,31.21621],[120.60314,30.89205],[121.01651,31.10619],[121.43289,31.63214],[121.58863,31.71663],[121.97483,31.64256],[121.76073,32.04972],[120.9994,32.66431],[120.35634,34.21216],[119.66924,34.57163],[119.38978,34.87273],[119.4279,35.17792],[119.06777,35.16583],[118.88293,34.89829],[118.44691,34.64178],[118.03456,34.76031],[117.69858,34.59476],[117.41365,34.64679],[116.97379,35.04647],[116.59031,34.98697],[116.4839,34.77336],[116.98583,34.46071]]]}},{"type":"Feature","id":"wide-2-2","properties":{"id":"wide-2-2","group":"wide-2","placeIds":["kunshan","xuanwu"],"alpha":0.25},"geometry":{"type":"Polygon","coordinates":[[[116.20214,34.61138],[116.15904,34.76368],[116.19299,34.91828],[116.3985,35.24934],[116.54048,35.30813],[117.0673,35.35773],[117.56344,34.94981],[117.65129,34.93377],[117.89091,35.05184],[118.12435,35.07266],[118.40248,34.99271],[118.65631,35.14204],[118.91199,35.45106],[119.05687,35.49065],[119.417,35.50273],[119.59573,35.45623],[119.72027,35.31985],[119.73105,34.98278],[119.86942,34.83369],[120.50699,34.50013],[120.65647,34.33685],[121.26783,32.86529],[122.04838,32.20098],[122.26248,31.79382],[122.29887,31.61757],[122.23588,31.44897],[122.09284,31.33975],[121.91361,31.32338],[121.64391,31.3751],[121.166,30.81761],[120.61065,30.56713],[119.8072,30.90091],[118.90243,31.0266],[118.72311,31.11306],[118.62786,31.28787],[118.5783,31.54881],[118.26246,31.89469],[118.18569,32.04117],[118.19094,32.20647],[118.41664,32.48258],[117.87694,33.09845],[117.72188,33.58538],[117.55786,33.73803],[117.09831,33.85907],[116.91226,33.9907],[116.75565,34.2212],[116.31206,34.4975],[116.20214,34.61138]],[[116.87074,34.34095],[117.04667,34.08202],[117.13969,34.01621],[117.6387,33.88478],[117.8685,33.67091],[117.99915,33.20555],[118.59748,32.52279],[118.59014,32.42414],[118.38966,32.23081],[118.34407,32.07751],[118.72936,31.62438],[118.83513,31.23078],[119.85337,31.05856],[120.60689,30.72959],[121.14392,31.00532],[121.53963,31.50518],[121.61506,31.5461],[121.94422,31.48297],[122.10535,31.54577],[122.11866,31.71819],[121.90455,32.12535],[121.13362,32.7648],[120.5064,34.27451],[120.43167,34.35615],[119.76933,34.70266],[119.56042,34.92776],[119.58915,35.15778],[119.51181,35.31707],[118.98988,35.30845],[118.76962,35.02016],[118.4247,34.81724],[118.07945,34.91649],[117.96273,34.90608],[117.67493,34.76427],[117.48855,34.7983],[117.02054,35.2021],[116.56539,35.14755],[116.44486,35.05943],[116.33844,34.84582],[116.34302,34.69237],[116.39798,34.63543],[116.87074,34.34095]]]}},{"type":"Feature","id":"wide-2-3","properties":{"id":"wide-2-3","group":"wide-2","placeIds":["kunshan","xuanwu"],"alpha":0.11},"geometry":{"type":"Polygon","coordinates":[[[116.06126,34.53039],[115.99661,34.75884],[116.04754,34.99074],[116.3026,35.38052],[116.51556,35.46871],[116.89905,35.52821],[117.11405,35.51336],[117.30163,35.40727],[117.63319,35.10601],[117.81909,35.19761],[118.16924,35.22884],[118.38027,35.16818],[118.543,35.26391],[118.8341,35.59368],[119.05142,35.65306],[119.41154,35.66514],[119.67965,35.59539],[119.86645,35.39082],[119.90169,35.03781],[119.96952,34.96472],[120.58232,34.64412],[120.80653,34.3992],[121.40205,32.96579],[122.06694,32.42905],[122.19221,32.27661],[122.40631,31.86945],[122.46088,31.60507],[122.36641,31.35218],[122.15185,31.18834],[121.88301,31.16379],[121.71013,31.19694],[121.39874,30.8036],[121.24075,30.67332],[120.82738,30.45918],[120.61441,30.40468],[120.39915,30.44928],[119.76104,30.74326],[118.88007,30.86564],[118.6111,30.99534],[118.46821,31.25755],[118.42725,31.47324],[118.14247,31.78511],[118.0273,32.00484],[118.03518,32.25278],[118.19232,32.49201],[117.75473,32.99135],[117.64726,33.19914],[117.57527,33.49984],[117.47702,33.59128],[117.05692,33.70192],[116.77785,33.89937],[116.64055,34.10144],[116.22615,34.35957],[116.06126,34.53039]],[[116.75565,34.2212],[116.91226,33.9907],[117.09831,33.85907],[117.55786,33.73803],[117.72188,33.58538],[117.87694,33.09845],[118.41664,32.48258],[118.19094,32.20647],[118.18569,32.04117],[118.26246,31.89469],[118.5783,31.54881],[118.62786,31.28787],[118.72311,31.11306],[118.90243,31.0266],[119.8072,30.90091],[120.61065,30.56713],[121.166,30.81761],[121.64391,31.3751],[121.91361,31.32338],[122.09284,31.33975],[122.23588,31.44897],[122.29887,31.61757],[122.26248,31.79382],[122.04838,32.20098],[121.26783,32.86529],[120.65647,34.33685],[120.50699,34.50013],[119.86942,34.83369],[119.73105,34.98278],[119.72027,35.31985],[119.59573,35.45623],[119.417,35.50273],[119.05687,35.49065],[118.91199,35.45106],[118.65631,35.14204],[118.40248,34.99271],[118.12435,35.07266],[117.89091,35.05184],[117.65129,34.93377],[117.56344,34.94981],[117.0673,35.35773],[116.54048,35.30813],[116.3985,35.24934],[116.19299,34.91828],[116.15904,34.76368],[116.20214,34.61138],[116.31206,34.4975],[116.75565,34.2212]]]}},{"type":"Feature","id":"wide-2-4","properties":{"id":"wide-2-4","group":"wide-2","placeIds":["kunshan","xuanwu"],"alpha":0.035},"geometry":{"type":"Polygon","coordinates":[[[115.92038,34.44941],[115.83418,34.75401],[115.90209,35.0632],[116.0085,35.27681],[116.2067,35.5117],[116.49065,35.62929],[116.87413,35.68879],[117.1608,35.66899],[117.41092,35.52754],[117.66059,35.30067],[117.74726,35.34337],[118.21414,35.38501],[118.35806,35.34364],[118.75621,35.7363],[119.04597,35.81546],[119.40609,35.82755],[119.76356,35.73454],[120.01264,35.46179],[120.0725,35.09424],[120.65765,34.7881],[120.95659,34.46154],[121.53626,33.06628],[122.16901,32.55549],[122.33604,32.35224],[122.55014,31.94509],[122.6229,31.59257],[122.49693,31.25539],[122.21086,31.03693],[121.77635,31.01878],[121.52615,30.70273],[121.3155,30.52903],[120.90212,30.31489],[120.61816,30.24222],[120.33115,30.30169],[119.71487,30.58562],[118.85772,30.70469],[118.49908,30.87762],[118.30856,31.22723],[118.27619,31.39768],[118.02247,31.67554],[117.86892,31.9685],[117.87942,32.2991],[117.98833,32.47822],[117.63251,32.88425],[117.48923,33.1613],[117.42866,33.4143],[117.01554,33.54478],[116.64345,33.80804],[116.52546,33.98168],[116.14023,34.22164],[115.92038,34.44941]],[[116.64055,34.10144],[116.77785,33.89937],[117.05692,33.70192],[117.47702,33.59128],[117.57527,33.49984],[117.64726,33.19914],[117.75473,32.99135],[118.19232,32.49201],[118.03518,32.25278],[118.0273,32.00484],[118.14247,31.78511],[118.42725,31.47324],[118.46821,31.25755],[118.6111,30.99534],[118.88007,30.86564],[119.76104,30.74326],[120.39915,30.44928],[120.61441,30.40468],[120.82738,30.45918],[121.24075,30.67332],[121.39874,30.8036],[121.71013,31.19694],[121.88301,31.16379],[122.15185,31.18834],[122.36641,31.35218],[122.46088,31.60507],[122.40631,31.86945],[122.19221,32.27661],[122.06694,32.42905],[121.40205,32.96579],[120.80653,34.3992],[120.58232,34.64412],[119.96952,34.96472],[119.90169,35.03781],[119.86645,35.39082],[119.67965,35.59539],[119.41154,35.66514],[119.05142,35.65306],[118.8341,35.59368],[118.543,35.26391],[118.38027,35.16818],[118.16924,35.22884],[117.81909,35.19761],[117.63319,35.10601],[117.30163,35.40727],[117.11405,35.51336],[116.89905,35.52821],[116.51556,35.46871],[116.3026,35.38052],[116.04754,34.99074],[115.99661,34.75884],[116.06126,34.53039],[116.22615,34.35957],[116.64055,34.10144]]]}},{"type":"Feature","id":"wide-3-0","properties":{"id":"wide-3-0","group":"wide-3","placeIds":["yangshuo"],"alpha":0.62},"geometry":{"type":"Polygon","coordinates":[[[104.69736,24.47349],[104.59075,24.80248],[105.16854,25.00895],[106.0238,24.81908],[106.29418,25.07259],[106.9818,25.34083],[107.26837,25.60633],[107.90988,25.29858],[108.08318,25.33078],[108.32607,25.61264],[108.63039,25.56463],[109.54167,26.11377],[109.82528,26.11728],[110.0389,26.32548],[110.43317,26.2416],[110.72224,26.4306],[111.06954,26.45009],[111.30692,26.36842],[111.50145,25.99748],[111.35588,25.39897],[111.44378,25.21048],[111.60826,24.95223],[111.98913,24.84443],[112.07018,24.49533],[111.90145,24.02466],[111.51294,23.59403],[111.36092,22.93193],[110.81899,22.57312],[110.75734,22.34894],[110.45243,22.17489],[110.36674,21.98138],[110.04144,21.90421],[109.73674,21.55737],[109.20058,21.44893],[109.00079,21.66333],[108.69962,21.75042],[108.04369,21.5896],[107.48413,21.64828],[106.75378,22.01973],[106.56441,22.78363],[106.15707,22.98198],[105.93819,22.96457],[105.55697,23.23585],[105.94536,23.65431],[105.95201,24.01086],[105.75098,24.16113],[105.28845,24.21343],[105.08002,24.49581],[104.69736,24.47349]]]}},{"type":"Feature","id":"wide-3-1","properties":{"id":"wide-3-1","group":"wide-3","placeIds":["yangshuo"],"alpha":0.43},"geometry":{"type":"Polygon","coordinates":[[[104.57868,24.3625],[104.43616,24.75238],[104.46793,24.90888],[104.53607,24.9555],[105.20376,25.16759],[105.97525,24.99631],[106.23512,25.22398],[106.894,25.48101],[107.24409,25.767],[107.93234,25.46803],[107.99736,25.48012],[108.27012,25.76521],[108.59723,25.73437],[109.4578,26.25295],[109.75836,26.27897],[109.99377,26.48159],[110.40084,26.41462],[110.71314,26.59284],[111.06044,26.61233],[111.35978,26.52208],[111.45083,26.44389],[111.64536,26.07295],[111.65935,25.95908],[111.52726,25.41597],[111.71207,25.09173],[112.10674,24.95656],[112.22847,24.53208],[112.05441,23.96982],[111.66187,23.51652],[111.5193,22.89556],[111.45063,22.79644],[110.95951,22.47127],[110.91402,22.30585],[110.8379,22.20781],[110.57938,22.06025],[110.4706,21.85641],[110.12934,21.75805],[109.76895,21.3981],[109.2328,21.28965],[109.0817,21.33814],[108.91252,21.5197],[108.69617,21.58226],[108.08238,21.43177],[107.46718,21.48666],[106.68012,21.87489],[106.59606,21.98063],[106.42497,22.67079],[106.12577,22.81648],[105.84397,22.83217],[105.4064,23.17474],[105.43787,23.34639],[105.78404,23.71938],[105.78798,23.93059],[105.68896,24.00461],[105.20718,24.07272],[105.00157,24.32846],[104.70683,24.31127],[104.57868,24.3625]],[[105.08002,24.49581],[105.28845,24.21343],[105.75098,24.16113],[105.95201,24.01086],[105.94536,23.65431],[105.55697,23.23585],[105.93819,22.96457],[106.15707,22.98198],[106.56441,22.78363],[106.75378,22.01973],[107.48413,21.64828],[108.04369,21.5896],[108.69962,21.75042],[109.00079,21.66333],[109.20058,21.44893],[109.73674,21.55737],[110.04144,21.90421],[110.36674,21.98138],[110.45243,22.17489],[110.75734,22.34894],[110.81899,22.57312],[111.36092,22.93193],[111.51294,23.59403],[111.90145,24.02466],[112.07018,24.49533],[111.98913,24.84443],[111.60826,24.95223],[111.44378,25.21048],[111.35588,25.39897],[111.50145,25.99748],[111.30692,26.36842],[111.06954,26.45009],[110.72224,26.4306],[110.43317,26.2416],[110.0389,26.32548],[109.82528,26.11728],[109.54167,26.11377],[108.63039,25.56463],[108.32607,25.61264],[108.08318,25.33078],[107.90988,25.29858],[107.26837,25.60633],[106.9818,25.34083],[106.29418,25.07259],[106.0238,24.81908],[105.16854,25.00895],[104.59075,24.80248],[104.69736,24.47349],[105.08002,24.49581]]]}},{"type":"Feature","id":"wide-3-2","properties":{"id":"wide-3-2","group":"wide-3","placeIds":["yangshuo"],"alpha":0.25},"geometry":{"type":"Polygon","coordinates":[[[104.57673,24.17171],[104.46,24.2515],[104.28158,24.70229],[104.27225,24.86713],[104.34512,25.01529],[104.48138,25.10852],[105.05917,25.315],[105.23898,25.32623],[105.9267,25.17355],[106.17606,25.37536],[106.8062,25.62118],[107.0475,25.84474],[107.21982,25.92768],[107.40895,25.89935],[107.92909,25.64983],[108.21416,25.91777],[108.56407,25.90412],[109.37393,26.39214],[109.69143,26.44065],[109.94863,26.63769],[110.36852,26.58763],[110.70403,26.75509],[111.05134,26.77457],[111.41265,26.67573],[111.59474,26.51936],[111.78927,26.14842],[111.81724,25.92068],[111.69863,25.43297],[111.81588,25.23123],[112.22436,25.06869],[112.30571,24.91793],[112.38676,24.56883],[112.37611,24.38565],[112.20738,23.91499],[111.81081,23.43901],[111.67768,22.8592],[111.54034,22.66094],[111.10004,22.36942],[111.07071,22.26277],[110.91845,22.06669],[110.70634,21.94561],[110.57447,21.73143],[110.21724,21.61189],[109.9809,21.34287],[109.80117,21.23882],[109.26501,21.13038],[109.10127,21.13947],[108.82424,21.37606],[108.69271,21.4141],[108.12107,21.27395],[107.45024,21.32505],[106.60645,21.73005],[106.49937,21.81749],[106.43833,21.94153],[106.28552,22.55795],[106.09448,22.65098],[105.96397,22.64059],[105.74975,22.69977],[105.36854,22.97105],[105.25582,23.11364],[105.2373,23.29446],[105.31876,23.45694],[105.62273,23.78445],[105.62392,23.84843],[105.12591,23.932],[104.92313,24.16111],[104.71629,24.14905],[104.57673,24.17171]],[[105.00157,24.32846],[105.20718,24.07272],[105.68896,24.00461],[105.78798,23.93059],[105.78404,23.71938],[105.43787,23.34639],[105.4064,23.17474],[105.84397,22.83217],[106.12577,22.81648],[106.42497,22.67079],[106.59606,21.98063],[106.68012,21.87489],[107.46718,21.48666],[108.08238,21.43177],[108.69617,21.58226],[108.91252,21.5197],[109.0817,21.33814],[109.2328,21.28965],[109.76895,21.3981],[110.12934,21.75805],[110.4706,21.85641],[110.57938,22.06025],[110.8379,22.20781],[110.91402,22.30585],[110.95951,22.47127],[111.45063,22.79644],[111.5193,22.89556],[111.66187,23.51652],[112.05441,23.96982],[112.22847,24.53208],[112.10674,24.95656],[111.71207,25.09173],[111.52726,25.41597],[111.65935,25.95908],[111.64536,26.07295],[111.45083,26.44389],[111.35978,26.52208],[111.06044,26.61233],[110.71314,26.59284],[110.40084,26.41462],[109.99377,26.48159],[109.75836,26.27897],[109.4578,26.25295],[108.59723,25.73437],[108.27012,25.76521],[107.99736,25.48012],[107.93234,25.46803],[107.24409,25.767],[106.894,25.48101],[106.23512,25.22398],[105.97525,24.99631],[105.20376,25.16759],[104.53607,24.9555],[104.46793,24.90888],[104.43616,24.75238],[104.57868,24.3625],[104.70683,24.31127],[105.00157,24.32846]]]}},{"type":"Feature","id":"wide-3-3","properties":{"id":"wide-3-3","group":"wide-3","placeIds":["yangshuo"],"alpha":0.11},"geometry":{"type":"Polygon","coordinates":[[[104.51641,24.02082],[104.34131,24.1405],[104.23361,24.3232],[104.12699,24.65219],[104.11299,24.89946],[104.2223,25.1217],[104.4267,25.26155],[105.00449,25.46802],[105.2742,25.48487],[105.87815,25.35078],[106.117,25.52675],[106.71839,25.76136],[106.93706,25.96394],[107.19554,26.08836],[107.47923,26.04587],[107.8872,25.85015],[108.15821,26.07033],[108.53091,26.07386],[109.29006,26.53132],[109.6245,26.60233],[109.90349,26.7938],[110.33619,26.76065],[110.69493,26.91733],[111.22814,26.91106],[111.46552,26.82939],[111.73865,26.59483],[111.93318,26.22389],[111.97514,25.88227],[111.87,25.44997],[111.91969,25.37073],[112.12189,25.3135],[112.34197,25.18083],[112.464,24.95468],[112.54505,24.60557],[112.52908,24.33081],[112.36035,23.86015],[111.95974,23.36151],[111.83605,22.82283],[111.63005,22.52545],[111.24056,22.26757],[110.99901,21.92556],[110.83329,21.83096],[110.67834,21.60646],[110.30514,21.46574],[110.10298,21.23562],[109.83339,21.07955],[109.29723,20.9711],[109.05161,20.98475],[108.68926,21.24594],[107.99284,21.10476],[107.43329,21.16344],[106.53278,21.5852],[106.37217,21.71637],[106.28061,21.90243],[106.14608,22.44511],[105.65554,22.56737],[105.27432,22.83865],[105.10525,23.05254],[105.07746,23.32376],[105.19966,23.56748],[105.33857,23.71716],[105.04463,23.79129],[104.84468,23.99376],[104.72575,23.98682],[104.51641,24.02082]],[[104.92313,24.16111],[105.12591,23.932],[105.62392,23.84843],[105.62273,23.78445],[105.31876,23.45694],[105.2373,23.29446],[105.25582,23.11364],[105.36854,22.97105],[105.74975,22.69977],[105.96397,22.64059],[106.09448,22.65098],[106.28552,22.55795],[106.43833,21.94153],[106.49937,21.81749],[106.60645,21.73005],[107.45024,21.32505],[108.12107,21.27395],[108.69271,21.4141],[108.82424,21.37606],[109.10127,21.13947],[109.26501,21.13038],[109.80117,21.23882],[109.9809,21.34287],[110.21724,21.61189],[110.57447,21.73143],[110.70634,21.94561],[110.91845,22.06669],[111.07071,22.26277],[111.10004,22.36942],[111.54034,22.66094],[111.67768,22.8592],[111.81081,23.43901],[112.20738,23.91499],[112.37611,24.38565],[112.38676,24.56883],[112.30571,24.91793],[112.22436,25.06869],[111.81588,25.23123],[111.69863,25.43297],[111.81724,25.92068],[111.78927,26.14842],[111.59474,26.51936],[111.41265,26.67573],[111.05134,26.77457],[110.70403,26.75509],[110.36852,26.58763],[109.94863,26.63769],[109.69143,26.44065],[109.37393,26.39214],[108.56407,25.90412],[108.21416,25.91777],[107.92909,25.64983],[107.40895,25.89935],[107.21982,25.92768],[107.0475,25.84474],[106.8062,25.62118],[106.17606,25.37536],[105.9267,25.17355],[105.23898,25.32623],[105.05917,25.315],[104.48138,25.10852],[104.34512,25.01529],[104.27225,24.86713],[104.28158,24.70229],[104.46,24.2515],[104.57673,24.17171],[104.71629,24.14905],[104.92313,24.16111]]]}},{"type":"Feature","id":"wide-3-4","properties":{"id":"wide-3-4","group":"wide-3","placeIds":["yangshuo"],"alpha":0.035},"geometry":{"type":"Polygon","coordinates":[[[104.45609,23.86993],[104.22263,24.0295],[104.07902,24.27311],[103.97241,24.60209],[103.95374,24.93178],[104.09948,25.2281],[104.37201,25.41457],[104.9498,25.62105],[105.30941,25.6435],[105.8296,25.52802],[106.05795,25.67814],[106.63059,25.90153],[106.82662,26.08315],[107.17126,26.24903],[107.54952,26.19238],[107.84997,26.04824],[108.10225,26.22289],[108.49775,26.2436],[109.20619,26.6705],[109.55758,26.76402],[109.85836,26.9499],[110.30386,26.93366],[110.68582,27.07958],[111.03313,27.09906],[111.28101,27.06472],[111.51839,26.98305],[111.88256,26.6703],[112.07709,26.29937],[112.13304,25.84387],[112.05006,25.50272],[112.45958,25.29296],[112.62229,24.99143],[112.70334,24.64232],[112.68205,24.27597],[112.51331,23.80531],[112.38407,23.58926],[112.10867,23.284],[111.99443,22.78647],[111.71976,22.38996],[111.36987,22.1583],[110.7822,21.48149],[110.39304,21.31958],[110.22506,21.12837],[109.8656,20.92027],[109.32944,20.81183],[109.00196,20.83002],[108.66314,21.07222],[107.9759,20.94314],[107.41634,21.00182],[107.18946,21.06891],[106.45912,21.44036],[106.24497,21.61525],[106.12288,21.86333],[106.01011,22.31824],[105.56132,22.43497],[105.1801,22.70625],[104.95467,22.99143],[104.91763,23.35306],[105.05213,23.62133],[104.73521,23.8246],[104.45609,23.86993]],[[104.84468,23.99376],[105.04463,23.79129],[105.33857,23.71716],[105.19966,23.56748],[105.07746,23.32376],[105.10525,23.05254],[105.27432,22.83865],[105.65554,22.56737],[106.14608,22.44511],[106.28061,21.90243],[106.37217,21.71637],[106.53278,21.5852],[107.43329,21.16344],[107.99284,21.10476],[108.68926,21.24594],[109.05161,20.98475],[109.29723,20.9711],[109.83339,21.07955],[110.10298,21.23562],[110.30514,21.46574],[110.67834,21.60646],[110.83329,21.83096],[110.99901,21.92556],[111.24056,22.26757],[111.63005,22.52545],[111.83605,22.82283],[111.95974,23.36151],[112.36035,23.86015],[112.52908,24.33081],[112.54505,24.60557],[112.464,24.95468],[112.34197,25.18083],[112.12189,25.3135],[111.91969,25.37073],[111.87,25.44997],[111.97514,25.88227],[111.93318,26.22389],[111.73865,26.59483],[111.46552,26.82939],[111.22814,26.91106],[110.69493,26.91733],[110.33619,26.76065],[109.90349,26.7938],[109.6245,26.60233],[109.29006,26.53132],[108.53091,26.07386],[108.15821,26.07033],[107.8872,25.85015],[107.47923,26.04587],[107.19554,26.08836],[106.93706,25.96394],[106.71839,25.76136],[106.117,25.52675],[105.87815,25.35078],[105.2742,25.48487],[105.00449,25.46802],[104.4267,25.26155],[104.2223,25.1217],[104.11299,24.89946],[104.12699,24.65219],[104.23361,24.3232],[104.34131,24.1405],[104.51641,24.02082],[104.72575,23.98682],[104.84468,23.99376]]]}},{"type":"Feature","id":"wide-4-0","properties":{"id":"wide-4-0","group":"wide-4","placeIds":["kyoto"],"alpha":0.62},"geometry":{"type":"Polygon","coordinates":[[[133.14972,35.07363],[133.23904,35.54331],[134.13421,35.5325],[135.22124,35.7705],[135.64822,35.56225],[135.96194,35.80774],[136.15708,36.26273],[136.51415,36.15586],[137.22342,36.45753],[137.63417,36.33733],[137.51392,35.68999],[137.828,35.20818],[137.47232,34.68513],[136.98485,34.50145],[136.86355,34.25944],[136.3451,34.14752],[135.78819,33.44769],[135.41244,33.58456],[135.0972,33.87969],[134.7256,33.82147],[134.27318,33.54771],[133.72574,33.84475],[133.34106,34.83428],[133.14972,35.07363]]]}},{"type":"Feature","id":"wide-4-1","properties":{"id":"wide-4-1","group":"wide-4","placeIds":["kyoto"],"alpha":0.43},"geometry":{"type":"Polygon","coordinates":[[[132.99008,35.10399],[133.0794,35.57367],[133.16793,35.68942],[134.1176,35.69522],[135.18649,35.92924],[135.62812,35.75285],[135.82901,35.91006],[136.05488,36.38907],[136.20367,36.41841],[136.50454,36.32836],[137.15981,36.60707],[137.26906,36.61349],[137.67981,36.49329],[137.78911,36.38633],[137.68556,35.72425],[137.99049,35.2066],[137.6067,34.59375],[137.10164,34.37181],[136.9631,34.131],[136.43612,34.00092],[135.83226,33.29128],[135.35682,33.43187],[135.04402,33.70687],[134.78235,33.66588],[134.277,33.38525],[133.64825,33.70192],[133.57429,33.78587],[133.19861,34.75223],[133.02279,34.97217],[132.99008,35.10399]],[[133.34106,34.83428],[133.72574,33.84475],[134.27318,33.54771],[134.7256,33.82147],[135.0972,33.87969],[135.41244,33.58456],[135.78819,33.44769],[136.3451,34.14752],[136.86355,34.25944],[136.98485,34.50145],[137.47232,34.68513],[137.828,35.20818],[137.51392,35.68999],[137.63417,36.33733],[137.22342,36.45753],[136.51415,36.15586],[136.15708,36.26273],[135.96194,35.80774],[135.64822,35.56225],[135.22124,35.7705],[134.13421,35.5325],[133.23904,35.54331],[133.14972,35.07363],[133.34106,34.83428]]]}},{"type":"Feature","id":"wide-4-2","properties":{"id":"wide-4-2","group":"wide-4","placeIds":["kyoto"],"alpha":0.25},"geometry":{"type":"Polygon","coordinates":[[[132.83429,34.99536],[132.83044,35.13435],[132.91976,35.60402],[132.98088,35.74074],[133.09682,35.83554],[133.24296,35.86828],[134.10099,35.85793],[135.15173,36.08798],[135.36372,36.06261],[135.60801,35.94346],[135.69608,36.01237],[135.95268,36.51541],[136.09421,36.58159],[136.49493,36.50086],[137.09621,36.75661],[137.3147,36.76945],[137.72545,36.64925],[137.86149,36.56961],[137.94405,36.43532],[137.9537,36.27798],[137.85721,35.75851],[138.10026,35.38566],[138.15299,35.20502],[138.09675,35.02543],[137.74107,34.50237],[137.58691,34.381],[137.21843,34.24216],[137.06266,34.00257],[136.52713,33.85433],[136.04249,33.24532],[135.87633,33.13487],[135.67695,33.14232],[135.30121,33.27918],[134.99084,33.53406],[134.83911,33.51029],[134.44144,33.26965],[134.28082,33.2228],[134.11818,33.26205],[133.57075,33.55909],[133.42283,33.72699],[133.05616,34.67018],[132.89586,34.8707],[132.83429,34.99536]],[[133.19861,34.75223],[133.57429,33.78587],[133.64825,33.70192],[134.277,33.38525],[134.78235,33.66588],[135.04402,33.70687],[135.35682,33.43187],[135.83226,33.29128],[136.43612,34.00092],[136.9631,34.131],[137.10164,34.37181],[137.6067,34.59375],[137.99049,35.2066],[137.68556,35.72425],[137.78911,36.38633],[137.67981,36.49329],[137.26906,36.61349],[137.15981,36.60707],[136.50454,36.32836],[136.20367,36.41841],[136.05488,36.38907],[135.82901,35.91006],[135.62812,35.75285],[135.18649,35.92924],[134.1176,35.69522],[133.16793,35.68942],[133.0794,35.57367],[132.99008,35.10399],[133.02279,34.97217],[133.19861,34.75223]]]}},{"type":"Feature","id":"wide-4-3","properties":{"id":"wide-4-3","group":"wide-4","placeIds":["kyoto"],"alpha":0.11},"geometry":{"type":"Polygon","coordinates":[[[132.67657,34.95623],[132.67081,35.16471],[132.76012,35.63438],[132.85181,35.83946],[133.02572,35.98166],[133.24492,36.03077],[134.08438,36.02064],[135.11698,36.24672],[135.43495,36.20866],[135.5743,36.1407],[135.70904,36.45488],[135.85048,36.64175],[136.06277,36.74102],[136.48531,36.67336],[137.03261,36.90614],[137.36034,36.92541],[137.77109,36.80521],[137.97515,36.68574],[138.09898,36.48431],[138.11347,36.2483],[138.02885,35.79277],[138.23639,35.47441],[138.31548,35.20343],[138.23113,34.93406],[137.87545,34.411],[137.64421,34.22893],[137.33522,34.11251],[137.16221,33.87413],[136.96642,33.78291],[136.61815,33.70773],[136.16964,33.14413],[135.9204,32.97846],[135.62134,32.98963],[135.24559,33.1265],[134.93766,33.36124],[134.52556,33.13062],[134.28464,33.06034],[134.04068,33.11922],[133.49325,33.41626],[133.27137,33.66811],[132.91371,34.58813],[132.76893,34.76924],[132.67657,34.95623]],[[133.05616,34.67018],[133.42283,33.72699],[133.57075,33.55909],[134.11818,33.26205],[134.28082,33.2228],[134.44144,33.26965],[134.83911,33.51029],[134.99084,33.53406],[135.30121,33.27918],[135.67695,33.14232],[135.87633,33.13487],[136.04249,33.24532],[136.52713,33.85433],[137.06266,34.00257],[137.21843,34.24216],[137.58691,34.381],[137.74107,34.50237],[138.09675,35.02543],[138.15299,35.20502],[138.10026,35.38566],[137.85721,35.75851],[137.9537,36.27798],[137.94405,36.43532],[137.86149,36.56961],[137.72545,36.64925],[137.3147,36.76945],[137.09621,36.75661],[136.49493,36.50086],[136.09421,36.58159],[135.95268,36.51541],[135.69608,36.01237],[135.60801,35.94346],[135.36372,36.06261],[135.15173,36.08798],[134.10099,35.85793],[133.24296,35.86828],[133.09682,35.83554],[132.98088,35.74074],[132.91976,35.60402],[132.83044,35.13435],[132.83429,34.99536],[132.89586,34.8707],[133.05616,34.67018]]]}},{"type":"Feature","id":"wide-4-4","properties":{"id":"wide-4-4","group":"wide-4","placeIds":["kyoto"],"alpha":0.035},"geometry":{"type":"Polygon","coordinates":[[[132.51885,34.91709],[132.51117,35.19506],[132.60048,35.66474],[132.72273,35.93818],[132.95461,36.12777],[133.24688,36.19326],[134.06777,36.18335],[135.08222,36.40546],[135.4901,36.35664],[135.74828,36.76809],[136.03134,36.90046],[136.4757,36.84586],[136.96901,37.05568],[137.40598,37.08137],[137.81673,36.96117],[138.08881,36.80188],[138.25392,36.5333],[138.27324,36.21862],[138.2005,35.82704],[138.37252,35.56315],[138.47797,35.20185],[138.3655,34.84268],[138.00982,34.31962],[137.7015,34.07687],[137.452,33.98286],[137.26176,33.7457],[137.00071,33.62407],[136.70916,33.56114],[136.29679,33.04295],[135.96448,32.82205],[135.56572,32.83695],[135.18997,32.97381],[134.90431,33.16987],[134.60969,32.99159],[134.28846,32.89789],[133.96319,32.97639],[133.41575,33.27343],[133.11991,33.60923],[132.77126,34.50608],[132.64201,34.66777],[132.51885,34.91709]],[[132.91371,34.58813],[133.27137,33.66811],[133.49325,33.41626],[134.04068,33.11922],[134.28464,33.06034],[134.52556,33.13062],[134.93766,33.36124],[135.24559,33.1265],[135.62134,32.98963],[135.9204,32.97846],[136.16964,33.14413],[136.61815,33.70773],[136.96642,33.78291],[137.16221,33.87413],[137.33522,34.11251],[137.64421,34.22893],[137.87545,34.411],[138.23113,34.93406],[138.31548,35.20343],[138.23639,35.47441],[138.02885,35.79277],[138.11347,36.2483],[138.09898,36.48431],[137.97515,36.68574],[137.77109,36.80521],[137.36034,36.92541],[137.03261,36.90614],[136.48531,36.67336],[136.06277,36.74102],[135.85048,36.64175],[135.70904,36.45488],[135.5743,36.1407],[135.43495,36.20866],[135.11698,36.24672],[134.08438,36.02064],[133.24492,36.03077],[133.02572,35.98166],[132.85181,35.83946],[132.76012,35.63438],[132.67081,35.16471],[132.67657,34.95623],[132.76893,34.76924],[132.91371,34.58813]]]}},{"type":"Feature","id":"wide-5-0","properties":{"id":"wide-5-0","group":"wide-5","placeIds":["kamakura","shibuya"],"alpha":0.62},"geometry":{"type":"MultiPolygon","coordinates":[[[[142.15218,26.56386],[142.13253,26.60728],[142.15089,26.73016],[142.2037,26.56331],[142.15218,26.56386]]],[[[142.21554,27.04192],[142.20095,27.01557],[142.19177,27.17094],[142.22366,27.12043],[142.21554,27.04192]]],[[[142.15063,27.66699],[142.14627,27.67202],[142.14808,27.67184],[142.15063,27.66699]]],[[[141.30794,24.74191],[141.30465,24.77836],[141.32205,24.79611],[141.3339,24.77481],[141.30794,24.74191]]],[[[137.39347,35.76696],[137.86738,36.90455],[138.18127,36.8694],[138.50085,37.02591],[138.71356,36.91679],[138.96985,36.9642],[139.2091,37.40075],[139.45183,37.52121],[139.68675,37.83557],[140.11731,37.83238],[140.31758,37.96914],[140.95205,37.85194],[141.03729,37.62179],[140.98633,37.03397],[140.77198,36.79225],[140.59098,36.2736],[140.8699,35.71625],[140.48221,35.54611],[140.37216,35.19725],[139.88303,34.91286],[139.54711,34.86569],[139.32295,34.55212],[139.30113,34.37696],[139.5538,34.09306],[139.61157,33.86277],[139.35166,34.17425],[139.13362,34.19742],[139.05692,34.49055],[138.64682,34.76111],[138.32788,34.7337],[138.21896,34.60704],[137.49413,34.68271],[137.5804,35.42851],[137.39347,35.76696]]],[[[139.80844,33.06444],[139.69366,33.12088],[139.69185,33.12613],[139.80216,33.13454],[139.80844,33.06444]]]]}},{"type":"Feature","id":"wide-5-1","properties":{"id":"wide-5-1","group":"wide-5","placeIds":["kamakura","shibuya"],"alpha":0.43},"geometry":{"type":"MultiPolygon","coordinates":[[[[142.03873,27.00599],[142.04678,27.24431],[142.18407,27.33325],[142.26682,27.31507],[142.36106,27.20719],[142.3853,27.1037],[142.34311,26.93686],[142.23706,26.86234],[142.35862,26.61234],[142.36398,26.53654],[142.27603,26.4178],[142.06336,26.42778],[141.98448,26.5403],[141.99018,26.75417],[142.02512,26.83305],[142.11181,26.88422],[142.03873,27.00599]],[[142.2037,26.56331],[142.15089,26.73016],[142.13253,26.60728],[142.15218,26.56386],[142.2037,26.56331]],[[142.22366,27.12043],[142.19177,27.17094],[142.20095,27.01557],[142.21554,27.04192],[142.22366,27.12043]]],[[[142.29434,27.59113],[142.16918,27.50556],[142.02787,27.56052],[141.98831,27.63388],[141.98845,27.71074],[142.08672,27.82322],[142.23904,27.8065],[142.29439,27.74275],[142.29434,27.59113]],[[142.14808,27.67184],[142.14627,27.67202],[142.15063,27.66699],[142.14808,27.67184]]],[[[141.29972,24.57962],[141.17084,24.65468],[141.15161,24.83297],[141.206,24.90986],[141.34375,24.95715],[141.46406,24.87509],[141.49587,24.76179],[141.43552,24.64126],[141.29972,24.57962]],[[141.3339,24.77481],[141.32205,24.79611],[141.30465,24.77836],[141.30794,24.74191],[141.3339,24.77481]]],[[[137.24347,35.82945],[137.71738,36.96704],[137.78492,37.04457],[138.15231,37.03616],[138.50236,37.1884],[138.73846,37.08665],[138.86442,37.10995],[139.0666,37.47885],[139.34486,37.64954],[139.61449,37.98112],[140.06766,37.99525],[140.22594,38.10333],[140.34709,38.12893],[140.98156,38.01174],[141.10443,37.90839],[141.19919,37.60775],[141.14822,37.01993],[140.91484,36.70842],[140.76704,36.2849],[141.03193,35.70385],[140.9352,35.56745],[140.61501,35.42693],[140.52714,35.14837],[140.45384,35.05677],[139.9647,34.77238],[139.63876,34.71447],[139.47911,34.49114],[139.47149,34.42997],[139.71142,34.13259],[139.76918,33.90231],[139.72111,33.74275],[139.55783,33.70941],[139.26905,34.01961],[139.02766,34.07422],[138.91547,34.38919],[138.60447,34.59438],[138.40786,34.57748],[138.27898,34.45603],[138.20209,34.44542],[137.39822,34.55154],[137.33271,34.70139],[137.413,35.3955],[137.25123,35.68839],[137.24347,35.82945]],[[137.5804,35.42851],[137.49413,34.68271],[138.21896,34.60704],[138.32788,34.7337],[138.64682,34.76111],[139.05692,34.49055],[139.13362,34.19742],[139.35166,34.17425],[139.61157,33.86277],[139.5538,34.09306],[139.30113,34.37696],[139.32295,34.55212],[139.54711,34.86569],[139.88303,34.91286],[140.37216,35.19725],[140.48221,35.54611],[140.8699,35.71625],[140.59098,36.2736],[140.77198,36.79225],[140.98633,37.03397],[141.03729,37.62179],[140.95205,37.85194],[140.31758,37.96914],[140.11731,37.83238],[139.68675,37.83557],[139.45183,37.52121],[139.2091,37.40075],[138.96985,36.9642],[138.71356,36.91679],[138.50085,37.02591],[138.18127,36.8694],[137.86738,36.90455],[137.39347,35.76696],[137.5804,35.42851]]],[[[139.90041,32.93047],[139.73674,32.91861],[139.54004,33.06788],[139.53553,33.17053],[139.58903,33.25196],[139.67949,33.28816],[139.87182,33.28135],[139.93548,33.22744],[139.97029,33.07895],[139.90041,32.93047]],[[139.80216,33.13454],[139.69185,33.12613],[139.69366,33.12088],[139.80844,33.06444],[139.80216,33.13454]]]]}},{"type":"Feature","id":"wide-5-2","properties":{"id":"wide-5-2","group":"wide-5","placeIds":["kamakura","shibuya"],"alpha":0.25},"geometry":{"type":"MultiPolygon","coordinates":[[[[141.86733,27.15177],[141.90178,27.31768],[141.97813,27.40262],[141.83035,27.59573],[141.83063,27.74945],[141.90152,27.88585],[142.02717,27.97441],[142.18128,27.99514],[142.32999,27.94116],[142.43815,27.81851],[142.47563,27.66688],[142.43805,27.51527],[142.36722,27.43587],[142.49846,27.29395],[142.54693,27.08697],[142.45909,26.83078],[142.52426,26.50977],[142.46487,26.36988],[142.34837,26.27228],[142.14871,26.23888],[141.97453,26.2917],[141.85607,26.42989],[141.8111,26.65532],[141.89761,26.93203],[141.86733,27.15177]],[[142.02512,26.83305],[141.99018,26.75417],[141.98448,26.5403],[142.06336,26.42778],[142.27603,26.4178],[142.36398,26.53654],[142.35862,26.61234],[142.23706,26.86234],[142.34311,26.93686],[142.3853,27.1037],[142.36106,27.20719],[142.26682,27.31507],[142.18407,27.33325],[142.04678,27.24431],[142.03873,27.00599],[142.11181,26.88422],[142.02512,26.83305]],[[142.23904,27.8065],[142.08672,27.82322],[141.98845,27.71074],[141.98831,27.63388],[142.02787,27.56052],[142.16918,27.50556],[142.29434,27.59113],[142.29439,27.74275],[142.23904,27.8065]]],[[[141.44228,24.44597],[141.29149,24.41733],[141.14438,24.46107],[141.03374,24.56744],[140.98097,24.74918],[140.99856,24.88758],[141.08995,25.0236],[141.2165,25.10349],[141.36544,25.1182],[141.50518,25.0646],[141.61792,24.93277],[141.65785,24.74878],[141.5631,24.54062],[141.44228,24.44597]],[[141.49587,24.76179],[141.46406,24.87509],[141.34375,24.95715],[141.206,24.90986],[141.15161,24.83297],[141.17084,24.65468],[141.29972,24.57962],[141.43552,24.64126],[141.49587,24.76179]]],[[[137.06896,35.74911],[137.09347,35.89194],[137.56737,37.02953],[137.70245,37.18459],[137.90356,37.22753],[138.12336,37.20292],[138.50388,37.35089],[138.7603,37.25808],[138.9241,37.55695],[139.06462,37.69187],[139.2379,37.77786],[139.54223,38.12667],[139.68916,38.16056],[140.01802,38.15812],[140.1343,38.23753],[140.37661,38.28873],[141.01108,38.17154],[141.16126,38.10065],[141.25681,37.96483],[141.36108,37.59372],[141.31011,37.00589],[141.22949,36.81834],[141.0577,36.6246],[140.94309,36.29621],[141.16054,35.8617],[141.19395,35.69144],[141.13501,35.52825],[141.0005,35.41865],[140.7478,35.30775],[140.68211,35.09948],[140.53552,34.91629],[140.04638,34.6319],[139.73041,34.56324],[139.65914,34.46355],[139.86904,34.17213],[139.9268,33.94185],[139.92275,33.76902],[139.83066,33.62272],[139.67657,33.54434],[139.5041,33.55605],[139.36203,33.65455],[139.18644,33.86498],[138.92169,33.95102],[138.77402,34.28783],[138.56212,34.42764],[138.48784,34.42125],[138.33899,34.30502],[138.18522,34.2838],[137.46038,34.35947],[137.30231,34.42036],[137.19635,34.55253],[137.17128,34.72006],[137.24559,35.36248],[137.10898,35.60983],[137.06896,35.74911]],[[137.413,35.3955],[137.33271,34.70139],[137.39822,34.55154],[138.20209,34.44542],[138.27898,34.45603],[138.40786,34.57748],[138.60447,34.59438],[138.91547,34.38919],[139.02766,34.07422],[139.26905,34.01961],[139.55783,33.70941],[139.72111,33.74275],[139.76918,33.90231],[139.71142,34.13259],[139.47149,34.42997],[139.47911,34.49114],[139.63876,34.71447],[139.9647,34.77238],[140.45384,35.05677],[140.52714,35.14837],[140.61501,35.42693],[140.9352,35.56745],[141.03193,35.70385],[140.76704,36.2849],[140.91484,36.70842],[141.14822,37.01993],[141.19919,37.60775],[141.10443,37.90839],[140.98156,38.01174],[140.34709,38.12893],[140.22594,38.10333],[140.06766,37.99525],[139.61449,37.98112],[139.34486,37.64954],[139.0666,37.47885],[138.86442,37.10995],[138.73846,37.08665],[138.50236,37.1884],[138.15231,37.03616],[137.78492,37.04457],[137.71738,36.96704],[137.24347,35.82945],[137.25123,35.68839],[137.413,35.3955]]],[[[140.1025,32.92604],[139.99238,32.7965],[139.83192,32.74029],[139.55025,32.82923],[139.38643,33.01488],[139.37921,33.21493],[139.48621,33.3778],[139.77744,33.4586],[139.94148,33.42816],[140.06881,33.32034],[140.13214,33.09346],[140.1025,32.92604]],[[139.93548,33.22744],[139.87182,33.28135],[139.67949,33.28816],[139.58903,33.25196],[139.53553,33.17053],[139.54004,33.06788],[139.73674,32.91861],[139.90041,32.93047],[139.97029,33.07895],[139.93548,33.22744]]]]}},{"type":"Feature","id":"wide-5-3","properties":{"id":"wide-5-3","group":"wide-5","placeIds":["kamakura","shibuya"],"alpha":0.11},"geometry":{"type":"MultiPolygon","coordinates":[[[[141.70512,27.14218],[141.75768,27.39204],[141.67239,27.55759],[141.67281,27.78817],[141.77915,27.99277],[141.96762,28.12561],[142.19607,28.15697],[142.42095,28.07582],[142.58191,27.89427],[142.63813,27.66682],[142.58422,27.44939],[142.70857,27.07024],[142.63965,26.80148],[142.68454,26.48301],[142.59545,26.27317],[142.4207,26.12677],[142.1985,26.07584],[141.88571,26.15563],[141.68837,26.40634],[141.65038,26.67933],[141.7297,26.93981],[141.70512,27.14218]],[[141.8111,26.65532],[141.85607,26.42989],[141.97453,26.2917],[142.14871,26.23888],[142.34837,26.27228],[142.46487,26.36988],[142.52426,26.50977],[142.45909,26.83078],[142.54693,27.08697],[142.49846,27.29395],[142.36722,27.43587],[142.43805,27.51527],[142.47563,27.66688],[142.43815,27.81851],[142.32999,27.94116],[142.18128,27.99514],[142.02717,27.97441],[141.90152,27.88585],[141.83063,27.74945],[141.83035,27.59573],[141.97813,27.40262],[141.90178,27.31768],[141.86733,27.15177],[141.89761,26.93203],[141.8111,26.65532]]],[[[141.50945,24.298],[141.28327,24.25503],[141.0626,24.32065],[140.89664,24.48021],[140.82241,24.69814],[140.84551,24.94219],[140.9565,25.1196],[141.16373,25.25718],[141.38714,25.27924],[141.59674,25.19885],[141.75994,25.01176],[141.81983,24.73576],[141.69068,24.43997],[141.50945,24.298]],[[141.65785,24.74878],[141.61792,24.93277],[141.50518,25.0646],[141.36544,25.1182],[141.2165,25.10349],[141.08995,25.0236],[140.99856,24.88758],[140.98097,24.74918],[141.03374,24.56744],[141.14438,24.46107],[141.29149,24.41733],[141.44228,24.44597],[141.5631,24.54062],[141.65785,24.74878]]],[[[136.90671,35.74019],[136.94346,35.95443],[137.41737,37.09202],[137.61998,37.32461],[137.92165,37.38902],[138.0944,37.36967],[138.50539,37.51339],[138.68998,37.46789],[138.7816,37.63505],[138.99238,37.83743],[139.13093,37.90619],[139.29624,38.12739],[139.46997,38.27222],[139.69036,38.32306],[139.96837,38.32099],[140.40613,38.44853],[141.04059,38.33133],[141.26586,38.22501],[141.40919,38.02127],[141.52297,37.57968],[141.472,36.99185],[141.35107,36.71052],[141.20056,36.54078],[141.11915,36.30751],[141.30586,35.93442],[141.35598,35.67903],[141.26756,35.43425],[141.0658,35.26984],[140.8806,35.18857],[140.83708,35.0506],[140.61719,34.7758],[140.12806,34.49142],[139.91138,34.42456],[140.02665,34.21167],[140.08442,33.98138],[140.07834,33.72214],[139.98836,33.5792],[140.20213,33.41325],[140.28771,33.17807],[140.24953,32.85684],[140.08435,32.66253],[139.84366,32.57821],[139.47855,32.6834],[139.231,32.96713],[139.2229,33.25933],[139.35879,33.46619],[139.10384,33.71034],[138.81572,33.82783],[138.63257,34.18647],[138.53491,34.25091],[138.39901,34.15401],[138.16834,34.12218],[137.44351,34.19785],[137.2064,34.28919],[137.04745,34.48743],[137.00986,34.73873],[137.07819,35.32947],[136.96674,35.53127],[136.90671,35.74019]],[[137.24559,35.36248],[137.17128,34.72006],[137.19635,34.55253],[137.30231,34.42036],[137.46038,34.35947],[138.18522,34.2838],[138.33899,34.30502],[138.48784,34.42125],[138.56212,34.42764],[138.77402,34.28783],[138.92169,33.95102],[139.18644,33.86498],[139.36203,33.65455],[139.5041,33.55605],[139.67657,33.54434],[139.83066,33.62272],[139.92275,33.76902],[139.9268,33.94185],[139.86904,34.17213],[139.65914,34.46355],[139.73041,34.56324],[140.04638,34.6319],[140.53552,34.91629],[140.68211,35.09948],[140.7478,35.30775],[141.0005,35.41865],[141.13501,35.52825],[141.19395,35.69144],[141.16054,35.8617],[140.94309,36.29621],[141.0577,36.6246],[141.22949,36.81834],[141.31011,37.00589],[141.36108,37.59372],[141.25681,37.96483],[141.16126,38.10065],[141.01108,38.17154],[140.37661,38.28873],[140.1343,38.23753],[140.01802,38.15812],[139.68916,38.16056],[139.54223,38.12667],[139.2379,37.77786],[139.06462,37.69187],[138.9241,37.55695],[138.7603,37.25808],[138.50388,37.35089],[138.12336,37.20292],[137.90356,37.22753],[137.70245,37.18459],[137.56737,37.02953],[137.09347,35.89194],[137.06896,35.74911],[137.10898,35.60983],[137.24559,35.36248]],[[140.06881,33.32034],[139.94148,33.42816],[139.77744,33.4586],[139.48621,33.3778],[139.37921,33.21493],[139.38643,33.01488],[139.55025,32.82923],[139.83192,32.74029],[139.99238,32.7965],[140.1025,32.92604],[140.13214,33.09346],[140.06881,33.32034]]]]}},{"type":"Feature","id":"wide-5-4","properties":{"id":"wide-5-4","group":"wide-5","placeIds":["kamakura","shibuya"],"alpha":0.035},"geometry":{"type":"MultiPolygon","coordinates":[[[[141.5429,27.1326],[141.59197,27.36893],[141.51443,27.51944],[141.51499,27.82689],[141.65678,28.09968],[141.90808,28.2768],[142.21266,28.31862],[142.5119,28.21048],[142.72567,27.97003],[142.80063,27.66677],[142.75744,27.49254],[142.87021,27.05351],[142.80883,26.80549],[142.84482,26.45624],[142.72604,26.17645],[142.49304,25.98126],[142.19677,25.91334],[141.79689,26.01955],[141.54032,26.33935],[141.48967,26.70335],[141.56179,26.94759],[141.5429,27.1326]],[[141.65038,26.67933],[141.68837,26.40634],[141.88571,26.15563],[142.1985,26.07584],[142.4207,26.12677],[142.59545,26.27317],[142.68454,26.48301],[142.63965,26.80148],[142.70857,27.07024],[142.58422,27.44939],[142.63813,27.66682],[142.58191,27.89427],[142.42095,28.07582],[142.19607,28.15697],[141.96762,28.12561],[141.77915,27.99277],[141.67281,27.78817],[141.67239,27.55759],[141.75768,27.39204],[141.70512,27.14218],[141.7297,26.93981],[141.65038,26.67933]]],[[[141.57661,24.15003],[141.27505,24.09274],[140.98081,24.18023],[140.75954,24.39298],[140.66057,24.68354],[140.69246,24.9968],[140.84045,25.23335],[141.11096,25.41088],[141.40883,25.44029],[141.6883,25.3331],[141.90195,25.09074],[141.98181,24.72275],[141.81826,24.33933],[141.57661,24.15003]],[[141.81983,24.73576],[141.75994,25.01176],[141.59674,25.19885],[141.38714,25.27924],[141.16373,25.25718],[140.9565,25.1196],[140.84551,24.94219],[140.82241,24.69814],[140.89664,24.48021],[141.0626,24.32065],[141.28327,24.25503],[141.50945,24.298],[141.69068,24.43997],[141.81983,24.73576]]],[[[136.74445,35.73126],[136.79346,36.01692],[137.26736,37.15451],[137.53752,37.46463],[137.93974,37.55051],[138.06544,37.53643],[138.5069,37.67588],[138.60537,37.65161],[139.39771,38.41777],[139.69157,38.48555],[139.91873,38.48387],[140.43564,38.60832],[141.07011,38.49113],[141.37047,38.34936],[141.56158,38.07771],[141.64683,37.84756],[141.68487,37.56564],[141.6339,36.97782],[141.47265,36.60271],[141.34341,36.45696],[141.2952,36.31881],[141.45118,36.00715],[141.51801,35.66663],[141.40012,35.34025],[141.0134,35.06939],[140.69887,34.63532],[140.14362,34.32806],[140.24203,34.02092],[140.23394,33.67527],[140.19979,33.62103],[140.33546,33.50615],[140.45584,33.12248],[140.39656,32.78765],[140.17632,32.52856],[139.8554,32.41614],[139.40685,32.53758],[139.07739,32.91414],[139.06658,33.30373],[139.14531,33.42358],[139.00262,33.57801],[138.70976,33.70463],[138.50419,34.0352],[138.15147,33.96055],[137.42664,34.03623],[137.11048,34.15801],[136.89856,34.42234],[136.84844,34.7574],[136.91079,35.29645],[136.82449,35.4527],[136.74445,35.73126]],[[137.07819,35.32947],[137.00986,34.73873],[137.04745,34.48743],[137.2064,34.28919],[137.44351,34.19785],[138.16834,34.12218],[138.39901,34.15401],[138.53491,34.25091],[138.63257,34.18647],[138.81572,33.82783],[139.10384,33.71034],[139.35879,33.46619],[139.2229,33.25933],[139.231,32.96713],[139.47855,32.6834],[139.84366,32.57821],[140.08435,32.66253],[140.24953,32.85684],[140.28771,33.17807],[140.20213,33.41325],[139.98836,33.5792],[140.07834,33.72214],[140.08442,33.98138],[140.02665,34.21167],[139.91138,34.42456],[140.12806,34.49142],[140.61719,34.7758],[140.83708,35.0506],[140.8806,35.18857],[141.0658,35.26984],[141.26756,35.43425],[141.35598,35.67903],[141.30586,35.93442],[141.11915,36.30751],[141.20056,36.54078],[141.35107,36.71052],[141.472,36.99185],[141.52297,37.57968],[141.40919,38.02127],[141.26586,38.22501],[141.04059,38.33133],[140.40613,38.44853],[139.96837,38.32099],[139.69036,38.32306],[139.46997,38.27222],[139.29624,38.12739],[139.13093,37.90619],[138.99238,37.83743],[138.7816,37.63505],[138.68998,37.46789],[138.50539,37.51339],[138.0944,37.36967],[137.92165,37.38902],[137.61998,37.32461],[137.41737,37.09202],[136.94346,35.95443],[136.90671,35.74019],[136.96674,35.53127],[137.07819,35.32947]]]]}},{"type":"Feature","id":"wide-6-0","properties":{"id":"wide-6-0","group":"wide-6","placeIds":["paris"],"alpha":0.62},"geometry":{"type":"Polygon","coordinates":[[[-1.82723,48.87491],[-1.70339,49.24879],[-1.93495,49.70548],[-1.26984,49.68902],[-0.95123,49.39351],[-0.19038,49.29019],[-0.01963,49.36414],[0.19372,49.70768],[1.37452,50.06364],[1.54115,50.28869],[1.59385,50.86306],[1.87269,50.98425],[2.53939,51.07577],[2.83087,50.76587],[3.14851,50.78258],[3.36209,50.55582],[4.21032,50.24851],[4.24032,49.76036],[4.02862,49.3706],[3.7521,49.17611],[3.40529,48.39827],[3.12779,48.14394],[2.9371,47.46115],[3.02607,46.80188],[2.27738,46.42911],[1.18728,46.38784],[0.74227,46.87101],[0.32914,46.94018],[0.06306,47.16607],[0.2392,47.60086],[0.58688,47.70535],[0.70757,47.85845],[0.6504,48.1873],[0.50651,48.28359],[-0.21414,48.48946],[-1.43545,48.47446],[-1.82723,48.87491]]]}},{"type":"Feature","id":"wide-6-1","properties":{"id":"wide-6-1","group":"wide-6","placeIds":["paris"],"alpha":0.43},"geometry":{"type":"Polygon","coordinates":[[[-1.98149,48.926],[-1.87892,49.23565],[-2.07989,49.63199],[-2.09728,49.71311],[-2.01164,49.84875],[-1.26582,49.85147],[-1.15933,49.80817],[-0.87842,49.54761],[-0.21339,49.45731],[-0.13086,49.49305],[0.05567,49.79341],[0.14681,49.86327],[1.276,50.20366],[1.38348,50.34883],[1.46218,50.95829],[1.85059,51.14524],[2.59355,51.22898],[2.8976,50.9321],[3.20899,50.9334],[3.45384,50.69542],[4.26567,50.40129],[4.37251,50.25848],[4.38311,49.6828],[4.17142,49.29304],[3.88226,49.06898],[3.55371,48.3321],[3.27181,48.05551],[3.10262,47.44969],[3.16965,46.72578],[3.09849,46.65641],[2.28353,46.26673],[1.12485,46.23781],[0.66048,46.71994],[0.3023,46.77991],[-0.04211,47.04219],[-0.09475,47.12729],[-0.08755,47.22709],[0.08859,47.66187],[0.19243,47.75648],[0.49101,47.84622],[0.53504,47.90209],[0.50221,48.09093],[0.43733,48.13435],[-0.23592,48.32668],[-1.49754,48.32429],[-1.94339,48.76127],[-1.98149,48.926]],[[-1.43545,48.47446],[-0.21414,48.48946],[0.50651,48.28359],[0.6504,48.1873],[0.70757,47.85845],[0.58688,47.70535],[0.2392,47.60086],[0.06306,47.16607],[0.32914,46.94018],[0.74227,46.87101],[1.18728,46.38784],[2.27738,46.42911],[3.02607,46.80188],[2.9371,47.46115],[3.12779,48.14394],[3.40529,48.39827],[3.7521,49.17611],[4.02862,49.3706],[4.24032,49.76036],[4.21032,50.24851],[3.36209,50.55582],[3.14851,50.78258],[2.83087,50.76587],[2.53939,51.07577],[1.87269,50.98425],[1.59385,50.86306],[1.54115,50.28869],[1.37452,50.06364],[0.19372,49.70768],[-0.01963,49.36414],[-0.19038,49.29019],[-0.95123,49.39351],[-1.26984,49.68902],[-1.93495,49.70548],[-1.70339,49.24879],[-1.82723,48.87491],[-1.43545,48.47446]]]}},{"type":"Feature","id":"wide-6-2","properties":{"id":"wide-6-2","group":"wide-6","placeIds":["paris"],"alpha":0.25},"geometry":{"type":"Polygon","coordinates":[[[-2.14387,48.80167],[-2.13575,48.9771],[-2.05446,49.22251],[-2.22482,49.5585],[-2.2596,49.72073],[-2.20977,49.87898],[-2.08833,49.99202],[-1.92692,50.03038],[-1.2618,50.01393],[-1.04883,49.92731],[-0.80561,49.70172],[-0.24024,49.62494],[-0.08238,49.87914],[0.09991,50.01885],[1.17748,50.34369],[1.22582,50.40897],[1.27021,50.89275],[1.3305,51.05352],[1.4643,51.16112],[1.82849,51.30623],[2.49519,51.39775],[2.64771,51.38219],[2.96433,51.09834],[3.26947,51.08423],[3.54558,50.83502],[4.32102,50.55407],[4.47055,50.4432],[4.5347,50.26845],[4.5647,49.78029],[4.52591,49.60524],[4.31422,49.21548],[4.01242,48.96186],[3.70212,48.26592],[3.41583,47.96708],[3.26813,47.43824],[3.34815,46.84534],[3.31323,46.64968],[3.17092,46.51094],[2.28968,46.10435],[1.06243,46.08778],[0.5787,46.56887],[0.27547,46.61964],[0.1188,46.69242],[-0.14728,46.91831],[-0.25255,47.0885],[-0.23816,47.2881],[-0.06202,47.72289],[0.02031,47.8411],[0.35502,47.98887],[-0.2577,48.1639],[-1.55962,48.17412],[-2.05954,48.64763],[-2.14387,48.80167]],[[-1.49754,48.32429],[-0.23592,48.32668],[0.43733,48.13435],[0.50221,48.09093],[0.53504,47.90209],[0.49101,47.84622],[0.19243,47.75648],[0.08859,47.66187],[-0.08755,47.22709],[-0.09475,47.12729],[-0.04211,47.04219],[0.3023,46.77991],[0.66048,46.71994],[1.12485,46.23781],[2.28353,46.26673],[3.09849,46.65641],[3.16965,46.72578],[3.10262,47.44969],[3.27181,48.05551],[3.55371,48.3321],[3.88226,49.06898],[4.17142,49.29304],[4.38311,49.6828],[4.37251,50.25848],[4.26567,50.40129],[3.45384,50.69542],[3.20899,50.9334],[2.8976,50.9321],[2.59355,51.22898],[1.85059,51.14524],[1.46218,50.95829],[1.38348,50.34883],[1.276,50.20366],[0.14681,49.86327],[0.05567,49.79341],[-0.13086,49.49305],[-0.21339,49.45731],[-0.87842,49.54761],[-1.15933,49.80817],[-1.26582,49.85147],[-2.01164,49.84875],[-2.09728,49.71311],[-2.07989,49.63199],[-1.87892,49.23565],[-1.98149,48.926],[-1.94339,48.76127],[-1.49754,48.32429]]]}},{"type":"Feature","id":"wide-6-3","properties":{"id":"wide-6-3","group":"wide-6","placeIds":["paris"],"alpha":0.11},"geometry":{"type":"Polygon","coordinates":[[[-2.30219,48.76505],[-2.29,49.0282],[-2.22999,49.20938],[-2.36975,49.48502],[-2.42192,49.72835],[-2.34718,49.96573],[-2.16501,50.13528],[-1.9229,50.19283],[-1.25778,50.17638],[-0.93832,50.04645],[-0.7328,49.85582],[-0.32272,49.80014],[-0.22043,49.96487],[0.05301,50.17444],[1.06922,50.48078],[1.10839,50.9076],[1.19883,51.14875],[1.39953,51.31016],[1.80639,51.46722],[2.47309,51.55874],[2.70187,51.5354],[3.03106,51.26457],[3.32995,51.23506],[3.63733,50.97461],[4.37638,50.70686],[4.60067,50.54054],[4.6969,50.27841],[4.7269,49.79026],[4.66871,49.52769],[4.45702,49.13792],[4.14258,48.85474],[3.85054,48.19975],[3.55985,47.87865],[3.43365,47.42678],[3.50919,46.86707],[3.45681,46.57359],[3.24334,46.36547],[2.49466,45.99271],[2.29583,45.94196],[1.20573,45.90069],[1.0,45.93775],[0.8287,46.05757],[0.49692,46.4178],[0.24863,46.45937],[0.01363,46.56854],[-0.25245,46.79443],[-0.41036,47.04972],[-0.38877,47.34912],[-0.21263,47.7839],[-0.09753,47.94915],[-0.27947,48.00112],[-1.42946,47.987],[-1.62171,48.02394],[-1.78392,48.13354],[-2.1757,48.53398],[-2.30219,48.76505]],[[-1.55962,48.17412],[-0.2577,48.1639],[0.35502,47.98887],[0.02031,47.8411],[-0.06202,47.72289],[-0.23816,47.2881],[-0.25255,47.0885],[-0.14728,46.91831],[0.1188,46.69242],[0.27547,46.61964],[0.5787,46.56887],[1.06243,46.08778],[2.28968,46.10435],[3.17092,46.51094],[3.31323,46.64968],[3.34815,46.84534],[3.26813,47.43824],[3.41583,47.96708],[3.70212,48.26592],[4.01242,48.96186],[4.31422,49.21548],[4.52591,49.60524],[4.5647,49.78029],[4.5347,50.26845],[4.47055,50.4432],[4.32102,50.55407],[3.54558,50.83502],[3.26947,51.08423],[2.96433,51.09834],[2.64771,51.38219],[2.49519,51.39775],[1.82849,51.30623],[1.4643,51.16112],[1.3305,51.05352],[1.27021,50.89275],[1.22582,50.40897],[1.17748,50.34369],[0.09991,50.01885],[-0.08238,49.87914],[-0.24024,49.62494],[-0.80561,49.70172],[-1.04883,49.92731],[-1.2618,50.01393],[-1.92692,50.03038],[-2.08833,49.99202],[-2.20977,49.87898],[-2.2596,49.72073],[-2.22482,49.5585],[-2.05446,49.22251],[-2.13575,48.9771],[-2.14387,48.80167],[-2.05954,48.64763],[-1.55962,48.17412]]]}},{"type":"Feature","id":"wide-6-4","properties":{"id":"wide-6-4","group":"wide-6","placeIds":["paris"],"alpha":0.035},"geometry":{"type":"Polygon","coordinates":[[[-2.46051,48.72843],[-2.40552,49.19624],[-2.51469,49.41153],[-2.58424,49.73597],[-2.48459,50.05248],[-2.2417,50.27855],[-1.91888,50.35528],[-1.25376,50.33883],[-0.82782,50.16559],[-0.65999,50.00992],[-0.40521,49.97533],[0.00611,50.33002],[0.91741,50.60474],[0.94657,50.92245],[1.06716,51.24398],[1.33476,51.45919],[1.78429,51.62821],[2.45099,51.71973],[2.75603,51.6886],[3.09779,51.43081],[3.39043,51.38588],[3.72908,51.11421],[4.43173,50.85964],[4.73079,50.63788],[4.85909,50.28838],[4.88909,49.80023],[4.81151,49.45013],[4.59981,49.06037],[4.27274,48.74762],[3.99895,48.13357],[3.70388,47.79023],[3.59917,47.41532],[3.67023,46.8888],[3.60039,46.49749],[3.31577,46.22001],[2.56709,45.84725],[2.30198,45.77958],[1.21187,45.73831],[0.93757,45.78772],[0.70918,45.94748],[0.41514,46.26673],[0.2218,46.2991],[-0.09153,46.44466],[-0.35762,46.67056],[-0.56816,47.01093],[-0.53938,47.41013],[-0.36623,47.83755],[-1.42747,47.82451],[-1.68379,47.87377],[-1.90007,48.0199],[-2.29185,48.42034],[-2.46051,48.72843]],[[-1.78392,48.13354],[-1.62171,48.02394],[-1.42946,47.987],[-0.27947,48.00112],[-0.09753,47.94915],[-0.21263,47.7839],[-0.38877,47.34912],[-0.41036,47.04972],[-0.25245,46.79443],[0.01363,46.56854],[0.24863,46.45937],[0.49692,46.4178],[0.8287,46.05757],[1.0,45.93775],[1.20573,45.90069],[2.29583,45.94196],[2.49466,45.99271],[3.24334,46.36547],[3.45681,46.57359],[3.50919,46.86707],[3.43365,47.42678],[3.55985,47.87865],[3.85054,48.19975],[4.14258,48.85474],[4.45702,49.13792],[4.66871,49.52769],[4.7269,49.79026],[4.6969,50.27841],[4.60067,50.54054],[4.37638,50.70686],[3.63733,50.97461],[3.32995,51.23506],[3.03106,51.26457],[2.70187,51.5354],[2.47309,51.55874],[1.80639,51.46722],[1.39953,51.31016],[1.19883,51.14875],[1.10839,50.9076],[1.06922,50.48078],[0.05301,50.17444],[-0.22043,49.96487],[-0.32272,49.80014],[-0.7328,49.85582],[-0.93832,50.04645],[-1.25778,50.17638],[-1.9229,50.19283],[-2.16501,50.13528],[-2.34718,49.96573],[-2.42192,49.72835],[-2.36975,49.48502],[-2.22999,49.20938],[-2.29,49.0282],[-2.30219,48.76505],[-2.1757,48.53398],[-1.78392,48.13354]]]}},{"type":"Feature","id":"wide-7-0","properties":{"id":"wide-7-0","group":"wide-7","placeIds":["san-francisco"],"alpha":0.62},"geometry":{"type":"MultiPolygon","coordinates":[[[[-124.20555,41.99104],[-120.0083,41.9859],[-119.96481,39.01825],[-114.66316,35.02482],[-114.14283,34.26607],[-114.4763,34.0239],[-114.53256,33.83165],[-114.65788,33.20645],[-114.47773,32.96835],[-114.53701,32.76921],[-117.11985,32.5417],[-117.38072,33.18646],[-117.95391,33.58574],[-118.23457,33.48234],[-118.438,33.1537],[-118.43048,32.80885],[-118.59855,33.01627],[-118.60999,33.4168],[-118.88924,33.53226],[-119.03959,33.47923],[-118.95855,33.75152],[-119.14881,33.99713],[-120.11881,33.90777],[-120.44085,34.03466],[-120.38843,34.34582],[-120.62889,34.56932],[-120.71904,35.09749],[-121.89699,36.30965],[-122.02238,36.90601],[-122.3975,37.1992],[-122.57567,37.66255],[-122.73195,37.75063],[-123.00409,37.70304],[-123.00967,38.23126],[-123.71406,38.924],[-123.82742,39.75426],[-124.3787,40.32259],[-124.09537,41.34188],[-124.20555,41.99104]]],[[[-119.4317,33.25524],[-119.47334,33.22895],[-119.54013,33.24961],[-119.49834,33.26742],[-119.4317,33.25524]]]]}},{"type":"Feature","id":"wide-7-1","properties":{"id":"wide-7-1","group":"wide-7","placeIds":["san-francisco"],"alpha":0.43},"geometry":{"type":"MultiPolygon","coordinates":[[[[-124.29444,42.12707],[-124.20535,42.15354],[-119.92762,42.12696],[-119.84582,41.98828],[-119.80349,39.10018],[-114.52914,35.11672],[-113.98093,34.28012],[-114.04734,34.13459],[-114.33592,33.92501],[-114.37462,33.79279],[-114.48418,33.2462],[-114.31784,32.99731],[-114.43424,32.64334],[-117.10559,32.37982],[-117.20468,32.4031],[-117.27049,32.48075],[-117.51324,33.08074],[-117.97725,33.40396],[-118.12586,33.34921],[-118.27449,33.10911],[-118.28594,32.73458],[-118.41375,32.64721],[-118.49276,32.65876],[-118.7248,32.91396],[-118.76942,33.30687],[-118.89385,33.35832],[-119.07357,33.32033],[-119.1516,33.3615],[-119.19534,33.52558],[-119.13809,33.71794],[-119.22268,33.82713],[-120.1039,33.74596],[-120.5607,33.92492],[-120.60109,34.06165],[-120.56322,34.28643],[-120.78907,34.54197],[-120.87074,35.02042],[-122.01353,36.19641],[-122.1692,36.81451],[-122.54918,37.14088],[-122.70637,37.54968],[-122.76115,37.58056],[-123.06807,37.55367],[-123.13927,37.61286],[-123.17145,38.16245],[-123.82801,38.80814],[-123.87507,38.90202],[-123.9812,39.67942],[-124.53617,40.28246],[-124.26165,41.35045],[-124.36576,41.96385],[-124.29444,42.12707]],[[-124.09537,41.34188],[-124.3787,40.32259],[-123.82742,39.75426],[-123.71406,38.924],[-123.00967,38.23126],[-123.00409,37.70304],[-122.73195,37.75063],[-122.57567,37.66255],[-122.3975,37.1992],[-122.02238,36.90601],[-121.89699,36.30965],[-120.71904,35.09749],[-120.62889,34.56932],[-120.38843,34.34582],[-120.44085,34.03466],[-120.11881,33.90777],[-119.14881,33.99713],[-118.95855,33.75152],[-119.03959,33.47923],[-118.88924,33.53226],[-118.60999,33.4168],[-118.59855,33.01627],[-118.43048,32.80885],[-118.438,33.1537],[-118.23457,33.48234],[-117.95391,33.58574],[-117.38072,33.18646],[-117.11985,32.5417],[-114.53701,32.76921],[-114.47773,32.96835],[-114.65788,33.20645],[-114.53256,33.83165],[-114.4763,34.0239],[-114.14283,34.26607],[-114.66316,35.02482],[-119.96481,39.01825],[-120.0083,41.9859],[-124.20555,41.99104],[-124.09537,41.34188]]],[[[-119.28406,33.32314],[-119.29133,33.17337],[-119.45201,33.06786],[-119.65529,33.13496],[-119.69963,33.28068],[-119.66647,33.35181],[-119.56205,33.41691],[-119.4025,33.4151],[-119.28406,33.32314]],[[-119.49834,33.26742],[-119.54013,33.24961],[-119.47334,33.22895],[-119.4317,33.25524],[-119.49834,33.26742]]]]}},{"type":"Feature","id":"wide-7-2","properties":{"id":"wide-7-2","group":"wide-7","placeIds":["san-francisco"],"alpha":0.25},"geometry":{"type":"Polygon","coordinates":[[[-124.50336,42.12116],[-124.38334,42.2631],[-124.20515,42.31604],[-120.0079,42.3109],[-119.84695,42.26802],[-119.72837,42.15103],[-119.68333,41.99067],[-119.64218,39.18211],[-114.46762,35.28441],[-113.8748,34.44988],[-113.81904,34.29416],[-113.84715,34.13116],[-114.19555,33.82613],[-114.21667,33.75393],[-114.31048,33.28594],[-114.15794,33.02627],[-114.16624,32.87563],[-114.22552,32.67649],[-114.33147,32.51746],[-114.50849,32.44547],[-117.09133,32.21795],[-117.28951,32.2645],[-117.42112,32.4198],[-117.64576,32.97501],[-118.0006,33.22218],[-118.11098,33.06452],[-118.14141,32.6603],[-118.24707,32.54055],[-118.39701,32.48557],[-118.55504,32.50867],[-118.85106,32.81166],[-118.92341,33.00698],[-118.92818,33.1739],[-119.12716,33.17176],[-119.25819,32.98044],[-119.43068,32.90677],[-119.63614,32.93911],[-119.77046,33.02032],[-119.85106,33.155],[-119.85913,33.31175],[-119.79281,33.45401],[-119.62576,33.5664],[-119.35119,33.56507],[-119.32655,33.65438],[-120.08899,33.58414],[-120.23794,33.60539],[-120.68055,33.81519],[-120.75253,33.94259],[-120.73802,34.22704],[-120.85015,34.33126],[-120.94926,34.51463],[-121.02243,34.94335],[-122.13007,36.08316],[-122.21504,36.24278],[-122.31601,36.72301],[-122.59764,36.94313],[-122.70085,37.08255],[-122.82464,37.40449],[-123.13205,37.40429],[-123.27444,37.52267],[-123.32907,37.69961],[-123.33323,38.09364],[-123.94195,38.69228],[-124.03608,38.88004],[-124.13499,39.60457],[-124.61198,40.0963],[-124.69364,40.24233],[-124.69183,40.40963],[-124.42793,41.35902],[-124.52597,41.93666],[-124.50336,42.12116]],[[-124.26165,41.35045],[-124.53617,40.28246],[-123.9812,39.67942],[-123.87507,38.90202],[-123.82801,38.80814],[-123.17145,38.16245],[-123.13927,37.61286],[-123.06807,37.55367],[-122.76115,37.58056],[-122.70637,37.54968],[-122.54918,37.14088],[-122.1692,36.81451],[-122.01353,36.19641],[-120.87074,35.02042],[-120.78907,34.54197],[-120.56322,34.28643],[-120.60109,34.06165],[-120.5607,33.92492],[-120.1039,33.74596],[-119.22268,33.82713],[-119.13809,33.71794],[-119.19534,33.52558],[-119.1516,33.3615],[-119.07357,33.32033],[-118.89385,33.35832],[-118.76942,33.30687],[-118.7248,32.91396],[-118.49276,32.65876],[-118.41375,32.64721],[-118.28594,32.73458],[-118.27449,33.10911],[-118.12586,33.34921],[-117.97725,33.40396],[-117.51324,33.08074],[-117.27049,32.48075],[-117.20468,32.4031],[-117.10559,32.37982],[-114.43424,32.64334],[-114.31784,32.99731],[-114.48418,33.2462],[-114.37462,33.79279],[-114.33592,33.92501],[-114.04734,34.13459],[-113.98093,34.28012],[-114.52914,35.11672],[-119.80349,39.10018],[-119.84582,41.98828],[-119.92762,42.12696],[-124.20535,42.15354],[-124.29444,42.12707],[-124.36576,41.96385],[-124.26165,41.35045]],[[-119.56205,33.41691],[-119.66647,33.35181],[-119.69963,33.28068],[-119.65529,33.13496],[-119.45201,33.06786],[-119.29133,33.17337],[-119.28406,33.32314],[-119.4025,33.4151],[-119.56205,33.41691]]]}},{"type":"Feature","id":"wide-7-3","properties":{"id":"wide-7-3","group":"wide-7","placeIds":["san-francisco"],"alpha":0.11},"geometry":{"type":"Polygon","coordinates":[[[-124.65227,42.18622],[-124.47223,42.39913],[-124.20495,42.47854],[-120.0077,42.4734],[-119.76627,42.40908],[-119.58841,42.23359],[-119.52085,41.99305],[-119.48086,39.26404],[-114.36985,35.41421],[-113.74078,34.54179],[-113.65715,34.3082],[-113.69932,34.0637],[-113.85636,33.87162],[-114.05517,33.72724],[-114.13678,33.32568],[-113.99804,33.05523],[-114.01049,32.82927],[-114.06977,32.63013],[-114.2287,32.39158],[-114.49423,32.28359],[-117.07707,32.05608],[-117.37434,32.1259],[-117.57176,32.35885],[-117.77828,32.86928],[-117.94674,32.98663],[-117.99688,32.58603],[-118.15536,32.4064],[-118.38028,32.32394],[-118.61732,32.35857],[-118.80924,32.50194],[-118.97731,32.70936],[-119.06693,32.95127],[-119.21307,32.81674],[-119.40934,32.74567],[-119.68415,32.78387],[-119.88562,32.90567],[-120.00652,33.1077],[-120.01863,33.34283],[-119.97742,33.43123],[-120.29751,33.45421],[-120.61955,33.58109],[-120.80041,33.70546],[-120.90838,33.89655],[-120.91281,34.16765],[-121.10944,34.48729],[-121.17413,34.86628],[-122.24661,35.96991],[-122.37406,36.20934],[-122.46283,36.63152],[-122.69771,36.8151],[-122.85252,37.02423],[-122.9293,37.2239],[-123.19603,37.25492],[-123.40962,37.43249],[-123.49156,37.69789],[-123.49502,38.02483],[-124.05589,38.57642],[-124.19708,38.85806],[-124.28878,39.52972],[-124.72862,39.98316],[-124.85111,40.2022],[-124.8484,40.45315],[-124.59421,41.36759],[-124.68618,41.90946],[-124.65227,42.18622]],[[-124.42793,41.35902],[-124.69183,40.40963],[-124.69364,40.24233],[-124.61198,40.0963],[-124.13499,39.60457],[-124.03608,38.88004],[-123.94195,38.69228],[-123.33323,38.09364],[-123.32907,37.69961],[-123.27444,37.52267],[-123.13205,37.40429],[-122.82464,37.40449],[-122.70085,37.08255],[-122.59764,36.94313],[-122.31601,36.72301],[-122.21504,36.24278],[-122.13007,36.08316],[-121.02243,34.94335],[-120.94926,34.51463],[-120.85015,34.33126],[-120.73802,34.22704],[-120.75253,33.94259],[-120.68055,33.81519],[-120.23794,33.60539],[-120.08899,33.58414],[-119.32655,33.65438],[-119.35119,33.56507],[-119.62576,33.5664],[-119.79281,33.45401],[-119.85913,33.31175],[-119.85106,33.155],[-119.77046,33.02032],[-119.63614,32.93911],[-119.43068,32.90677],[-119.25819,32.98044],[-119.12716,33.17176],[-118.92818,33.1739],[-118.92341,33.00698],[-118.85106,32.81166],[-118.55504,32.50867],[-118.39701,32.48557],[-118.24707,32.54055],[-118.14141,32.6603],[-118.11098,33.06452],[-118.0006,33.22218],[-117.64576,32.97501],[-117.42112,32.4198],[-117.28951,32.2645],[-117.09133,32.21795],[-114.50849,32.44547],[-114.33147,32.51746],[-114.22552,32.67649],[-114.16624,32.87563],[-114.15794,33.02627],[-114.31048,33.28594],[-114.21667,33.75393],[-114.19555,33.82613],[-113.84715,34.13116],[-113.81904,34.29416],[-113.8748,34.44988],[-114.46762,35.28441],[-119.64218,39.18211],[-119.68333,41.99067],[-119.72837,42.15103],[-119.84695,42.26802],[-120.0079,42.3109],[-124.20515,42.31604],[-124.38334,42.2631],[-124.50336,42.12116],[-124.52597,41.93666],[-124.42793,41.35902]]]}},{"type":"Feature","id":"wide-7-4","properties":{"id":"wide-7-4","group":"wide-7","placeIds":["san-francisco"],"alpha":0.035},"geometry":{"type":"Polygon","coordinates":[[[-124.80118,42.25128],[-124.56113,42.53516],[-124.20475,42.64104],[-120.0075,42.6359],[-119.68559,42.55014],[-119.44845,42.31616],[-119.35837,41.99543],[-119.31954,39.34597],[-114.27208,35.54401],[-113.60677,34.63369],[-113.49526,34.32224],[-113.55148,33.99624],[-113.76087,33.74013],[-113.90963,33.63211],[-113.96308,33.36543],[-113.83814,33.0842],[-113.85475,32.78291],[-113.91402,32.58377],[-114.12594,32.26571],[-114.47997,32.12172],[-117.06281,31.8942],[-117.45917,31.9873],[-117.7224,32.29791],[-117.83659,32.58014],[-118.06366,32.27224],[-118.36355,32.1623],[-118.6796,32.20848],[-118.9355,32.39964],[-119.12987,32.67805],[-119.38801,32.58458],[-119.66536,32.60797],[-120.00079,32.79103],[-120.16198,33.0604],[-120.17313,33.27677],[-120.35708,33.30302],[-120.67912,33.4299],[-120.92026,33.59572],[-121.06422,33.85051],[-121.07977,34.10869],[-121.26962,34.45995],[-121.32582,34.78921],[-122.36314,35.85666],[-122.53308,36.17591],[-122.60964,36.54002],[-122.79778,36.68707],[-123.04843,37.08094],[-123.26001,37.10554],[-123.5448,37.3423],[-123.65405,37.69617],[-123.6568,37.95602],[-124.16983,38.46057],[-124.35809,38.83608],[-124.44257,39.45488],[-124.84526,39.87001],[-125.00857,40.16207],[-125.00496,40.49667],[-124.76048,41.37616],[-124.84638,41.88227],[-124.80118,42.25128]],[[-124.59421,41.36759],[-124.8484,40.45315],[-124.85111,40.2022],[-124.72862,39.98316],[-124.28878,39.52972],[-124.19708,38.85806],[-124.05589,38.57642],[-123.49502,38.02483],[-123.49156,37.69789],[-123.40962,37.43249],[-123.19603,37.25492],[-122.9293,37.2239],[-122.85252,37.02423],[-122.69771,36.8151],[-122.46283,36.63152],[-122.37406,36.20934],[-122.24661,35.96991],[-121.17413,34.86628],[-121.10944,34.48729],[-120.91281,34.16765],[-120.90838,33.89655],[-120.80041,33.70546],[-120.61955,33.58109],[-120.29751,33.45421],[-119.97742,33.43123],[-120.01863,33.34283],[-120.00652,33.1077],[-119.88562,32.90567],[-119.68415,32.78387],[-119.40934,32.74567],[-119.21307,32.81674],[-119.06693,32.95127],[-118.97731,32.70936],[-118.80924,32.50194],[-118.61732,32.35857],[-118.38028,32.32394],[-118.15536,32.4064],[-117.99688,32.58603],[-117.94674,32.98663],[-117.77828,32.86928],[-117.57176,32.35885],[-117.37434,32.1259],[-117.07707,32.05608],[-114.49423,32.28359],[-114.2287,32.39158],[-114.06977,32.63013],[-114.01049,32.82927],[-113.99804,33.05523],[-114.13678,33.32568],[-114.05517,33.72724],[-113.85636,33.87162],[-113.69932,34.0637],[-113.65715,34.3082],[-113.74078,34.54179],[-114.36985,35.41421],[-119.48086,39.26404],[-119.52085,41.99305],[-119.58841,42.23359],[-119.76627,42.40908],[-120.0077,42.4734],[-124.20495,42.47854],[-124.47223,42.39913],[-124.65227,42.18622],[-124.68618,41.90946],[-124.59421,41.36759]]]}}]}