{"type":"FeatureCollection","features":[{"type":"Feature","id":"dali","properties":{"id":"dali","name":"大理市","sourceName":"Dali City"},"geometry":{"type":"Polygon","coordinates":[[[100.35237880044133,25.97804389970628],[100.34689330018574,25.98706240010972],[100.3365403002947,26.012443399643246],[100.33389689962229,26.024321600261715],[100.33610610041626,26.033753299575153],[100.32878750034291,26.038789000312192],[100.31657259984564,26.04263870031582],[100.30653240035008,26.04273670033848],[100.2898638996993,26.034425100338183],[100.28368580005969,26.028968499796463],[100.24977049960893,26.02764719965859],[100.22170119985054,26.022030500007645],[100.2053736996366,26.020846299716993],[100.2025578998273,26.021992099855595],[100.20251720010873,26.02485349978923],[100.20563240041503,26.040236899813124],[100.20430240023563,26.041799599571902],[100.20154000037076,26.041983500138485],[100.1936515997416,26.049703199642977],[100.19105570036032,26.061137500295445],[100.1877680001931,26.062697000266382],[100.1873586998442,26.064994599920908],[100.17977879995169,26.074131399844305],[100.18064530034042,26.076417200393507],[100.17160639971564,26.079192000110766],[100.15341430002997,26.074156300273103],[100.14531679983048,26.050807700215216],[100.14817719971808,26.045770799782645],[100.14689260001353,26.038489199616947],[100.13526199984148,26.029021600266674],[100.14068470043861,26.022629999774722],[100.14798130039674,26.026455999944517],[100.15102020042195,26.02594969961899],[100.15135480038379,26.013711200011926],[100.1466637998945,26.008878299993626],[100.13739610005001,26.004662299825327],[100.10822000015293,25.996743899611317],[100.10295690044069,25.993864399922188],[100.1019272000803,25.991190499641903],[100.104329899905,25.970825600121373],[100.10181270019604,25.968871199746104],[100.08018809960117,25.967431100065255],[100.07984490032197,25.965579500293757],[100.08362059961104,25.961259099627796],[100.08384939973007,25.95755570043525],[100.08133229984583,25.95560110041049],[100.06073739961136,25.95416080018083],[100.04654990005793,25.945210200390477],[100.04403270034891,25.929570800252293],[100.03625240002827,25.928130199649047],[100.0281289004285,25.93255480026386],[100.02183599963172,25.9334807997991],[100.01188190032951,25.92967369978146],[100.00192770030321,25.918251500406484],[100.00124120012134,25.90816610008551],[100.00478810019075,25.901064599951383],[100.00490250025024,25.89663890036502],[99.99803750023051,25.87955180037534],[99.97899690008694,25.870699500081912],[99.99712470004494,25.861602999678723],[99.9989306996921,25.855489099942076],[100.00512299962679,25.849606999563434],[100.00512299962679,25.84542740035431],[100.00873509964521,25.83993189963752],[100.0124332000322,25.836990499611943],[100.01742140037737,25.83575200005481],[100.01957150042449,25.82290179957846],[100.01587330021272,25.814772900449043],[100.01871139961145,25.804707799625305],[100.02146350044023,25.79944259999604],[100.02670970009262,25.796267899643908],[100.04408239958315,25.76699479977026],[100.04365229971393,25.752820299916948],[100.0486405000591,25.747010600358976],[100.04993060001726,25.742440000205875],[100.0574987997299,25.74112309955143],[100.06472309959145,25.732136400074864],[100.06498109979799,25.72880490022601],[100.07891360018255,25.71880999958188],[100.08166570011201,25.713928500200154],[100.08149370027411,25.706644599568676],[100.08605189967551,25.698585200046978],[100.08544979996833,25.692772799824922],[100.08975000006251,25.68734769983655],[100.0889760003422,25.68386000033877],[100.09078199998936,25.674016300012283],[100.09611420001039,25.667582599557363],[100.10445650016743,25.652078300073526],[100.11331479983818,25.647116500226332],[100.11744300009445,25.63765750019354],[100.12526929983835,25.630756600137033],[100.12492530016254,25.62439810009232],[100.128365400343,25.618427099930784],[100.12294719995339,25.6086555998761],[100.11176680039756,25.59461729964869],[100.11176680039756,25.58825690023582],[100.12229830042628,25.57811270044084],[100.13223549966864,25.56312229965448],[100.10703660025894,25.559010199960824],[100.0783116003002,25.56925129990759],[100.06704520037573,25.576931500288538],[100.06274500028161,25.577086600066593],[100.06119699994167,25.57894839994873],[100.0540587004487,25.58096529960892],[100.04838249985255,25.58065500022815],[100.04812449964601,25.579025999750115],[100.04416839995173,25.57669869998506],[100.0384922002549,25.566070399629268],[100.03324599970318,25.56544979996835],[100.02662369972404,25.560872300216545],[100.02473169970824,25.55373420037307],[100.02232360035396,25.551173700106233],[100.02086149965857,25.545586900215312],[100.01879739998009,25.54450060012266],[100.01477050025846,25.534163799719636],[100.02388630011274,25.53715859968969],[100.02949899957923,25.536736600014137],[100.03448810014578,25.534556000359203],[100.03472200032013,25.526255599616263],[100.0304344995526,25.521612700265962],[100.026692700208,25.512396799572684],[100.02957699957892,25.50613519967976],[100.02879739978022,25.50050650037474],[100.03113610025088,25.49487759962159],[100.03885350018896,25.485870699573184],[100.06644940041957,25.484955900194677],[100.06980140031442,25.482281900089674],[100.07315350003404,25.471303499956605],[100.08071499979746,25.467221600396613],[100.08484660039034,25.467855000108216],[100.09537040042369,25.47390750043087],[100.09544840042338,25.47827069983299],[100.0906152000315,25.488052099624724],[100.09248610015345,25.491148299954148],[100.09022550040658,25.499380800083884],[100.09014750040689,25.51331140020102],[100.08858839973493,25.517954599924906],[100.09186250035418,25.52112029986199],[100.10059340026527,25.52210519959533],[100.11064949977464,25.528506599999616],[100.1271757996235,25.526818399849333],[100.1393367003285,25.53005420014125],[100.1444037001707,25.528928700399263],[100.14752189971597,25.524426599807782],[100.15531740037778,25.52702939968708],[100.16085209984459,25.52660730018681],[100.16560730023679,25.521823799928484],[100.16927120030573,25.522245900328073],[100.18018479978872,25.528014199595702],[100.18244550025969,25.53293820003796],[100.18260140043435,25.53779160010231],[100.18447229965699,25.539831400099104],[100.18712269975288,25.540183099770275],[100.19678909963727,25.53434499962208],[100.2044286002997,25.533993299950907],[100.21534219978275,25.528154900328445],[100.22524240001678,25.517180700029314],[100.22914010043536,25.509512299652954],[100.23389539975295,25.504587399888635],[100.23514260025087,25.500154699979475],[100.24324990036268,25.496003399737162],[100.24761530040587,25.491851899845358],[100.2535399000464,25.491992700402875],[100.25907460041253,25.494596100129968],[100.26273849958216,25.49924010025046],[100.26952050027091,25.503672700334903],[100.27123550021821,25.509582700381372],[100.27450959993814,25.512045099901513],[100.2780175000077,25.512185799734937],[100.28869730004044,25.503672700334903],[100.3001566000471,25.50149159975757],[100.30943309975783,25.502124799819683],[100.31200559967874,25.487770699957878],[100.31504589994836,25.48467449962851],[100.31309699982671,25.480452199709305],[100.31769630004425,25.472570300279187],[100.32408860020877,25.470318200024963],[100.32291920006111,25.464054400390296],[100.3307146998236,25.462928299901193],[100.33383290026819,25.457227199775502],[100.3371849001631,25.45617150001476],[100.34256370035456,25.459338799845796],[100.34521420027517,25.45828300026028],[100.34459059957658,25.44737290003934],[100.34006920043333,25.445261100319556],[100.34100470040664,25.440333499891153],[100.33946640015432,25.43457670025458],[100.34845470042416,25.436746099752725],[100.35240029963416,25.435527700043394],[100.35324079972321,25.429235399993786],[100.35523229983085,25.426688900372483],[100.36683079960176,25.429537899554475],[100.37659060037595,25.42932109998884],[100.37949400044783,25.431280700244145],[100.38261350041279,25.437867600209643],[100.38876359966048,25.441854999908344],[100.39222319984088,25.4471907000908],[100.39454050004412,25.461567499740397],[100.3981253002425,25.464404900365935],[100.3986468998346,25.491152499788086],[100.40563690022282,25.49487759962159],[100.4065071004224,25.50015140036686],[100.40912010041234,25.500390399697267],[100.40936119965971,25.50484370037651],[100.41876510002942,25.51753289972362],[100.42374119999647,25.52779460044053],[100.424420500206,25.534308300088014],[100.42831220034782,25.541704999985825],[100.43320010020454,25.544681800025103],[100.43379750005465,25.54976450023156],[100.43773249985503,25.553564900299932],[100.43521799991083,25.559161099904884],[100.42889680014724,25.56375809965664],[100.42864890022662,25.567251300307305],[100.42648989958923,25.57200859971715],[100.41433509988502,25.582320999714398],[100.41325199958015,25.584709000120313],[100.41674200044304,25.589593299990838],[100.42059299996703,25.5902445998085],[100.42636950015236,25.588290900005063],[100.43551569978979,25.590136000376162],[100.43118330036907,25.598276200386408],[100.4266102001007,25.602617399673306],[100.42251849972905,25.618027399844664],[100.42095400042683,25.62139129956887],[100.41397410032454,25.627359299592058],[100.41192820022633,25.636256399613217],[100.39869030021725,25.65036029998788],[100.38952809984198,25.648784200330624],[100.38713729984659,25.65111960028935],[100.3882204001514,25.65621830033433],[100.3811777003906,25.65974199969361],[100.38268450008968,25.665764100233105],[100.37245529997216,25.6779121999881],[100.37269590009578,25.679864399722305],[100.37690799990435,25.679864399722305],[100.3767877002922,25.683118100120282],[100.37065009982229,25.693854700434144],[100.36884489967247,25.69558980022913],[100.36222600002992,25.69732490002417],[100.34910850035709,25.69472219996959],[100.34357260029532,25.697107999734442],[100.34008260033181,25.71326479963085],[100.33105680013131,25.712831099775485],[100.32792779972823,25.71695129966281],[100.32612270030245,25.7248660000659],[100.32082750018907,25.728335300333868],[100.31769859961076,25.732888500404044],[100.32034610029234,25.735598700020034],[100.3207071996776,25.738525700101036],[100.30758960017994,25.756085900144228],[100.30337760019614,25.75695300038069],[100.29543490030045,25.75142509978855],[100.29338900020224,25.75207550028415],[100.29254659984576,25.755002000342074],[100.29122279959256,25.77776160021773],[100.2892972998306,25.78513050027243],[100.2900193996756,25.795099299892854],[100.29242630023361,25.80019180001159],[100.29050069974755,25.806042499661658],[100.29362970015057,25.81200119979559],[100.28953799977893,25.816876199776857],[100.29098209964422,25.822942699845782],[100.30434030016477,25.82619249988403],[100.32528029994597,25.82240110023065],[100.32552099989431,25.826734100398482],[100.3179392995591,25.837457700112793],[100.31372719975053,25.84081539991081],[100.30361830014448,25.839732299606],[100.29808240008276,25.842548399788882],[100.29495350040378,25.847638799990705],[100.29603659980927,25.8598765999252],[100.29026009962394,25.85901020026057],[100.28472419956222,25.861392700412864],[100.27846630037953,25.864966299555135],[100.27810529991973,25.86962259970329],[100.28207659995519,25.88012570004105],[100.29748069967462,25.88640550041356],[100.29916550038757,25.889653500009047],[100.29916550038757,25.898855800255035],[100.30072999968979,25.901020900094522],[100.30742669968248,25.903697400314798],[100.30940500044045,25.908875999727684],[100.31295389970279,25.91106330023115],[100.31262110018366,25.919697100340954],[100.31659610003004,25.9314451996363],[100.31855420021623,25.94708419957618],[100.32083530000915,25.949906700234067],[100.3204177996418,25.952862799678485],[100.31380430042816,25.95819189973645],[100.31196270021849,25.962515199816664],[100.3131904996419,25.967022399564144],[100.31585050000064,25.969689800443973],[100.32024979998835,25.970241699994517],[100.33355010035689,25.96748230026799],[100.33958629956811,25.968769999935603],[100.35237880044133,25.97804389970628]]]}},{"type":"Feature","id":"xihu","properties":{"id":"xihu","name":"西湖区","sourceName":"Xihu District"},"geometry":{"type":"Polygon","coordinates":[[[120.14045699979079,30.140233699925375],[120.13197699993862,30.14657139955051],[120.1218109996779,30.157864399622383],[120.11902520035278,30.16800219984168],[120.1183624000048,30.17608899990745],[120.12037659990028,30.186004000284413],[120.12638080033378,30.191449600318833],[120.13476420040763,30.194943100443766],[120.1323895999002,30.19969899960921],[120.13392449981586,30.206545999698164],[120.13863129959486,30.207772799974805],[120.13469259998351,30.216065599647777],[120.14281470023832,30.214844099975267],[120.14873900040459,30.220008499992332],[120.1500333001967,30.218124199971896],[120.15531809965069,30.226041500315034],[120.15636479989564,30.230335700132514],[120.15466489956555,30.233834699611748],[120.15040619958654,30.23502330028515],[120.1492180000107,30.23782620021899],[120.14986810013272,30.243437100142103],[120.15502740009447,30.248407400381268],[120.15346199967166,30.249277599681534],[120.15777239987642,30.253631799567927],[120.15277329974799,30.259790900129985],[120.15389690012194,30.26062339985009],[120.14982259983321,30.275143599997193],[120.13651200042852,30.296161499953314],[120.12988799983134,30.294819099921597],[120.12260100013611,30.296568099638137],[120.11132280020718,30.29468569988518],[120.09972609997965,30.294773200322993],[120.09731539978588,30.301883600148074],[120.09769149986289,30.30925009991222],[120.09898640040217,30.30989519980369],[120.09642089990461,30.316758000081677],[120.0909350003501,30.327341999833493],[120.08584079961327,30.329471400185014],[120.08424000007597,30.332767599844885],[120.08053219960141,30.333689899569265],[120.07674840011862,30.338202200271382],[120.08005720017968,30.33952460028013],[120.07910220020642,30.341397700143773],[120.07665319968544,30.34094579980888],[120.075350699875,30.343841400060626],[120.07356210031071,30.343829199857737],[120.07012970012568,30.347352400093257],[120.07207240032108,30.35119780043817],[120.06860779991007,30.350862200430242],[120.06819989980556,30.35254500015168],[120.06409020040246,30.352637300271226],[120.06255490028843,30.357606999763277],[120.06031369981747,30.357539199874225],[120.06046080012584,30.35490159982902],[120.05881729987857,30.354311099577615],[120.05597799988482,30.355552699997133],[120.05562630021359,30.353775900437483],[120.04915500000334,30.353653500009045],[120.0452908002303,30.352003700010812],[120.04381750027744,30.35585630032807],[120.04174700012402,30.356313899666816],[120.03983149992382,30.35240170037821],[120.03825950027579,30.3522592999268],[120.03793799983885,30.353988599993954],[120.03015849991493,30.35304430015435],[120.02817269971035,30.354172999684238],[120.01891870013799,30.350883099775274],[120.02127860032715,30.347748099994874],[120.0219125998866,30.335912199888185],[120.01300899956573,30.33484350042727],[120.01483400008908,30.330788600313724],[120.01669980015572,30.32999570044126],[120.0170955000574,30.3255910000247],[120.02044580023357,30.325441000301964],[120.01860660031446,30.322339299718976],[120.01901699963491,30.31851750028244],[120.01544069982845,30.31855769997793],[120.01786610034037,30.31574729969816],[120.01664509979162,30.315212599681786],[120.017016300362,30.31115129999256],[120.02194959979431,30.31081410009068],[120.02149609956541,30.308447900150497],[120.02606719974153,30.3021705000686],[120.03513719982197,30.30566429966774],[120.04066940007283,30.303180300230736],[120.04107389984063,30.30587700012353],[120.05080599969722,30.30005580003518],[120.0464931002764,30.291392100165353],[120.0520398002966,30.290690799840604],[120.04832779998799,30.28588769975761],[120.04500209986713,30.276658599714665],[120.05077619976191,30.273658699689292],[120.05470610040629,30.274266600023623],[120.05114690030928,30.263923599694408],[120.05230579997271,30.259759199927203],[120.05461440013448,30.258062000261134],[120.05318050037988,30.257088199960492],[120.05401369977244,30.255231900331978],[120.05062350027436,30.253927199880422],[120.05058439955042,30.247745100056363],[120.04789560020185,30.247683199719916],[120.04531059970452,30.24451100038243],[120.0439346001018,30.244311500175627],[120.04343709964246,30.246003499961603],[120.04133700010254,30.245582699981696],[120.04125149975698,30.24370969994277],[120.03921250015685,30.24342360041885],[120.04124360011213,30.241350799799648],[120.03910920042927,30.239984199910964],[120.03482600021982,30.24058249998245],[120.03585249989305,30.236426499883123],[120.02390279957456,30.229171900063193],[120.02048449985989,30.23034659991572],[120.01134030031471,30.227588700258366],[120.01532269978281,30.221441799899196],[120.0146017996334,30.21905030023123],[120.00986059988679,30.221852299943748],[120.0083728001647,30.22022519973325],[120.00658769986251,30.225195999995435],[120.00453039995807,30.225181100027783],[120.00766810040261,30.21884889975695],[120.01101419984548,30.216094500261022],[120.01352829959137,30.21623300035276],[120.0126808000789,30.214229300042234],[120.00872259956839,30.21212120013331],[120.00496750015009,30.212037799704717],[120.00547180038336,30.209562299760364],[120.00066420009284,30.210379699863324],[120.00601330017378,30.197675099626224],[119.99826649959937,30.192968799870243],[119.99325449959554,30.18619650016842],[119.99729330004584,30.184084800273354],[120.00565679992144,30.18486039988761],[120.01101169973026,30.18254020027007],[120.01158450042442,30.179469500217294],[120.00938160028068,30.175291400178025],[120.01461199974403,30.16591789959142],[120.00931430041464,30.16180600044663],[120.01200309976332,30.154921700076443],[120.00995719966511,30.153851700195844],[120.01109999966536,30.150185399836403],[120.00765919981234,30.151835199834636],[120.00668230044789,30.150071499799935],[120.00825699986069,30.148073199918315],[120.00544999991757,30.141179099635792],[120.00258950020532,30.140294700040442],[120.00468489988828,30.135152399963317],[120.00028929971143,30.12976169994255],[120.0006250004435,30.125886700211083],[119.99746949971768,30.118082399683033],[120.01127179985372,30.11840509981556],[120.01278850018923,30.11557239994636],[120.01176639999937,30.110602800279082],[120.0151794000094,30.107626899561808],[120.01757689995407,30.108914100105665],[120.02169599997046,30.106171499715003],[120.02733750022549,30.09615190009015],[120.03879730025528,30.09519599989551],[120.03843460007681,30.08987919986521],[120.04042539961256,30.08741320035898],[120.04365099979384,30.087219599704838],[120.04636280020316,30.09230200043703],[120.04944380019128,30.094845800293513],[120.05281949992002,30.095410700443495],[120.05695719971504,30.094222199594867],[120.06793009959449,30.086098899644583],[120.07853920032392,30.081082699806814],[120.09817150041442,30.084275900112743],[120.1002029996688,30.08197199980799],[120.09849850020566,30.078073900090487],[120.11613370011025,30.082040000245854],[120.1153933997856,30.088457399589345],[120.12209400013808,30.097445299660876],[120.12022250016832,30.098401600053876],[120.12391139959152,30.102207799850135],[120.12655380021772,30.100464500036708],[120.13332459985043,30.099781199642678],[120.1422032997425,30.101281099743005],[120.13760050026292,30.098115499630637],[120.14047720036262,30.09020299986861],[120.15098570022997,30.09696739992563],[120.15496549975808,30.097047599667064],[120.15500909979016,30.09061559983013],[120.15779730030522,30.089345900093292],[120.15028899993752,30.08979199980098],[120.14965169986613,30.086376999698814],[120.16325819960628,30.08648979986441],[120.167556100134,30.084587599737972],[120.167390400047,30.093633899984525],[120.17021630014222,30.098067900313424],[120.17246530043337,30.098934399802772],[120.17506629986985,30.094752400303094],[120.17414030033467,30.09974450010867],[120.17741809986546,30.111712599656812],[120.17479119995403,30.118613800086848],[120.15770500018573,30.127916399921958],[120.14045699979079,30.140233699925375]]]}},{"type":"Feature","id":"xuanwu","properties":{"id":"xuanwu","name":"玄武区","sourceName":"Xuanwu District"},"geometry":{"type":"Polygon","coordinates":[[[118.79429660040785,32.09731030023022],[118.79414180010406,32.09509350016498],[118.7911328996637,32.09329650003349],[118.79251610013796,32.090178900336014],[118.77893549997339,32.09468440036483],[118.77892479983973,32.043882199803704],[118.82331150042546,32.04084849965858],[118.82443090006609,32.04211699969983],[118.83432209988507,32.04205169992605],[118.83198929986634,32.03779490021452],[118.83466790000364,32.03722609970481],[118.83274280043997,32.030917000319334],[118.83877610023694,32.031288899663025],[118.84067020016971,32.021343200028696],[118.84393209968675,32.02231460003884],[118.8460151004166,32.02021060013914],[118.84603699980778,32.022390400296786],[118.8481479002055,32.022390400296786],[118.84804980035801,32.02569399957849],[118.8547696003368,32.02305989969466],[118.8551153995561,32.025453400354195],[118.86265649999757,32.02637369998632],[118.86318810005082,32.02437850006777],[118.86750630007577,32.02568280032102],[118.87130100024103,32.02337260026536],[118.87124989986307,32.01925739970926],[118.8755999997403,32.01681910022137],[118.88032240005873,32.02124999968777],[118.89051169995503,32.025188899847876],[118.89215389978267,32.02779400019301],[118.88809229971991,32.02807399961546],[118.89059539985783,32.02996420008782],[118.89137470018238,32.03357820037371],[118.88885090034887,32.034094500261006],[118.88586269960399,32.03773030011331],[118.88196090007557,32.03590149995432],[118.87653199955218,32.03819360025449],[118.87636680038759,32.04264289985002],[118.88068150025106,32.043023500134495],[118.87855119967821,32.04547299977918],[118.87324049974927,32.04516669968348],[118.87213600007635,32.04822020020214],[118.88087369976154,32.0528309002259],[118.88183369996534,32.05473809968362],[118.88031939992038,32.05811390013645],[118.88234260023091,32.05768080012888],[118.88323030033814,32.06074699997413],[118.88103160002834,32.06224289988995],[118.8829463996567,32.06302149964256],[118.8809904002868,32.064329200232464],[118.88088010023648,32.06821990032819],[118.87122820012144,32.074283400258764],[118.87109909974367,32.076966200230004],[118.87435580028,32.07554049959441],[118.87785009990228,32.07053990029624],[118.87915659989721,32.072667500205],[118.87588510011733,32.07702420020672],[118.87927080030727,32.080238500406494],[118.88298639970265,32.078978999880974],[118.8831103002002,32.07703300007296],[118.88714139975582,32.075937599740485],[118.88897320005321,32.079094399986616],[118.88795650029226,32.08099229955502],[118.89201749960796,32.08434440017396],[118.89586769963466,32.08459370033904],[118.90326960031189,32.088695300447796],[118.8955596998203,32.097497600234135],[118.89206559984757,32.09673679986349],[118.87993190003726,32.10529729983057],[118.87809970044088,32.10389389968378],[118.87588040026037,32.105415299876256],[118.87569460032557,32.103902599725245],[118.87496180034691,32.10544149982542],[118.86908580006968,32.101514899692916],[118.86671169958538,32.10293150008869],[118.8639547001494,32.101534200043375],[118.86093020006876,32.102780199946324],[118.85530469965227,32.10076910001402],[118.85379250042365,32.098495600391686],[118.84903389969475,32.0997285996952],[118.83766920027347,32.09911210004344],[118.83668860019884,32.10113199984198],[118.8385724001962,32.100358199771165],[118.84034780041077,32.102080700064334],[118.83811010010106,32.10398209979411],[118.8294756003188,32.09594189989883],[118.82861369996237,32.097839400168255],[118.83516829987718,32.10313830009255],[118.83445089988913,32.10548170042017],[118.83716049965744,32.10742269999764],[118.83161229956806,32.10678880026296],[118.82919690041672,32.108297100031166],[118.82900079964725,32.10628170044015],[118.82646149999823,32.107510200435456],[118.82137269969041,32.10698990036366],[118.82127459984292,32.10566090023042],[118.81395830023541,32.10581330024365],[118.81303959959791,32.09794810032463],[118.81006679974303,32.0974059997871],[118.80967460000284,32.09575760003327],[118.80646959969238,32.09653590031161],[118.80620119972559,32.09877879960197],[118.80188649986212,32.098673899980554],[118.8011116997452,32.100347800011036],[118.79429660040785,32.09731030023022]]]}},{"type":"Feature","id":"kunshan","properties":{"id":"kunshan","name":"昆山市","sourceName":"Kunshan City"},"geometry":{"type":"Polygon","coordinates":[[[120.82385490008369,31.52024760014666],[120.80967449977845,31.522262800088185],[120.80062580014066,31.516091900420918],[120.79881609978327,31.508686200108116],[120.81148420013574,31.50467459965313],[120.80858859988405,31.49418180014999],[120.8172752999152,31.484305100100357],[120.8237903998072,31.45930019974446],[120.82592009963298,31.437048599913],[120.81931109972754,31.411853400314214],[120.81630699986817,31.393135799777383],[120.81847430034873,31.37698829977029],[120.81585639995296,31.375110500049573],[120.8150840001266,31.371629700150606],[120.8230662000451,31.37365410015667],[120.8240211001937,31.37238999959885],[120.82789419965763,31.37296709995178],[120.82652089981968,31.371125800115635],[120.82882759971403,31.37140059965799],[120.8284521003842,31.372728900118716],[120.83277579976345,31.37495480042378],[120.83816170010243,31.37604480032735],[120.83853720033164,31.374853999912204],[120.83682059959108,31.374652499613205],[120.83718539968652,31.37078689959577],[120.83387020004977,31.37009070022566],[120.8364664996293,31.368130299573693],[120.83934190020864,31.36871659999116],[120.83969590034553,31.366582099584264],[120.84654090034235,31.367287499918234],[120.84680909976021,31.365235499718608],[120.84357979976801,31.36475910005248],[120.84989900033861,31.34596789989871],[120.84784979972858,31.3455830997803],[120.84988830020495,31.33615400040685],[120.86001629961265,31.312361700032454],[120.86191529995119,31.31005180035038],[120.86035820027075,31.30938890017768],[120.86210050003808,31.306172000037805],[120.86405679978157,31.306705299809778],[120.86468239967303,31.305415500225195],[120.86267749966692,31.304776399711102],[120.86406339990606,31.30133159967363],[120.86734399992577,31.30137209974265],[120.86671930025557,31.295184300015478],[120.8680639998538,31.295206800153778],[120.86780379990546,31.293788000016264],[120.87330759956615,31.293310999603023],[120.87504840016356,31.28633659975435],[120.8770025001653,31.286320699740543],[120.87633619965595,31.280443800141313],[120.87992070038013,31.280118300419304],[120.87836349997565,31.278007300196805],[120.8764099998217,31.278045300150552],[120.87653459999183,31.273658900038242],[120.87853330007181,31.272912499612232],[120.87437849966807,31.272155999799622],[120.87417030031918,31.270448199824614],[120.87699980040054,31.270193299581138],[120.88210859983212,31.253068400186578],[120.88615839989029,31.25335659962741],[120.88783880022049,31.250688800347916],[120.88329749997968,31.247891899791398],[120.88436980032611,31.240999900325164],[120.88776829966741,31.24209850044548],[120.8904621001459,31.237840699788535],[120.89321010006609,31.237422200274352],[120.89541479975321,31.230577899950163],[120.89743599997144,31.231080399740733],[120.89732019966755,31.226098699695285],[120.89531829979978,31.225965799681944],[120.89629189955156,31.219747000323878],[120.89403660040887,31.219682500047384],[120.89069069971606,31.215496799837467],[120.87663450028208,31.2113605002869],[120.84985049990075,31.22188490016805],[120.81799920020296,31.204859599790723],[120.79940059975797,31.178947500227025],[120.82020199962267,31.168087500337947],[120.81857319969345,31.15864119963169],[120.82002100026898,31.1561633002961],[120.81947810023416,31.15260119988551],[120.8116962000197,31.151671999663108],[120.81821129991158,31.12781789967636],[120.840470900112,31.116353499614377],[120.85201709980936,31.107197099866312],[120.85835550000638,31.115482699566996],[120.86451299977523,31.119470500363377],[120.86788959972534,31.128707699700612],[120.87622290036666,31.13699020033755],[120.89440589981245,31.13839719957116],[120.90074680012481,31.136621099684078],[120.91224800044495,31.138483500313328],[120.92545680019123,31.143747699896494],[120.94681630043203,31.140756300263092],[120.97907250009587,31.133900000284825],[120.9866149000577,31.13532910035775],[121.01397669956509,31.136257600008264],[121.01812549969213,31.14045779998753],[121.01771250043157,31.1427489002416],[121.02106519999904,31.143142100027944],[121.02177330009783,31.145857200049818],[121.02346310014207,31.146040800242815],[121.02392450001571,31.143366399939453],[121.02862369962406,31.144344400074033],[121.03143459992691,31.142654799679292],[121.03161810029519,31.13954880033691],[121.03609850024566,31.139731600133302],[121.0405434003577,31.14682590029514],[121.03687950028882,31.149036500434192],[121.03664889972697,31.151364099673515],[121.04002839999077,31.15283779982468],[121.04010890010568,31.15693730001641],[121.04455060042994,31.156652699662402],[121.04534460017317,31.152497999982756],[121.05925339982457,31.155161299954102],[121.05936179960747,31.152849199630907],[121.06117500012624,31.153154499680454],[121.06048830029488,31.150565300248445],[121.06398059982484,31.15014290037459],[121.06319740004005,31.154761300393773],[121.06622290016674,31.155447600026775],[121.06638379967274,31.15751340032324],[121.06689339961076,31.155622099980008],[121.06808970027953,31.15602599990001],[121.06802529982781,31.15827080035723],[121.07194350029238,31.16068380011734],[121.07122029967718,31.16262269977784],[121.07282989997998,31.16296980031609],[121.07258400015155,31.164950000442218],[121.06886000018892,31.163656500147397],[121.06820880019609,31.165190499841742],[121.07213550015331,31.166551999675107],[121.07121609984324,31.171982000069306],[121.06728069984445,31.17180390012993],[121.06702760004373,31.17316599981109],[121.06754249968662,31.17484590011827],[121.07022469981007,31.175540899792736],[121.06609839982139,31.18345229968395],[121.07042639975862,31.18490339987204],[121.07037699999864,31.186226100254373],[121.06515970006012,31.18486220013051],[121.06418439969036,31.187251199683146],[121.066724100437,31.188068400136615],[121.0656049004458,31.194695499797547],[121.06841500035205,31.19432260040776],[121.06821629964259,31.196090500276398],[121.06144850014823,31.197582800206135],[121.06162450017064,31.19896670035297],[121.0647080002741,31.198259999599372],[121.05763549967867,31.22885200021966],[121.06015189989034,31.229197900163],[121.05955810002638,31.23256200043602],[121.06242490038892,31.23319680039208],[121.06255580030995,31.23448669980138],[121.05646720030109,31.2358151999116],[121.05549189993133,31.240451199663198],[121.05876420010782,31.240588800432818],[121.06016109995483,31.24936340020082],[121.05672790027245,31.24824260031579],[121.05298889961807,31.24861129987164],[121.05694350014244,31.24882219988467],[121.05822990028969,31.269885100117335],[121.07702680034663,31.272753500373767],[121.08030769984055,31.27790320007267],[121.0765246998551,31.278812799571085],[121.08134300027928,31.291699499932008],[121.08555619995877,31.291891200318673],[121.08718270032148,31.289830099879282],[121.08975770035761,31.29016390034377],[121.09420370034059,31.27824800014514],[121.09852739971973,31.275798799974666],[121.09770400023945,31.27701059955956],[121.10042210039967,31.277784000331394],[121.11228180016496,31.287603999924727],[121.12638349989868,31.282077299927494],[121.12690489984129,31.283034499642497],[121.12970369976597,31.280847100213578],[121.13551340022332,31.28089170029176],[121.13470589985741,31.279028799639434],[121.1364084001276,31.278598599945497],[121.13886390004905,31.279731900406944],[121.14222009977789,31.277370699797984],[121.14572100042392,31.27725870002905],[121.14927260035029,31.278860200138183],[121.15128430013044,31.28257140005013],[121.15766149977844,31.284092999892096],[121.15455279977198,31.289744100409962],[121.15212919970281,31.289149000126315],[121.15199779975876,31.290768199792637],[121.1466510001436,31.29385870021889],[121.1469064004101,31.298233599800824],[121.14403270044886,31.299476700289517],[121.1470586996993,31.301054399840723],[121.13917790014,31.31133759975046],[121.13411820009492,31.30755919979731],[121.13487510010589,31.305094800184918],[121.12880740034132,31.304195499722596],[121.12485169994602,31.305355599981],[121.12459519980871,31.31308239963306],[121.1219360996713,31.32048190001973],[121.12446860044565,31.322194399851696],[121.1246038000254,31.324046700195083],[121.12642130020288,31.324229099793172],[121.12688370012268,31.327785899599633],[121.12884059971395,31.32801409987087],[121.12683650010445,31.330517899681354],[121.12882130026287,31.33203550023819],[121.1251553002769,31.33744129987616],[121.12544709970393,31.346192299634993],[121.11318939957118,31.345340999587506],[121.11235689985108,31.349264499756885],[121.11504339963324,31.349839000169766],[121.11242660000767,31.354153500383802],[121.10366109958011,31.35280850041204],[121.10235759972352,31.368487399673825],[121.09713950028777,31.37299239967956],[121.09378810024066,31.385620699635638],[121.08437899999092,31.388030299958416],[121.07967439995366,31.39345189978542],[121.079439200259,31.398672400410987],[121.08814259980124,31.41312750043386],[121.08202669997229,31.41533580010713],[121.08634799996025,31.41872720020018],[121.09269910038324,31.420734600321623],[121.0833636995751,31.43333830022243],[121.0651775003414,31.423344100150132],[121.05741500030206,31.431372900239182],[121.05106380005441,31.432175799673473],[121.04617399993026,31.42470669985437],[121.03178719981952,31.43436300035222],[121.01954329978355,31.431172200336846],[121.01273369980049,31.44226389975921],[121.01420670027903,31.453332599919577],[121.00659300026678,31.455349499579768],[121.00175240025317,31.467990800135397],[121.00911890001726,31.472298899874374],[121.0080171001091,31.478528300440757],[121.01045579979541,31.486204399913163],[121.00448869999354,31.49377349984718],[120.99694939999483,31.493879199865205],[120.99458239965804,31.49615499995332],[120.9816870999797,31.496571000251492],[120.97085899994295,31.490939299908803],[120.97050129999502,31.497273799746097],[120.96399659986321,31.49828209983906],[120.96028809971608,31.503773999670386],[120.95228560030023,31.50210979972752],[120.95209039975225,31.50693580014712],[120.9472108995634,31.509431899962237],[120.94740600028672,31.513092700068114],[120.94311200011873,31.514590299702604],[120.93979390016841,31.519415600449634],[120.9345238999581,31.51991479972827],[120.93471909960681,31.528067399590896],[120.9304251003382,31.531228399670965],[120.91227299979914,31.521578600372152],[120.90719820013692,31.529731100410004],[120.89392580033552,31.525405400039233],[120.89197390007553,31.52790099983133],[120.89821979960414,31.536551899650476],[120.89099799985786,31.542540500443806],[120.89119320040595,31.53621919995618],[120.8794821999436,31.53522100014908],[120.8781159004285,31.5310619999114],[120.87362669971253,31.530230199863865],[120.86913749989571,31.517585400046244],[120.86113489975583,31.512759899649723],[120.86054939973508,31.50493889961058],[120.8443492003554,31.507767899668863],[120.84532509967369,31.513092700068114],[120.84337320031295,31.520913100259406],[120.82385490008369,31.52024760014666]]]}},{"type":"Feature","id":"yangshuo","properties":{"id":"yangshuo","name":"阳朔县","sourceName":"Yangshuo County"},"geometry":{"type":"Polygon","coordinates":[[[110.47375420029618,25.0523790003906],[110.46904960025893,25.041550000132474],[110.46303070040653,25.043793299621143],[110.46337350038681,25.045415500325134],[110.45929739965533,25.049902000377074],[110.45922120009834,25.052007199972365],[110.45590699960843,25.049280799968983],[110.45224990021279,25.04934979955368],[110.45004039994456,25.052559399896438],[110.43906909995906,25.05852959966137],[110.43331679963063,25.055216699591085],[110.43217399963044,25.049039199799267],[110.4294692004433,25.045553500393794],[110.4307645002815,25.04327560038871],[110.42821210020833,25.04186059988683],[110.42371690011493,25.044104000099594],[110.42017410005474,25.04127390017038],[110.41975509961821,25.037201099950835],[110.41518369996783,25.034405399989282],[110.41308849993436,25.035578900146163],[110.41255520016244,25.02501669996076],[110.40806000006899,25.019838900045272],[110.40836480009551,25.015627300259723],[110.40638390029682,25.011588300159985],[110.4023458004184,25.01103600041114],[110.39826969968698,25.018078299973638],[110.3872401002505,25.012820900164456],[110.383288800238,25.013174000080085],[110.38250969956306,25.019276099812203],[110.37878099974341,25.01907439986371],[110.37520279966952,25.01426569970232],[110.3759858996296,25.01194080022782],[110.37159519985863,25.010695800370968],[110.36084729956326,25.014332999568353],[110.35694140002568,25.01401569986473],[110.35492119985355,25.010768999789548],[110.34597810040907,25.011891899591546],[110.33506860003592,25.015333800214762],[110.33207859974766,25.013185700259896],[110.33415269988723,25.009011399856263],[110.33865119959324,25.007741999593634],[110.33905530006211,25.010866700338],[110.34064450014364,25.010964300162357],[110.34622050007607,25.006765600252322],[110.34732489992427,25.00332340015484],[110.33659279981794,24.997335400108682],[110.33794210034773,24.991269700436362],[110.34393559974819,24.985524600080282],[110.34317280018462,24.983496400438582],[110.3370697004064,24.985592800167638],[110.33816180022694,24.983904000169503],[110.33392170002651,24.983147000333872],[110.32993859998646,24.984428099876936],[110.32537729972267,24.982448200124395],[110.32248630040249,24.984020500146016],[110.32177959964889,24.982506499575322],[110.31908139968692,24.983147000333872],[110.31779649960885,24.979827699788586],[110.31413459963215,24.978663000397205],[110.31452010032245,24.976450099792316],[110.31574069977353,24.976450099792316],[110.31439159979254,24.974470000390284],[110.30623260035429,24.97639180034139],[110.30212099978439,24.97080110009074],[110.30483769970016,24.970522099815128],[110.30539670029754,24.966862600128934],[110.30738399967191,24.967707100402436],[110.31158690031526,24.965661899976737],[110.31778590019917,24.959994599970855],[110.31589240011425,24.958811200076866],[110.31542979964559,24.95594389969125],[110.31881130000153,24.955207599551102],[110.32342560001149,24.9464251001383],[110.32452499962909,24.93746979959161],[110.32834629994187,24.933984899683423],[110.33104599997296,24.929416500171385],[110.33005230037344,24.926882100028934],[110.33286329960168,24.924245699679375],[110.33117019994484,24.922545499874957],[110.33340599998695,24.91989829956691],[110.33576600000094,24.919672999609304],[110.34036170023234,24.912688799848297],[110.34239540012766,24.914766999997084],[110.34156219983572,24.908992699553494],[110.33222600042961,24.905704199888987],[110.32887229991678,24.906436400019913],[110.32713339958678,24.90373259997955],[110.32520810037357,24.905253500148945],[110.32570500008575,24.900296400158766],[110.32986600041562,24.899902099602286],[110.3298586997193,24.898376299926326],[110.31775550041607,24.895451799960654],[110.31655580030997,24.896943000019462],[110.3193901998979,24.89772479955991],[110.31850080007194,24.899789400160728],[110.30668160037561,24.90124160021975],[110.30333729957675,24.89988569956546],[110.30316090025542,24.897536100210914],[110.29955280042145,24.898311400350906],[110.29803870002604,24.89720889987086],[110.29899989992549,24.895057500303437],[110.29678330040906,24.893842900229686],[110.29888680028569,24.886571000151605],[110.29409359993974,24.886381700055438],[110.2940314999538,24.882099900090395],[110.29584900013128,24.878931200014904],[110.30098760039749,24.87919370042897],[110.30673069976206,24.875075800108164],[110.30291140044085,24.87369259963384],[110.29976430028228,24.86688820043014],[110.29558410032604,24.870549700208528],[110.29015080031922,24.867949400444502],[110.28932759958911,24.865822199834724],[110.28471939968063,24.86540349977173],[110.28249939982749,24.862165100439086],[110.28316310039685,24.855053800392625],[110.28080310038285,24.85341950020984],[110.28101050023446,24.850919300385442],[110.26795599986957,24.849636500224335],[110.2644059998371,24.851250800384207],[110.2646127998409,24.840470299664673],[110.25850460000737,24.84108659966688],[110.25459330004082,24.84407040002901],[110.25366330032114,24.846600600337467],[110.24070730000193,24.844240399774662],[110.22705079975469,24.8393458997935],[110.22324019957563,24.836786299747985],[110.22279109972953,24.8330373004311],[110.22453610016095,24.829918099940414],[110.22412860025474,24.823779500323724],[110.22643899995995,24.819923700218624],[110.22595979980497,24.813760399822627],[110.22807330014274,24.8064344001275],[110.23208319997974,24.80256660036838],[110.22992730020479,24.797496899862097],[110.23690499966608,24.785049899633236],[110.23100559992855,24.781285500325623],[110.23037859979263,24.772275899613135],[110.22603440036733,24.767565400023216],[110.22378640012232,24.762145699564428],[110.22509779962382,24.758172900359114],[110.2284162997725,24.754764399657347],[110.23500080034671,24.752305899597616],[110.24205780022737,24.751920399806636],[110.2545998003406,24.757104899671447],[110.26267230028651,24.756728900318535],[110.26727280019963,24.750804899626473],[110.28655980019471,24.739059400271174],[110.28840629991089,24.7315003997237],[110.29728680024567,24.72515889956361],[110.30261230031749,24.723375400054692],[110.32554630032155,24.722455899919908],[110.3351823004229,24.71657939961966],[110.34929680020724,24.715799399622654],[110.3571472998081,24.71173990037613],[110.36505080005446,24.70331939967059],[110.36125929967699,24.681466900077453],[110.36132029979206,24.675266400124315],[110.36464680030963,24.670705900257133],[110.37219979968108,24.6707784000032],[110.38223280010368,24.67431839957453],[110.38728330008428,24.674135400128648],[110.40042880014909,24.668289400335595],[110.42008980030408,24.667095400132666],[110.42485030040109,24.66920490028599],[110.42732979963063,24.67290289994895],[110.43160229970641,24.67431839957453],[110.4368973001703,24.67321990017831],[110.45063030034817,24.660251400182005],[110.46148680007582,24.657365900216178],[110.49545279980691,24.659732899653648],[110.51026130011894,24.665370899747302],[110.51506779963933,24.6626568995963],[110.51767730036715,24.65303440011752],[110.52021779971176,24.65075890040299],[110.52982330020518,24.64716740025534],[110.53819280035754,24.6412663997246],[110.54978179969038,24.639295399663013],[110.55256630039452,24.636792900272155],[110.55737279991484,24.635684900437866],[110.5677479995706,24.636600799687187],[110.58010250003042,24.643639000139785],[110.59443809993843,24.646335200009503],[110.60099879995471,24.652862400279616],[110.60453370037004,24.659698499686044],[110.60629879974988,24.65974550005484],[110.60839740012,24.66309780032327],[110.61448059969996,24.66743069976701],[110.61448059969996,24.669074200014393],[110.60786299957783,24.67053090028088],[110.60712320017564,24.6685887001085],[110.60379380024375,24.668140399759693],[110.59946790022349,24.68282289965714],[110.60132760018865,24.69144599963323],[110.59803930017364,24.70675660043679],[110.58500960041277,24.717584900123086],[110.58589280031254,24.730237999783924],[110.58073489969593,24.73972400016254],[110.5847219000957,24.74017200013776],[110.58669480042477,24.73808149996131],[110.58948009972687,24.73955100027848],[110.59376460035611,24.738753399649738],[110.5920383004273,24.741030599982253],[110.5951210001341,24.743009100389713],[110.5977104999397,24.74278509995247],[110.59816259992408,24.750474799872165],[110.60247850038257,24.75230390040474],[110.60560230000618,24.752863800324178],[110.61016439976731,24.74712859970515],[110.61464510009137,24.749802900183738],[110.61526159974312,24.75207989996744],[110.62183809994843,24.751631999816993],[110.62408150016114,24.74971470007341],[110.62763369993536,24.75144529966093],[110.63287800021959,24.751606600264438],[110.63240170037824,24.75599920030288],[110.6368818997799,24.75588719963463],[110.63901010043583,24.76253459969206],[110.64317069966813,24.76189650012344],[110.6590777002757,24.773354499710422],[110.66043410005375,24.778952499758134],[110.65837079987256,24.78552439993115],[110.65293020006874,24.78788010028643],[110.6482675003449,24.785781599741085],[110.64091009992126,24.787796699857836],[110.63375810015629,24.796192599608844],[110.63597769981106,24.799065800446385],[110.64497930015466,24.795856799951423],[110.65722809969708,24.803655200027492],[110.65615940023622,24.806938499811963],[110.65252820041616,24.810451699586338],[110.65389869976525,24.81104260003599],[110.65167910011047,24.813766199550514],[110.6525422999872,24.815706199981207],[110.64937679969961,24.818581599661172],[110.64907950001896,24.82238850002932],[110.6525422999872,24.824100200364],[110.65491140024096,24.829839900291233],[110.65718699978027,24.828576699954795],[110.65957090017696,24.835925400337032],[110.65745010004213,24.840084299850616],[110.65817339958278,24.842453099730847],[110.65497190033301,24.84609589990589],[110.65251180037933,24.85437839964345],[110.65670190007268,24.861378100119282],[110.65517289970961,24.864047799666253],[110.6605613999887,24.868182100023944],[110.6602285995703,24.871095999680676],[110.66503769993,24.87150620025102],[110.67373529974435,24.869653800082858],[110.67486140023351,24.86762790000762],[110.6777533995998,24.868949799993345],[110.67800109987093,24.878427399804707],[110.67348370001281,24.88915870041376],[110.67554579959904,24.897030700106768],[110.67555980024463,24.905762900437537],[110.67249280000277,24.911710900437754],[110.6674118004143,24.914890399572357],[110.66232279955761,24.920593899988546],[110.660987800047,24.928851900394932],[110.64594279962057,24.948716900064937],[110.64349379999891,24.969829399707066],[110.636039799797,24.98469940015724],[110.63619979998083,24.995723900437724],[110.62777730008241,25.005763900283796],[110.62264229980235,25.016288900012796],[110.62761679987545,25.025743399838063],[110.63075989984958,25.028080700064322],[110.6309015997291,25.031126700237053],[110.61904800006522,25.04346579980688],[110.61835820027079,25.05406399985378],[110.6134726998053,25.05714089983269],[110.61327209972768,25.06485569983073],[110.60465540022659,25.066595100183804],[110.59901680028514,25.063142799800403],[110.59290289964918,25.063362600403764],[110.58843979995686,25.06048419968613],[110.58080369963108,25.062475199770688],[110.57303630008522,25.05654540025006],[110.56394179977428,25.056470900411796],[110.55235280044144,25.053390400446688],[110.54435730044912,25.043447399677802],[110.54263280006376,25.037921900275535],[110.53640729985705,25.028682899596163],[110.52986130015893,25.026099900090344],[110.52300280043897,25.030177900189983],[110.5183408003877,25.042770399934057],[110.51094830032389,25.049367900208495],[110.51405729980462,25.05393819998801],[110.4940399999461,25.054997800108424],[110.48713039984813,25.05132629986889],[110.47945669976696,25.053226200428867],[110.47662420044657,25.051382899601208],[110.47375420029618,25.0523790003906]]]}},{"type":"Feature","id":"kamakura","properties":{"id":"kamakura","name":"镰仓市","sourceName":"Kamakura"},"geometry":{"type":"Polygon","coordinates":[[[139.488672,35.307668],[139.494216,35.305515],[139.503757,35.305968],[139.52686189999997,35.302613],[139.53171290000006,35.303823600000015],[139.534536,35.308559],[139.540182,35.309331],[139.549214,35.305624],[139.552055,35.302795],[139.55194218570844,35.29958942346361],[139.556638,35.302721],[139.556591,35.305074],[139.569113,35.310406],[139.56879,35.312858],[139.573625,35.313091],[139.583799,35.316514],[139.587332,35.320236],[139.59316,35.320414],[139.592958,35.324027],[139.588709,35.330047],[139.588864,35.336389],[139.581754,35.334894],[139.573622,35.336914],[139.572937,35.342357],[139.569593,35.347535],[139.561167,35.346179],[139.557337,35.347354],[139.548476,35.355436],[139.54746239999997,35.358251],[139.54892640000003,35.360486599999966],[139.54618349999998,35.362757399999985],[139.544214,35.362995],[139.5426956,35.357105199999985],[139.5376348,35.357203799999965],[139.53565740000002,35.35467989999999],[139.530669,35.354136],[139.5308804,35.3569959],[139.52901419999998,35.3584149],[139.52575259999998,35.3570297],[139.5212908,35.361596800000015],[139.51348959999996,35.36221249999998],[139.5024370000001,35.367554],[139.49519180000001,35.35757939999997],[139.50098,35.35663229999999],[139.508949,35.349306],[139.511119,35.349672],[139.509548,35.346023],[139.511097,35.344171],[139.515962,35.343196],[139.516833,35.341367],[139.509781,35.33363],[139.502893,35.332787],[139.497054,35.324423],[139.496327,35.317865],[139.491474,35.313534],[139.488672,35.307668]]]}},{"type":"Feature","id":"kyoto","properties":{"id":"kyoto","name":"京都市","sourceName":"Kyoto"},"geometry":{"type":"Polygon","coordinates":[[[135.597923,35.094346],[135.598206,35.092444],[135.591941,35.084074],[135.592237,35.079155],[135.590096,35.077103],[135.59615,35.071234],[135.599589,35.070674],[135.602527,35.062939],[135.60523,35.062028],[135.608417,35.066513],[135.617216,35.068334],[135.621997,35.064591],[135.617442,35.055472],[135.617579,35.042035],[135.621776,35.038033],[135.626202,35.03954],[135.638006,35.027463],[135.639873,35.023441],[135.639001,35.020086],[135.63645,35.019121],[135.646745,35.007477],[135.646068,35.001294],[135.641876,35.000346],[135.638997,34.997882],[135.638186,34.980776],[135.641294,34.975641],[135.630361,34.974549],[135.627673,34.972658],[135.623967,34.974388],[135.613264,34.971195],[135.615667,34.962804],[135.618792,34.958816],[135.615199,34.953843],[135.616096,34.952872],[135.610801,34.93974],[135.608302,34.939334],[135.607619,34.936924],[135.603448,34.93582],[135.599749,34.928053],[135.615199,34.927625],[135.62375,34.934908],[135.628108,34.933733],[135.629028,34.935004],[135.632973,34.934622],[135.636574,34.931038],[135.638204,34.932106],[135.64316,34.929714],[135.646111,34.929514],[135.648389,34.932496],[135.654044,34.934113],[135.659275,34.932938],[135.659866,34.935545],[135.663731,34.936129],[135.664553,34.939249],[135.671906,34.942321],[135.674612,34.945691],[135.679901,34.944486],[135.69504860000004,34.946708],[135.6959842,34.947735],[135.68911330000003,34.954813499999965],[135.68805309999993,34.9588447],[135.6831884,34.964094399999965],[135.68383070000002,34.96946089999997],[135.687481,34.966764],[135.69291409999997,34.9685046],[135.69990509999997,34.968512],[135.6999830999999,34.96574479999999],[135.7025867,34.9656867],[135.70243820000005,34.963650199999954],[135.70988289999994,34.96261370000001],[135.7095429,34.955389],[135.71730569999994,34.9505229],[135.71688609999998,34.9447451],[135.71821129999998,34.9447357],[135.71684860000005,34.93678559999998],[135.71444,34.9358155],[135.71447459999996,34.929069099999985],[135.714575,34.925102],[135.717382,34.925066],[135.715028,34.92277],[135.714191,34.916007],[135.706526,34.908107],[135.705586,34.900362],[135.703174,34.898693],[135.70549,34.894682],[135.708996,34.895577],[135.710165,34.892738],[135.711945,34.893204],[135.711942,34.887257],[135.715702,34.887174],[135.715442,34.882784],[135.72374,34.880399],[135.732472,34.874916],[135.732708,34.87826],[135.727526,34.883151],[135.728712,34.885155],[135.722581,34.887976],[135.720098,34.89286],[135.717131,34.891792],[135.716302,34.893397],[135.718534,34.894037],[135.715951,34.89923],[135.719573,34.898102],[135.72596,34.902808],[135.728385,34.902301],[135.735171,34.905069],[135.740284,34.904789],[135.744554,34.910413],[135.747713,34.911385],[135.753066,34.904167],[135.760916,34.908085],[135.776128,34.916136],[135.789837,34.916993],[135.792209,34.930377],[135.797689,34.934513],[135.799805,34.934166],[135.803204,34.936432],[135.806191,34.935329],[135.807496,34.937588],[135.811189,34.936579],[135.812773,34.930362],[135.818137,34.926648],[135.829413,34.927392],[135.831037,34.932772],[135.830147,34.935311],[135.844694,34.935504],[135.844418,34.933412],[135.839801,34.93173],[135.84002,34.930457],[135.845521,34.930218],[135.848822,34.932604],[135.85009,34.936675],[135.84991,34.939407],[135.847711,34.940152],[135.848213,34.943989],[135.844628,34.948083],[135.847111,34.948447],[135.851917,34.956926],[135.859465,34.957089],[135.859532,34.953865],[135.862627,34.95084],[135.878442,34.947434],[135.875713,34.95056],[135.875427,34.953665],[135.873381,34.955341],[135.863878,34.957602],[135.86322,34.96056],[135.856117,34.967127],[135.855648,34.969879],[135.852275,34.971347],[135.856695,34.982457],[135.855026,34.984742],[135.849118,34.984812],[135.849267,34.991734],[135.8423,34.989942],[135.827475,34.991119],[135.832572,34.999101],[135.835456,34.999254],[135.836559,35.001226],[135.8326826,35.0094255],[135.824097,35.008824],[135.822457,35.011936],[135.835464,35.012329],[135.834518,35.022081],[135.827374,35.022133],[135.827497,35.030656],[135.824617,35.035638],[135.821704,35.036054],[135.817204,35.039933],[135.81478429999999,35.04482940000002],[135.815901,35.047369],[135.826983,35.053853],[135.831556,35.052592],[135.834852,35.055554],[135.83584690000006,35.062330100000025],[135.831892,35.071456],[135.834219,35.076074],[135.838317,35.079079],[135.83984,35.086137],[135.835046,35.091327],[135.839815,35.100258],[135.842938,35.102515],[135.843262,35.109903],[135.844955,35.114325],[135.847351,35.11426],[135.849866,35.120644],[135.849606,35.126939],[135.852294,35.134267],[135.85012,35.135258],[135.84871,35.141852],[135.852614,35.14618],[135.854563,35.152731],[135.856763,35.153615],[135.856153,35.159437],[135.846813,35.162387],[135.844097,35.168876],[135.842363,35.173907],[135.843136,35.178889],[135.84063,35.180066],[135.840246,35.18223],[135.841908,35.18984],[135.837437,35.196034],[135.835494,35.206697],[135.831087,35.210417],[135.832478,35.214279],[135.829816,35.21613],[135.830749,35.218226],[135.829324,35.220481],[135.830864,35.222761],[135.837352,35.225957],[135.837925,35.23528],[135.835222,35.23964],[135.839924,35.243851],[135.840153,35.247932],[135.843994,35.251727],[135.84236,35.253199],[135.846089,35.257112],[135.844667,35.261307],[135.847535,35.266665],[135.852479,35.268959],[135.855051,35.272153],[135.854532,35.275327],[135.858492,35.278373],[135.858595,35.281144],[135.860755,35.28296],[135.858431,35.289229],[135.851681,35.285968],[135.849616,35.280282],[135.841783,35.278124],[135.840082,35.275554],[135.834609,35.274079],[135.829623,35.276735],[135.820053,35.29107],[135.821402,35.296835],[135.819679,35.299307],[135.814967,35.301257],[135.814364,35.307112],[135.810672,35.308317],[135.811249,35.31353],[135.808782,35.316878],[135.803644,35.317251],[135.79519,35.321239],[135.787693,35.307972],[135.782848,35.307236],[135.781892,35.30528],[135.777482,35.305116],[135.777762,35.294164],[135.780571,35.293038],[135.781455,35.290036],[135.776619,35.284991],[135.774756,35.284085],[135.76918,35.28949],[135.74833,35.286671],[135.73379,35.286995],[135.733022,35.284995],[135.729202,35.283586],[135.731534,35.277779],[135.725666,35.271709],[135.727349,35.267766],[135.725039,35.265582],[135.717573,35.265325],[135.71201,35.261035],[135.707221,35.261375],[135.702048,35.257053],[135.698922,35.257887],[135.689417,35.255213],[135.684191,35.257911],[135.681064,35.256759],[135.670007,35.259104],[135.667325,35.258427],[135.665151,35.260368],[135.660774,35.2604],[135.654807,35.263171],[135.651923,35.259992],[135.646449,35.259806],[135.64389,35.257144],[135.640013,35.258039],[135.628872,35.245367],[135.629709,35.235996],[135.620175,35.233166],[135.619197,35.225498],[135.61579,35.226641],[135.613206,35.225567],[135.612353,35.227556],[135.608669,35.228334],[135.599099,35.225041],[135.595373,35.221158],[135.589622,35.219019],[135.592201,35.213702],[135.596682,35.212117],[135.596542,35.202547],[135.587304,35.190861],[135.584231,35.189705],[135.582371,35.187284],[135.582952,35.185291],[135.578609,35.180143],[135.576195,35.179163],[135.572567,35.166206],[135.570349,35.166013],[135.568085,35.161227],[135.56578,35.160798],[135.56163,35.156562],[135.560374,35.150628],[135.562378,35.148232],[135.559013,35.136931],[135.561449,35.132603],[135.567916,35.127592],[135.571005,35.130906],[135.575287,35.132516],[135.577613,35.12769],[135.595542,35.128885],[135.59517,35.126301],[135.590966,35.124174],[135.592264,35.116779],[135.597309,35.11006],[135.602393,35.1105],[135.6039,35.112262],[135.612018,35.104909],[135.616478,35.10388],[135.614563,35.097384],[135.605164,35.092662],[135.600759,35.095366],[135.597923,35.094346]]]}},{"type":"Feature","id":"shibuya","properties":{"id":"shibuya","name":"涩谷区","sourceName":"Shibuya"},"geometry":{"type":"Polygon","coordinates":[[[139.661753,35.672523],[139.662056,35.671443],[139.672701,35.672296],[139.672823,35.6674],[139.675,35.663879],[139.687328,35.661571],[139.692888,35.653958],[139.708621,35.642007],[139.715233,35.642623],[139.7177594,35.64158049999997],[139.71925289999993,35.641492400000025],[139.722737,35.64464489999995],[139.72204120000004,35.655748199999984],[139.7146068,35.6572002],[139.7087504,35.66418380000002],[139.716199,35.6732877],[139.7127222,35.67636310000001],[139.71449980000003,35.68074749999999],[139.70700569999997,35.68464139999998],[139.7050715,35.6880511],[139.69972730000003,35.68877360000001],[139.6874409,35.6817221],[139.68317769999996,35.68861140000001],[139.68487620000002,35.69143469999999],[139.6837482,35.69209559999997],[139.664118,35.676348],[139.661592,35.674751],[139.661753,35.672523]]]}},{"type":"Feature","id":"paris","properties":{"id":"paris","name":"巴黎","sourceName":"Paris"},"geometry":{"type":"Polygon","coordinates":[[[2.331898060637624,48.817010929647054],[2.344448463099662,48.81556223807286],[2.352391840207208,48.81855100593643],[2.355852301315165,48.81592281549823],[2.363328923996346,48.8161481345928],[2.402237349716066,48.8295895672114],[2.410635549558315,48.824999494409816],[2.429694192167297,48.823487426624816],[2.437328614686424,48.81817682286433],[2.45941357657735,48.81684780710748],[2.462696062752353,48.81905977056918],[2.465093540859406,48.824191530689916],[2.465426352616533,48.83131958521778],[2.469724350790882,48.835195174038844],[2.465410865260515,48.84106585843884],[2.446646486889991,48.84580196618306],[2.44075815339398,48.84596434933394],[2.440519707011924,48.84443973102235],[2.437958319623623,48.844664254895896],[2.437184204443509,48.8408932178423],[2.424652097345379,48.84185706809918],[2.421847988927573,48.84443729119556],[2.419357555615491,48.8423216362718],[2.422138636243514,48.83579766096038],[2.411471874927622,48.83392893877813],[2.416341130298895,48.84923378355704],[2.412453090020587,48.87644319370212],[2.409359835767223,48.880255513389756],[2.400106665255306,48.88382119875486],[2.397609202840061,48.89472191303625],[2.39551809460183,48.89826456847116],[2.39107744463727,48.90077993289507],[2.384530045616338,48.9021475933584],[2.319887174744135,48.9004597820956],[2.28564161638002,48.886554663565285],[2.281013519711559,48.88297099007788],[2.279949332567544,48.878573123987046],[2.258467171114177,48.88038726309104],[2.254817140668558,48.874080881374105],[2.245703788405577,48.87645923248163],[2.240945304504729,48.872341617518046],[2.230658982743392,48.86807956693212],[2.224219105880447,48.853516917562075],[2.252477551164905,48.84548557637467],[2.251709308946857,48.8388218162397],[2.255144238417506,48.83480954937467],[2.268101694609093,48.8344281587163],[2.269930760703455,48.83301112512243],[2.267338606820312,48.831531984408755],[2.267826452957425,48.827835816778205],[2.272793190186762,48.827920084230804],[2.279051930653324,48.83248995215073],[2.292191836480192,48.827141584940556],[2.332461042459755,48.81824713008821],[2.331898060637624,48.817010929647054]]]}},{"type":"Feature","id":"san-francisco","properties":{"id":"san-francisco","name":"旧金山","sourceName":"San Francisco"},"geometry":{"type":"MultiPolygon","coordinates":[[[[-122.37789221499997,37.83065295200004],[-122.37851321499994,37.82650995100005],[-122.37268321299996,37.816514951000045],[-122.37243521199997,37.811305951000065],[-122.36267420999997,37.80758195100003],[-122.35879221099998,37.81428295200004],[-122.36325721199995,37.82395595200006],[-122.36995421399996,37.832141953000075],[-122.37789221499997,37.83065295200004]]],[[[-122.391388324,37.70833594100003],[-122.370424201,37.71757694300004],[-122.36176219999999,37.71501494300003],[-122.35679720099995,37.729509945000075],[-122.36549120199999,37.73462594500006],[-122.36771020299994,37.734947945000044],[-122.37010720299998,37.732335944000056],[-122.37586720399997,37.73498394400008],[-122.38533621199997,37.79072894800004],[-122.39815221599997,37.80563494800003],[-122.40746521799997,37.81144594800003],[-122.42595522,37.81098394700007],[-122.46380622499998,37.80465794300005],[-122.47034922699999,37.808675943000026],[-122.47809622799997,37.81083294300004],[-122.48579622699998,37.79063394100007],[-122.49289622799995,37.78793394000007],[-122.50532322999999,37.788316939000026],[-122.51449622999996,37.78083393800006],[-122.50649622199995,37.72373593400005],[-122.502440101,37.70813791900008],[-122.391388324,37.70833594100003]]]]}}]}